<?xml version="1.0" encoding="UTF-8" standalone="no" ?>
<gpx xmlns="http://www.topografix.com/GPX/1/1" creator="OruxMaps v.10.7.4 GP" version="1.1" xmlns:gpxtpx="http://www.garmin.com/xmlschemas/TrackPointExtension/v2" xmlns:xsi="http://www.w3.org/2001/XMLSchema-instance" xmlns:om="http://www.oruxmaps.com/oruxmapsextensions/1/0" xsi:schemaLocation="http://www.topografix.com/GPX/1/1 http://www.topografix.com/GPX/1/1/gpx.xsd">
<!-- owner: e57cf051988575 -->
<metadata>
<name><![CDATA[2026-08-02 05:35:18 Cima delle Cenge, Vetta Bella]]></name>
<link href="https://www.oruxmaps.com">
<text>OruxMaps GP</text>
</link>
<time>2026-08-02T03:35:18.040Z</time><bounds maxlat="46.4450038" maxlon="13.5718063" minlat="46.4234817" minlon="13.5209210"/>
</metadata>
<wpt lat="46.4419886" lon="13.5718063">
<ele>884.35</ele>
<time>2026-08-02T03:35:18.889Z</time>
<name><![CDATA[]]></name>
<sym>Waypoint</sym>
<type>Starting Point</type>
<extensions>
<om:oruxmapsextensions>
<om:ext type="ICON" subtype="0">38</om:ext>
</om:oruxmapsextensions>
</extensions>
</wpt>
<wpt lat="46.4419458" lon="13.5716751">
<ele>892.56</ele>
<time>2026-08-02T13:24:22.480Z</time>
<name><![CDATA[]]></name>
<desc><![CDATA[<p><br /><h3>Name: Segment: 1</h3><br />Type: Hiking<br/>Start time: 05:35 2 Aug 2026<br/>Finish time: 15:24 2 Aug 2026<br/>Distance: 17.6km (09:49)<br/>Moving time: 06:48<br/>Average speed: 1.80 km/h<br/>Speed in Movement: 2.59 km/h<br/>Maximum Speed: 9.96 km/h<br/>Minimum altitude: 870 m<br/>Maximum altitude: 2049 m<br/>Ascent speed: 798.5 m/h<br/>Descent speed: 763.0 m/h<br/>Elevation gain: 2651 m<br/>Elevation loss: 2646 m<br/>Ascent time: 03:19<br/>Descent time: 03:28<br/></p>]]></desc>
<sym>Waypoint</sym>
<type>Finishing Point</type>
<extensions>
<om:oruxmapsextensions>
<om:ext type="ICON" subtype="0">15</om:ext>
</om:oruxmapsextensions>
</extensions>
</wpt>
<trk>
<name><![CDATA[2026-08-02 05:35:18 Cima delle Cenge, Vetta Bella]]></name>
<desc><![CDATA[<p>Type: Hiking<br/>Start time: 05:35 2 Aug 2026<br/>Finish time: 15:24 2 Aug 2026<br/>Distance: 17.6 km (09:49)<br/>Moving time: 06:48<br/>Average speed: 1.80 km/h<br/>Speed in Movement: 2.59 km/h<br/>Maximum Speed: 9.96 km/h<br/>Minimum altitude: 870 m<br/>Maximum altitude: 2049 m<br/>Ascent speed: 798.5 m/h<br/>Descent speed: 763.0 m/h<br/>Elevation gain: 2651 m<br/>Elevation loss: 2646 m<br/>Ascent time: 03:19<br/>Descent time: 03:28<br/></p><hr align="center" width="480" style="height: 2px; width: 517px"/>]]></desc>
<type>Hiking</type>
<extensions>
<om:oruxmapsextensions>
<om:ext type="TYPE" subtype="0">5</om:ext>
<om:ext type="DIFFICULTY">0</om:ext>
</om:oruxmapsextensions>
</extensions>
<trkseg>
<trkpt lat="46.4419886" lon="13.5718063">
<ele>884.35</ele>
<time>2026-08-02T03:35:19.522Z</time>
</trkpt>
<trkpt lat="46.4418059" lon="13.5716863">
<ele>870.51</ele>
<time>2026-08-02T03:35:20.000Z</time>
</trkpt>
<trkpt lat="46.4416798" lon="13.5714311">
<ele>895.79</ele>
<time>2026-08-02T03:36:05.000Z</time>
</trkpt>
<trkpt lat="46.4414897" lon="13.5714081">
<ele>897.86</ele>
<time>2026-08-02T03:36:17.000Z</time>
</trkpt>
<trkpt lat="46.4412993" lon="13.5713684">
<ele>905.09</ele>
<time>2026-08-02T03:36:31.000Z</time>
</trkpt>
<trkpt lat="46.4411143" lon="13.5713194">
<ele>911.94</ele>
<time>2026-08-02T03:36:40.000Z</time>
</trkpt>
<trkpt lat="46.4409381" lon="13.5713852">
<ele>907.94</ele>
<time>2026-08-02T03:37:12.000Z</time>
</trkpt>
<trkpt lat="46.4407454" lon="13.5713983">
<ele>903.98</ele>
<time>2026-08-02T03:37:24.000Z</time>
</trkpt>
<trkpt lat="46.4405638" lon="13.5714129">
<ele>902.63</ele>
<time>2026-08-02T03:37:36.000Z</time>
</trkpt>
<trkpt lat="46.4403871" lon="13.5713107">
<ele>902.22</ele>
<time>2026-08-02T03:37:57.000Z</time>
</trkpt>
<trkpt lat="46.4402315" lon="13.5711451">
<ele>904.23</ele>
<time>2026-08-02T03:38:09.000Z</time>
</trkpt>
<trkpt lat="46.4400843" lon="13.5709887">
<ele>900.26</ele>
<time>2026-08-02T03:38:20.000Z</time>
</trkpt>
<trkpt lat="46.4399274" lon="13.5708018">
<ele>900.17</ele>
<time>2026-08-02T03:38:31.000Z</time>
</trkpt>
<trkpt lat="46.4397627" lon="13.5706531">
<ele>900.81</ele>
<time>2026-08-02T03:38:43.000Z</time>
</trkpt>
<trkpt lat="46.4396210" lon="13.5704635">
<ele>901.70</ele>
<time>2026-08-02T03:38:55.000Z</time>
</trkpt>
<trkpt lat="46.4395564" lon="13.5702192">
<ele>901.38</ele>
<time>2026-08-02T03:39:06.000Z</time>
</trkpt>
<trkpt lat="46.4394955" lon="13.5699557">
<ele>903.80</ele>
<time>2026-08-02T03:39:17.000Z</time>
</trkpt>
<trkpt lat="46.4394125" lon="13.5697056">
<ele>905.99</ele>
<time>2026-08-02T03:39:28.000Z</time>
</trkpt>
<trkpt lat="46.4394044" lon="13.5694226">
<ele>908.74</ele>
<time>2026-08-02T03:39:39.000Z</time>
</trkpt>
<trkpt lat="46.4393590" lon="13.5691501">
<ele>911.89</ele>
<time>2026-08-02T03:39:52.000Z</time>
</trkpt>
<trkpt lat="46.4393018" lon="13.5688778">
<ele>908.96</ele>
<time>2026-08-02T03:40:06.000Z</time>
</trkpt>
<trkpt lat="46.4392295" lon="13.5686027">
<ele>909.31</ele>
<time>2026-08-02T03:40:17.000Z</time>
</trkpt>
<trkpt lat="46.4391756" lon="13.5683463">
<ele>905.59</ele>
<time>2026-08-02T03:40:27.000Z</time>
</trkpt>
<trkpt lat="46.4391195" lon="13.5680973">
<ele>908.05</ele>
<time>2026-08-02T03:40:39.000Z</time>
</trkpt>
<trkpt lat="46.4390798" lon="13.5678292">
<ele>905.81</ele>
<time>2026-08-02T03:40:50.000Z</time>
</trkpt>
<trkpt lat="46.4391254" lon="13.5675739">
<ele>909.24</ele>
<time>2026-08-02T03:41:00.000Z</time>
</trkpt>
<trkpt lat="46.4391773" lon="13.5673077">
<ele>909.45</ele>
<time>2026-08-02T03:41:16.000Z</time>
</trkpt>
<trkpt lat="46.4390184" lon="13.5671510">
<ele>917.45</ele>
<time>2026-08-02T03:41:48.000Z</time>
</trkpt>
<trkpt lat="46.4388922" lon="13.5669304">
<ele>919.90</ele>
<time>2026-08-02T03:41:59.000Z</time>
</trkpt>
<trkpt lat="46.4387782" lon="13.5667109">
<ele>919.89</ele>
<time>2026-08-02T03:42:15.000Z</time>
</trkpt>
<trkpt lat="46.4386595" lon="13.5665037">
<ele>921.61</ele>
<time>2026-08-02T03:42:27.000Z</time>
</trkpt>
<trkpt lat="46.4384975" lon="13.5663581">
<ele>922.55</ele>
<time>2026-08-02T03:42:39.000Z</time>
</trkpt>
<trkpt lat="46.4383382" lon="13.5662241">
<ele>924.08</ele>
<time>2026-08-02T03:42:55.000Z</time>
</trkpt>
<trkpt lat="46.4381910" lon="13.5660534">
<ele>923.56</ele>
<time>2026-08-02T03:43:15.000Z</time>
</trkpt>
<trkpt lat="46.4380791" lon="13.5658437">
<ele>937.03</ele>
<time>2026-08-02T03:43:37.000Z</time>
</trkpt>
<trkpt lat="46.4379236" lon="13.5656857">
<ele>943.99</ele>
<time>2026-08-02T03:43:57.000Z</time>
</trkpt>
<trkpt lat="46.4377955" lon="13.5654907">
<ele>954.00</ele>
<time>2026-08-02T03:44:23.000Z</time>
</trkpt>
<trkpt lat="46.4376589" lon="13.5653157">
<ele>955.59</ele>
<time>2026-08-02T03:44:46.000Z</time>
</trkpt>
<trkpt lat="46.4375784" lon="13.5650807">
<ele>967.42</ele>
<time>2026-08-02T03:45:15.000Z</time>
</trkpt>
<trkpt lat="46.4374422" lon="13.5649036">
<ele>968.41</ele>
<time>2026-08-02T03:45:35.000Z</time>
</trkpt>
<trkpt lat="46.4372843" lon="13.5647683">
<ele>973.77</ele>
<time>2026-08-02T03:45:59.000Z</time>
</trkpt>
<trkpt lat="46.4371727" lon="13.5645542">
<ele>981.95</ele>
<time>2026-08-02T03:46:34.000Z</time>
</trkpt>
<trkpt lat="46.4370616" lon="13.5643365">
<ele>994.30</ele>
<time>2026-08-02T03:46:58.000Z</time>
</trkpt>
<trkpt lat="46.4371119" lon="13.5640839">
<ele>1000.85</ele>
<time>2026-08-02T03:47:35.000Z</time>
</trkpt>
<trkpt lat="46.4369743" lon="13.5639097">
<ele>1009.11</ele>
<time>2026-08-02T03:48:03.000Z</time>
</trkpt>
<trkpt lat="46.4368350" lon="13.5637274">
<ele>1010.66</ele>
<time>2026-08-02T03:48:31.000Z</time>
</trkpt>
<trkpt lat="46.4367202" lon="13.5635231">
<ele>1019.67</ele>
<time>2026-08-02T03:48:53.000Z</time>
</trkpt>
<trkpt lat="46.4365991" lon="13.5633198">
<ele>1030.16</ele>
<time>2026-08-02T03:49:13.000Z</time>
</trkpt>
<trkpt lat="46.4364606" lon="13.5631466">
<ele>1037.52</ele>
<time>2026-08-02T03:50:10.000Z</time>
</trkpt>
<trkpt lat="46.4363021" lon="13.5630016">
<ele>1041.01</ele>
<time>2026-08-02T03:50:29.000Z</time>
</trkpt>
<trkpt lat="46.4361282" lon="13.5628847">
<ele>1046.78</ele>
<time>2026-08-02T03:50:45.000Z</time>
</trkpt>
<trkpt lat="46.4359409" lon="13.5628607">
<ele>1050.07</ele>
<time>2026-08-02T03:50:59.000Z</time>
</trkpt>
<trkpt lat="46.4357473" lon="13.5628820">
<ele>1048.88</ele>
<time>2026-08-02T03:51:09.000Z</time>
</trkpt>
<trkpt lat="46.4355588" lon="13.5628568">
<ele>1046.12</ele>
<time>2026-08-02T03:51:21.000Z</time>
</trkpt>
<trkpt lat="46.4353811" lon="13.5628101">
<ele>1044.96</ele>
<time>2026-08-02T03:51:40.000Z</time>
</trkpt>
<trkpt lat="46.4352172" lon="13.5626792">
<ele>1050.69</ele>
<time>2026-08-02T03:51:51.000Z</time>
</trkpt>
<trkpt lat="46.4350694" lon="13.5625240">
<ele>1052.81</ele>
<time>2026-08-02T03:52:13.000Z</time>
</trkpt>
<trkpt lat="46.4349555" lon="13.5623079">
<ele>1058.21</ele>
<time>2026-08-02T03:52:34.000Z</time>
</trkpt>
<trkpt lat="46.4348568" lon="13.5620809">
<ele>1060.16</ele>
<time>2026-08-02T03:52:53.000Z</time>
</trkpt>
<trkpt lat="46.4347785" lon="13.5618162">
<ele>1058.64</ele>
<time>2026-08-02T03:53:03.000Z</time>
</trkpt>
<trkpt lat="46.4347463" lon="13.5615508">
<ele>1064.43</ele>
<time>2026-08-02T03:53:14.000Z</time>
</trkpt>
<trkpt lat="46.4346502" lon="13.5613127">
<ele>1064.74</ele>
<time>2026-08-02T03:53:25.000Z</time>
</trkpt>
<trkpt lat="46.4345660" lon="13.5610715">
<ele>1073.20</ele>
<time>2026-08-02T03:53:49.000Z</time>
</trkpt>
<trkpt lat="46.4343915" lon="13.5611776">
<ele>1076.74</ele>
<time>2026-08-02T03:54:19.000Z</time>
</trkpt>
<trkpt lat="46.4342136" lon="13.5611380">
<ele>1077.77</ele>
<time>2026-08-02T03:54:34.000Z</time>
</trkpt>
<trkpt lat="46.4340384" lon="13.5610393">
<ele>1084.76</ele>
<time>2026-08-02T03:54:51.000Z</time>
</trkpt>
<trkpt lat="46.4338961" lon="13.5608624">
<ele>1091.73</ele>
<time>2026-08-02T03:55:12.000Z</time>
</trkpt>
<trkpt lat="46.4338005" lon="13.5606305">
<ele>1094.78</ele>
<time>2026-08-02T03:55:28.000Z</time>
</trkpt>
<trkpt lat="46.4336429" lon="13.5604513">
<ele>1096.90</ele>
<time>2026-08-02T03:55:41.000Z</time>
</trkpt>
<trkpt lat="46.4334583" lon="13.5604192">
<ele>1101.16</ele>
<time>2026-08-02T03:55:55.000Z</time>
</trkpt>
<trkpt lat="46.4332793" lon="13.5603576">
<ele>1105.28</ele>
<time>2026-08-02T03:56:16.000Z</time>
</trkpt>
<trkpt lat="46.4330928" lon="13.5603228">
<ele>1110.31</ele>
<time>2026-08-02T03:56:34.000Z</time>
</trkpt>
<trkpt lat="46.4329144" lon="13.5602819">
<ele>1110.88</ele>
<time>2026-08-02T03:56:50.000Z</time>
</trkpt>
<trkpt lat="46.4327319" lon="13.5603209">
<ele>1121.86</ele>
<time>2026-08-02T03:57:22.000Z</time>
</trkpt>
<trkpt lat="46.4325517" lon="13.5603243">
<ele>1119.22</ele>
<time>2026-08-02T03:57:40.000Z</time>
</trkpt>
<trkpt lat="46.4323672" lon="13.5603909">
<ele>1125.25</ele>
<time>2026-08-02T03:58:05.000Z</time>
</trkpt>
<trkpt lat="46.4322146" lon="13.5605422">
<ele>1133.17</ele>
<time>2026-08-02T03:58:19.000Z</time>
</trkpt>
<trkpt lat="46.4320492" lon="13.5606676">
<ele>1133.96</ele>
<time>2026-08-02T03:58:44.000Z</time>
</trkpt>
<trkpt lat="46.4318798" lon="13.5607855">
<ele>1136.15</ele>
<time>2026-08-02T03:59:02.000Z</time>
</trkpt>
<trkpt lat="46.4316980" lon="13.5609031">
<ele>1145.43</ele>
<time>2026-08-02T03:59:24.000Z</time>
</trkpt>
<trkpt lat="46.4315190" lon="13.5609370">
<ele>1150.27</ele>
<time>2026-08-02T03:59:51.000Z</time>
</trkpt>
<trkpt lat="46.4313382" lon="13.5609301">
<ele>1160.89</ele>
<time>2026-08-02T04:00:19.000Z</time>
</trkpt>
<trkpt lat="46.4312024" lon="13.5611204">
<ele>1166.22</ele>
<time>2026-08-02T04:00:45.000Z</time>
</trkpt>
<trkpt lat="46.4310354" lon="13.5612672">
<ele>1179.39</ele>
<time>2026-08-02T04:01:15.000Z</time>
</trkpt>
<trkpt lat="46.4308938" lon="13.5614401">
<ele>1180.17</ele>
<time>2026-08-02T04:01:30.000Z</time>
</trkpt>
<trkpt lat="46.4307848" lon="13.5612242">
<ele>1183.91</ele>
<time>2026-08-02T04:02:30.000Z</time>
</trkpt>
<trkpt lat="46.4306860" lon="13.5610059">
<ele>1187.94</ele>
<time>2026-08-02T04:02:45.000Z</time>
</trkpt>
<trkpt lat="46.4305203" lon="13.5608991">
<ele>1195.98</ele>
<time>2026-08-02T04:03:03.000Z</time>
</trkpt>
<trkpt lat="46.4303480" lon="13.5608214">
<ele>1197.48</ele>
<time>2026-08-02T04:03:24.000Z</time>
</trkpt>
<trkpt lat="46.4302995" lon="13.5605638">
<ele>1205.55</ele>
<time>2026-08-02T04:03:48.000Z</time>
</trkpt>
<trkpt lat="46.4302347" lon="13.5603169">
<ele>1213.59</ele>
<time>2026-08-02T04:04:15.000Z</time>
</trkpt>
<trkpt lat="46.4300755" lon="13.5601918">
<ele>1219.71</ele>
<time>2026-08-02T04:04:44.000Z</time>
</trkpt>
<trkpt lat="46.4299145" lon="13.5600650">
<ele>1222.88</ele>
<time>2026-08-02T04:05:07.000Z</time>
</trkpt>
<trkpt lat="46.4297341" lon="13.5600039">
<ele>1225.29</ele>
<time>2026-08-02T04:05:26.000Z</time>
</trkpt>
<trkpt lat="46.4295470" lon="13.5600089">
<ele>1231.28</ele>
<time>2026-08-02T04:05:47.000Z</time>
</trkpt>
<trkpt lat="46.4294033" lon="13.5598337">
<ele>1229.26</ele>
<time>2026-08-02T04:06:06.000Z</time>
</trkpt>
<trkpt lat="46.4292194" lon="13.5597604">
<ele>1232.00</ele>
<time>2026-08-02T04:06:27.000Z</time>
</trkpt>
<trkpt lat="46.4290453" lon="13.5596703">
<ele>1238.86</ele>
<time>2026-08-02T04:06:46.000Z</time>
</trkpt>
<trkpt lat="46.4288976" lon="13.5595202">
<ele>1249.32</ele>
<time>2026-08-02T04:06:59.000Z</time>
</trkpt>
<trkpt lat="46.4287944" lon="13.5592935">
<ele>1254.39</ele>
<time>2026-08-02T04:07:14.000Z</time>
</trkpt>
<trkpt lat="46.4287384" lon="13.5590273">
<ele>1259.37</ele>
<time>2026-08-02T04:07:30.000Z</time>
</trkpt>
<trkpt lat="46.4286605" lon="13.5587839">
<ele>1263.49</ele>
<time>2026-08-02T04:07:44.000Z</time>
</trkpt>
<trkpt lat="46.4285136" lon="13.5586105">
<ele>1263.67</ele>
<time>2026-08-02T04:07:57.000Z</time>
</trkpt>
<trkpt lat="46.4283500" lon="13.5584672">
<ele>1268.46</ele>
<time>2026-08-02T04:08:13.000Z</time>
</trkpt>
<trkpt lat="46.4281980" lon="13.5583250">
<ele>1269.81</ele>
<time>2026-08-02T04:08:27.000Z</time>
</trkpt>
<trkpt lat="46.4280473" lon="13.5581735">
<ele>1273.61</ele>
<time>2026-08-02T04:08:43.000Z</time>
</trkpt>
<trkpt lat="46.4278710" lon="13.5580829">
<ele>1269.53</ele>
<time>2026-08-02T04:08:59.000Z</time>
</trkpt>
<trkpt lat="46.4277067" lon="13.5579672">
<ele>1283.96</ele>
<time>2026-08-02T04:09:38.000Z</time>
</trkpt>
<trkpt lat="46.4275283" lon="13.5579275">
<ele>1289.12</ele>
<time>2026-08-02T04:10:17.000Z</time>
</trkpt>
<trkpt lat="46.4273540" lon="13.5578508">
<ele>1294.94</ele>
<time>2026-08-02T04:10:36.000Z</time>
</trkpt>
<trkpt lat="46.4271751" lon="13.5578993">
<ele>1298.43</ele>
<time>2026-08-02T04:10:58.000Z</time>
</trkpt>
<trkpt lat="46.4270151" lon="13.5580437">
<ele>1304.72</ele>
<time>2026-08-02T04:11:30.000Z</time>
</trkpt>
<trkpt lat="46.4269343" lon="13.5577925">
<ele>1312.37</ele>
<time>2026-08-02T04:12:23.000Z</time>
</trkpt>
<trkpt lat="46.4270072" lon="13.5575341">
<ele>1313.14</ele>
<time>2026-08-02T04:12:38.000Z</time>
</trkpt>
<trkpt lat="46.4270775" lon="13.5572744">
<ele>1314.67</ele>
<time>2026-08-02T04:12:51.000Z</time>
</trkpt>
<trkpt lat="46.4271510" lon="13.5570203">
<ele>1314.65</ele>
<time>2026-08-02T04:13:02.000Z</time>
</trkpt>
<trkpt lat="46.4272603" lon="13.5568067">
<ele>1318.88</ele>
<time>2026-08-02T04:13:18.000Z</time>
</trkpt>
<trkpt lat="46.4273494" lon="13.5565778">
<ele>1317.46</ele>
<time>2026-08-02T04:13:32.000Z</time>
</trkpt>
<trkpt lat="46.4274422" lon="13.5563327">
<ele>1324.97</ele>
<time>2026-08-02T04:14:02.000Z</time>
</trkpt>
<trkpt lat="46.4275278" lon="13.5560953">
<ele>1324.30</ele>
<time>2026-08-02T04:14:13.000Z</time>
</trkpt>
<trkpt lat="46.4276215" lon="13.5558668">
<ele>1325.67</ele>
<time>2026-08-02T04:14:28.000Z</time>
</trkpt>
<trkpt lat="46.4277054" lon="13.5556282">
<ele>1332.51</ele>
<time>2026-08-02T04:14:44.000Z</time>
</trkpt>
<trkpt lat="46.4277846" lon="13.5553794">
<ele>1338.93</ele>
<time>2026-08-02T04:15:01.000Z</time>
</trkpt>
<trkpt lat="46.4278746" lon="13.5551327">
<ele>1340.27</ele>
<time>2026-08-02T04:15:15.000Z</time>
</trkpt>
<trkpt lat="46.4279693" lon="13.5548965">
<ele>1348.67</ele>
<time>2026-08-02T04:15:32.000Z</time>
</trkpt>
<trkpt lat="46.4280456" lon="13.5546535">
<ele>1348.71</ele>
<time>2026-08-02T04:15:48.000Z</time>
</trkpt>
<trkpt lat="46.4281277" lon="13.5544134">
<ele>1346.05</ele>
<time>2026-08-02T04:16:02.000Z</time>
</trkpt>
<trkpt lat="46.4281670" lon="13.5541587">
<ele>1356.41</ele>
<time>2026-08-02T04:16:22.000Z</time>
</trkpt>
<trkpt lat="46.4282003" lon="13.5538774">
<ele>1364.43</ele>
<time>2026-08-02T04:16:44.000Z</time>
</trkpt>
<trkpt lat="46.4281866" lon="13.5536085">
<ele>1369.03</ele>
<time>2026-08-02T04:16:56.000Z</time>
</trkpt>
<trkpt lat="46.4281633" lon="13.5533388">
<ele>1372.37</ele>
<time>2026-08-02T04:17:14.000Z</time>
</trkpt>
<trkpt lat="46.4282200" lon="13.5530745">
<ele>1378.83</ele>
<time>2026-08-02T04:17:32.000Z</time>
</trkpt>
<trkpt lat="46.4282550" lon="13.5528162">
<ele>1385.66</ele>
<time>2026-08-02T04:17:49.000Z</time>
</trkpt>
<trkpt lat="46.4283063" lon="13.5525536">
<ele>1391.46</ele>
<time>2026-08-02T04:18:08.000Z</time>
</trkpt>
<trkpt lat="46.4283923" lon="13.5523161">
<ele>1398.80</ele>
<time>2026-08-02T04:18:29.000Z</time>
</trkpt>
<trkpt lat="46.4284075" lon="13.5520466">
<ele>1408.45</ele>
<time>2026-08-02T04:18:55.000Z</time>
</trkpt>
<trkpt lat="46.4283809" lon="13.5517796">
<ele>1410.72</ele>
<time>2026-08-02T04:19:16.000Z</time>
</trkpt>
<trkpt lat="46.4284171" lon="13.5515227">
<ele>1411.98</ele>
<time>2026-08-02T04:19:36.000Z</time>
</trkpt>
<trkpt lat="46.4284233" lon="13.5512507">
<ele>1418.12</ele>
<time>2026-08-02T04:19:56.000Z</time>
</trkpt>
<trkpt lat="46.4284548" lon="13.5509936">
<ele>1426.44</ele>
<time>2026-08-02T04:20:22.000Z</time>
</trkpt>
<trkpt lat="46.4284826" lon="13.5507260">
<ele>1432.78</ele>
<time>2026-08-02T04:20:46.000Z</time>
</trkpt>
<trkpt lat="46.4285043" lon="13.5504664">
<ele>1432.00</ele>
<time>2026-08-02T04:21:05.000Z</time>
</trkpt>
<trkpt lat="46.4285380" lon="13.5502053">
<ele>1441.64</ele>
<time>2026-08-02T04:21:30.000Z</time>
</trkpt>
<trkpt lat="46.4285716" lon="13.5499430">
<ele>1444.46</ele>
<time>2026-08-02T04:21:52.000Z</time>
</trkpt>
<trkpt lat="46.4285218" lon="13.5496848">
<ele>1451.34</ele>
<time>2026-08-02T04:22:14.000Z</time>
</trkpt>
<trkpt lat="46.4284239" lon="13.5494510">
<ele>1458.33</ele>
<time>2026-08-02T04:22:30.000Z</time>
</trkpt>
<trkpt lat="46.4283115" lon="13.5492301">
<ele>1458.14</ele>
<time>2026-08-02T04:22:46.000Z</time>
</trkpt>
<trkpt lat="46.4282132" lon="13.5490015">
<ele>1462.36</ele>
<time>2026-08-02T04:23:04.000Z</time>
</trkpt>
<trkpt lat="46.4281431" lon="13.5487601">
<ele>1462.74</ele>
<time>2026-08-02T04:23:22.000Z</time>
</trkpt>
<trkpt lat="46.4280614" lon="13.5485237">
<ele>1465.46</ele>
<time>2026-08-02T04:23:49.000Z</time>
</trkpt>
<trkpt lat="46.4280541" lon="13.5482552">
<ele>1473.55</ele>
<time>2026-08-02T04:24:18.000Z</time>
</trkpt>
<trkpt lat="46.4280708" lon="13.5479835">
<ele>1478.47</ele>
<time>2026-08-02T04:24:41.000Z</time>
</trkpt>
<trkpt lat="46.4282538" lon="13.5480219">
<ele>1496.31</ele>
<time>2026-08-02T04:25:28.000Z</time>
</trkpt>
<trkpt lat="46.4284392" lon="13.5480851">
<ele>1492.98</ele>
<time>2026-08-02T04:25:45.000Z</time>
</trkpt>
<trkpt lat="46.4285836" lon="13.5482443">
<ele>1498.15</ele>
<time>2026-08-02T04:26:04.000Z</time>
</trkpt>
<trkpt lat="46.4287458" lon="13.5483637">
<ele>1508.15</ele>
<time>2026-08-02T04:26:23.000Z</time>
</trkpt>
<trkpt lat="46.4289233" lon="13.5484681">
<ele>1516.52</ele>
<time>2026-08-02T04:26:49.000Z</time>
</trkpt>
<trkpt lat="46.4291032" lon="13.5485439">
<ele>1519.06</ele>
<time>2026-08-02T04:27:05.000Z</time>
</trkpt>
<trkpt lat="46.4292478" lon="13.5483748">
<ele>1518.19</ele>
<time>2026-08-02T04:27:31.000Z</time>
</trkpt>
<trkpt lat="46.4292670" lon="13.5481103">
<ele>1526.83</ele>
<time>2026-08-02T04:27:57.000Z</time>
</trkpt>
<trkpt lat="46.4292202" lon="13.5478582">
<ele>1538.00</ele>
<time>2026-08-02T04:28:22.000Z</time>
</trkpt>
<trkpt lat="46.4292045" lon="13.5475933">
<ele>1543.39</ele>
<time>2026-08-02T04:28:46.000Z</time>
</trkpt>
<trkpt lat="46.4292284" lon="13.5473126">
<ele>1547.86</ele>
<time>2026-08-02T04:29:10.000Z</time>
</trkpt>
<trkpt lat="46.4292056" lon="13.5470440">
<ele>1555.54</ele>
<time>2026-08-02T04:29:30.000Z</time>
</trkpt>
<trkpt lat="46.4292075" lon="13.5467772">
<ele>1557.58</ele>
<time>2026-08-02T04:29:59.000Z</time>
</trkpt>
<trkpt lat="46.4291780" lon="13.5465177">
<ele>1567.37</ele>
<time>2026-08-02T04:30:22.000Z</time>
</trkpt>
<trkpt lat="46.4292231" lon="13.5462539">
<ele>1570.90</ele>
<time>2026-08-02T04:30:39.000Z</time>
</trkpt>
<trkpt lat="46.4292892" lon="13.5460035">
<ele>1577.48</ele>
<time>2026-08-02T04:31:02.000Z</time>
</trkpt>
<trkpt lat="46.4292763" lon="13.5457276">
<ele>1580.99</ele>
<time>2026-08-02T04:31:19.000Z</time>
</trkpt>
<trkpt lat="46.4292474" lon="13.5454698">
<ele>1592.08</ele>
<time>2026-08-02T04:31:44.000Z</time>
</trkpt>
<trkpt lat="46.4292350" lon="13.5452067">
<ele>1592.56</ele>
<time>2026-08-02T04:32:04.000Z</time>
</trkpt>
<trkpt lat="46.4292299" lon="13.5449388">
<ele>1601.37</ele>
<time>2026-08-02T04:32:34.000Z</time>
</trkpt>
<trkpt lat="46.4292559" lon="13.5446783">
<ele>1607.70</ele>
<time>2026-08-02T04:33:00.000Z</time>
</trkpt>
<trkpt lat="46.4292705" lon="13.5444170">
<ele>1612.74</ele>
<time>2026-08-02T04:33:18.000Z</time>
</trkpt>
<trkpt lat="46.4292303" lon="13.5441624">
<ele>1618.11</ele>
<time>2026-08-02T04:33:37.000Z</time>
</trkpt>
<trkpt lat="46.4291769" lon="13.5439026">
<ele>1621.38</ele>
<time>2026-08-02T04:33:56.000Z</time>
</trkpt>
<trkpt lat="46.4292088" lon="13.5436409">
<ele>1628.42</ele>
<time>2026-08-02T04:34:17.000Z</time>
</trkpt>
<trkpt lat="46.4292680" lon="13.5433943">
<ele>1627.00</ele>
<time>2026-08-02T04:34:33.000Z</time>
</trkpt>
<trkpt lat="46.4293181" lon="13.5431421">
<ele>1627.29</ele>
<time>2026-08-02T04:35:05.000Z</time>
</trkpt>
<trkpt lat="46.4292374" lon="13.5428892">
<ele>1630.53</ele>
<time>2026-08-02T04:35:21.000Z</time>
</trkpt>
<trkpt lat="46.4291311" lon="13.5426741">
<ele>1627.55</ele>
<time>2026-08-02T04:35:37.000Z</time>
</trkpt>
<trkpt lat="46.4290598" lon="13.5424091">
<ele>1620.86</ele>
<time>2026-08-02T04:35:48.000Z</time>
</trkpt>
<trkpt lat="46.4289680" lon="13.5421756">
<ele>1621.12</ele>
<time>2026-08-02T04:36:00.000Z</time>
</trkpt>
<trkpt lat="46.4288711" lon="13.5419503">
<ele>1619.35</ele>
<time>2026-08-02T04:36:54.000Z</time>
</trkpt>
<trkpt lat="46.4289227" lon="13.5416918">
<ele>1630.71</ele>
<time>2026-08-02T04:37:39.000Z</time>
</trkpt>
<trkpt lat="46.4289004" lon="13.5414230">
<ele>1634.10</ele>
<time>2026-08-02T04:38:15.000Z</time>
</trkpt>
<trkpt lat="46.4288839" lon="13.5411605">
<ele>1639.19</ele>
<time>2026-08-02T04:38:57.000Z</time>
</trkpt>
<trkpt lat="46.4289233" lon="13.5409044">
<ele>1649.57</ele>
<time>2026-08-02T04:39:34.000Z</time>
</trkpt>
<trkpt lat="46.4288852" lon="13.5406404">
<ele>1659.53</ele>
<time>2026-08-02T04:40:08.000Z</time>
</trkpt>
<trkpt lat="46.4289427" lon="13.5403843">
<ele>1672.27</ele>
<time>2026-08-02T04:40:47.000Z</time>
</trkpt>
<trkpt lat="46.4289489" lon="13.5401207">
<ele>1680.13</ele>
<time>2026-08-02T04:41:23.000Z</time>
</trkpt>
<trkpt lat="46.4289129" lon="13.5398547">
<ele>1695.53</ele>
<time>2026-08-02T04:42:19.000Z</time>
</trkpt>
<trkpt lat="46.4287681" lon="13.5396781">
<ele>1699.34</ele>
<time>2026-08-02T04:44:08.000Z</time>
</trkpt>
<trkpt lat="46.4285915" lon="13.5396145">
<ele>1705.60</ele>
<time>2026-08-02T04:45:31.000Z</time>
</trkpt>
<trkpt lat="46.4284688" lon="13.5394207">
<ele>1712.96</ele>
<time>2026-08-02T04:46:12.000Z</time>
</trkpt>
<trkpt lat="46.4284163" lon="13.5391654">
<ele>1720.41</ele>
<time>2026-08-02T04:47:28.000Z</time>
</trkpt>
<trkpt lat="46.4284582" lon="13.5389057">
<ele>1740.00</ele>
<time>2026-08-02T04:48:32.000Z</time>
</trkpt>
<trkpt lat="46.4285502" lon="13.5386708">
<ele>1764.31</ele>
<time>2026-08-02T04:50:09.000Z</time>
</trkpt>
<trkpt lat="46.4285785" lon="13.5384110">
<ele>1774.05</ele>
<time>2026-08-02T04:50:50.000Z</time>
</trkpt>
<trkpt lat="46.4284566" lon="13.5382158">
<ele>1788.32</ele>
<time>2026-08-02T04:51:43.000Z</time>
</trkpt>
<trkpt lat="46.4285276" lon="13.5379743">
<ele>1797.13</ele>
<time>2026-08-02T04:52:50.000Z</time>
</trkpt>
<trkpt lat="46.4285962" lon="13.5377282">
<ele>1811.39</ele>
<time>2026-08-02T04:53:35.000Z</time>
</trkpt>
<trkpt lat="46.4286030" lon="13.5374648">
<ele>1819.29</ele>
<time>2026-08-02T04:54:22.000Z</time>
</trkpt>
<trkpt lat="46.4286262" lon="13.5372018">
<ele>1831.19</ele>
<time>2026-08-02T04:55:09.000Z</time>
</trkpt>
<trkpt lat="46.4286937" lon="13.5369591">
<ele>1840.92</ele>
<time>2026-08-02T04:55:45.000Z</time>
</trkpt>
<trkpt lat="46.4288076" lon="13.5367421">
<ele>1876.53</ele>
<time>2026-08-02T05:02:50.000Z</time>
</trkpt>
<trkpt lat="46.4289450" lon="13.5365729">
<ele>1878.09</ele>
<time>2026-08-02T05:06:50.000Z</time>
</trkpt>
<trkpt lat="46.4291243" lon="13.5365942">
<ele>1919.83</ele>
<time>2026-08-02T05:13:01.000Z</time>
</trkpt>
<trkpt lat="46.4292584" lon="13.5364194">
<ele>1927.60</ele>
<time>2026-08-02T05:14:54.000Z</time>
</trkpt>
<trkpt lat="46.4294274" lon="13.5363229">
<ele>1931.28</ele>
<time>2026-08-02T05:15:58.000Z</time>
</trkpt>
<trkpt lat="46.4295584" lon="13.5361398">
<ele>1930.43</ele>
<time>2026-08-02T05:16:16.000Z</time>
</trkpt>
<trkpt lat="46.4296644" lon="13.5359242">
<ele>1948.78</ele>
<time>2026-08-02T05:17:49.000Z</time>
</trkpt>
<trkpt lat="46.4297180" lon="13.5356574">
<ele>1953.21</ele>
<time>2026-08-02T05:19:07.000Z</time>
</trkpt>
<trkpt lat="46.4297939" lon="13.5354162">
<ele>1961.49</ele>
<time>2026-08-02T05:21:02.000Z</time>
</trkpt>
<trkpt lat="46.4298667" lon="13.5351752">
<ele>1980.40</ele>
<time>2026-08-02T05:22:12.000Z</time>
</trkpt>
<trkpt lat="46.4299242" lon="13.5349174">
<ele>1998.66</ele>
<time>2026-08-02T05:24:11.000Z</time>
</trkpt>
<trkpt lat="46.4300447" lon="13.5347188">
<ele>2006.18</ele>
<time>2026-08-02T05:24:36.000Z</time>
</trkpt>
<trkpt lat="46.4301287" lon="13.5344812">
<ele>2016.56</ele>
<time>2026-08-02T05:25:06.000Z</time>
</trkpt>
<trkpt lat="46.4302348" lon="13.5342535">
<ele>2012.57</ele>
<time>2026-08-02T05:26:12.000Z</time>
</trkpt>
<trkpt lat="46.4303623" lon="13.5340565">
<ele>2013.15</ele>
<time>2026-08-02T05:26:49.000Z</time>
</trkpt>
<trkpt lat="46.4304636" lon="13.5338348">
<ele>2011.67</ele>
<time>2026-08-02T05:27:07.000Z</time>
</trkpt>
<trkpt lat="46.4305760" lon="13.5336274">
<ele>2007.75</ele>
<time>2026-08-02T05:27:26.000Z</time>
</trkpt>
<trkpt lat="46.4304578" lon="13.5338341">
<ele>2006.05</ele>
<time>2026-08-02T05:29:04.000Z</time>
</trkpt>
<trkpt lat="46.4303471" lon="13.5340601">
<ele>2008.87</ele>
<time>2026-08-02T05:29:22.000Z</time>
</trkpt>
<trkpt lat="46.4302488" lon="13.5343010">
<ele>2007.49</ele>
<time>2026-08-02T05:29:38.000Z</time>
</trkpt>
<trkpt lat="46.4301193" lon="13.5344931">
<ele>2011.39</ele>
<time>2026-08-02T05:37:00.000Z</time>
</trkpt>
<trkpt lat="46.4300172" lon="13.5347140">
<ele>2005.10</ele>
<time>2026-08-02T05:38:18.000Z</time>
</trkpt>
<trkpt lat="46.4299119" lon="13.5349261">
<ele>1997.97</ele>
<time>2026-08-02T05:38:54.000Z</time>
</trkpt>
<trkpt lat="46.4298638" lon="13.5351788">
<ele>1980.83</ele>
<time>2026-08-02T05:41:41.000Z</time>
</trkpt>
<trkpt lat="46.4297672" lon="13.5354001">
<ele>1957.33</ele>
<time>2026-08-02T05:43:38.000Z</time>
</trkpt>
<trkpt lat="46.4297133" lon="13.5356683">
<ele>1948.84</ele>
<time>2026-08-02T05:44:37.000Z</time>
</trkpt>
<trkpt lat="46.4296335" lon="13.5359035">
<ele>1947.24</ele>
<time>2026-08-02T05:54:35.000Z</time>
</trkpt>
<trkpt lat="46.4295466" lon="13.5361331">
<ele>1934.12</ele>
<time>2026-08-02T05:55:18.000Z</time>
</trkpt>
<trkpt lat="46.4294369" lon="13.5363525">
<ele>1930.33</ele>
<time>2026-08-02T05:55:43.000Z</time>
</trkpt>
<trkpt lat="46.4292659" lon="13.5364364">
<ele>1926.44</ele>
<time>2026-08-02T05:56:40.000Z</time>
</trkpt>
<trkpt lat="46.4291200" lon="13.5365896">
<ele>1920.90</ele>
<time>2026-08-02T05:58:19.000Z</time>
</trkpt>
<trkpt lat="46.4289573" lon="13.5367075">
<ele>1902.04</ele>
<time>2026-08-02T06:00:33.000Z</time>
</trkpt>
<trkpt lat="46.4287765" lon="13.5367353">
<ele>1868.67</ele>
<time>2026-08-02T06:05:49.000Z</time>
</trkpt>
<trkpt lat="46.4286294" lon="13.5368896">
<ele>1858.94</ele>
<time>2026-08-02T06:07:11.000Z</time>
</trkpt>
<trkpt lat="46.4287634" lon="13.5367119">
<ele>1867.31</ele>
<time>2026-08-02T06:12:28.000Z</time>
</trkpt>
<trkpt lat="46.4286303" lon="13.5368903">
<ele>1860.32</ele>
<time>2026-08-02T06:26:51.000Z</time>
</trkpt>
<trkpt lat="46.4284924" lon="13.5367201">
<ele>1870.72</ele>
<time>2026-08-02T06:47:19.000Z</time>
</trkpt>
<trkpt lat="46.4283260" lon="13.5366106">
<ele>1871.76</ele>
<time>2026-08-02T06:48:38.000Z</time>
</trkpt>
<trkpt lat="46.4283815" lon="13.5363597">
<ele>1854.77</ele>
<time>2026-08-02T06:49:17.000Z</time>
</trkpt>
<trkpt lat="46.4282824" lon="13.5361305">
<ele>1839.38</ele>
<time>2026-08-02T06:50:13.000Z</time>
</trkpt>
<trkpt lat="46.4281074" lon="13.5360688">
<ele>1835.20</ele>
<time>2026-08-02T06:51:32.000Z</time>
</trkpt>
<trkpt lat="46.4279502" lon="13.5361990">
<ele>1828.39</ele>
<time>2026-08-02T06:52:42.000Z</time>
</trkpt>
<trkpt lat="46.4277661" lon="13.5362047">
<ele>1819.59</ele>
<time>2026-08-02T06:53:03.000Z</time>
</trkpt>
<trkpt lat="46.4275814" lon="13.5362202">
<ele>1811.01</ele>
<time>2026-08-02T06:56:23.000Z</time>
</trkpt>
<trkpt lat="46.4273943" lon="13.5361648">
<ele>1801.57</ele>
<time>2026-08-02T06:56:48.000Z</time>
</trkpt>
<trkpt lat="46.4273043" lon="13.5363925">
<ele>1790.42</ele>
<time>2026-08-02T06:57:17.000Z</time>
</trkpt>
<trkpt lat="46.4271250" lon="13.5363492">
<ele>1787.23</ele>
<time>2026-08-02T06:57:43.000Z</time>
</trkpt>
<trkpt lat="46.4269888" lon="13.5365206">
<ele>1767.06</ele>
<time>2026-08-02T06:58:34.000Z</time>
</trkpt>
<trkpt lat="46.4268034" lon="13.5365409">
<ele>1757.27</ele>
<time>2026-08-02T06:59:12.000Z</time>
</trkpt>
<trkpt lat="46.4266250" lon="13.5364763">
<ele>1729.29</ele>
<time>2026-08-02T07:00:31.000Z</time>
</trkpt>
<trkpt lat="46.4266268" lon="13.5362123">
<ele>1722.20</ele>
<time>2026-08-02T07:02:04.000Z</time>
</trkpt>
<trkpt lat="46.4264741" lon="13.5360734">
<ele>1713.95</ele>
<time>2026-08-02T07:02:41.000Z</time>
</trkpt>
<trkpt lat="46.4263229" lon="13.5359083">
<ele>1700.71</ele>
<time>2026-08-02T07:03:13.000Z</time>
</trkpt>
<trkpt lat="46.4262248" lon="13.5356806">
<ele>1691.62</ele>
<time>2026-08-02T07:03:39.000Z</time>
</trkpt>
<trkpt lat="46.4260434" lon="13.5357330">
<ele>1680.08</ele>
<time>2026-08-02T07:04:04.000Z</time>
</trkpt>
<trkpt lat="46.4258562" lon="13.5357262">
<ele>1667.87</ele>
<time>2026-08-02T07:04:38.000Z</time>
</trkpt>
<trkpt lat="46.4256691" lon="13.5357412">
<ele>1654.54</ele>
<time>2026-08-02T07:05:48.000Z</time>
</trkpt>
<trkpt lat="46.4255129" lon="13.5356087">
<ele>1626.99</ele>
<time>2026-08-02T07:07:00.000Z</time>
</trkpt>
<trkpt lat="46.4253646" lon="13.5354571">
<ele>1608.62</ele>
<time>2026-08-02T07:09:13.000Z</time>
</trkpt>
<trkpt lat="46.4251807" lon="13.5354248">
<ele>1605.22</ele>
<time>2026-08-02T07:09:54.000Z</time>
</trkpt>
<trkpt lat="46.4249976" lon="13.5353751">
<ele>1583.68</ele>
<time>2026-08-02T07:12:44.000Z</time>
</trkpt>
<trkpt lat="46.4249313" lon="13.5351298">
<ele>1568.64</ele>
<time>2026-08-02T07:13:20.000Z</time>
</trkpt>
<trkpt lat="46.4247495" lon="13.5351692">
<ele>1564.43</ele>
<time>2026-08-02T07:13:41.000Z</time>
</trkpt>
<trkpt lat="46.4245786" lon="13.5352522">
<ele>1552.28</ele>
<time>2026-08-02T07:14:08.000Z</time>
</trkpt>
<trkpt lat="46.4243989" lon="13.5352635">
<ele>1534.43</ele>
<time>2026-08-02T07:14:45.000Z</time>
</trkpt>
<trkpt lat="46.4242238" lon="13.5353597">
<ele>1529.00</ele>
<time>2026-08-02T07:15:02.000Z</time>
</trkpt>
<trkpt lat="46.4240456" lon="13.5353127">
<ele>1518.20</ele>
<time>2026-08-02T07:16:19.000Z</time>
</trkpt>
<trkpt lat="46.4238772" lon="13.5352174">
<ele>1500.18</ele>
<time>2026-08-02T07:17:02.000Z</time>
</trkpt>
<trkpt lat="46.4238128" lon="13.5349664">
<ele>1472.53</ele>
<time>2026-08-02T07:17:50.000Z</time>
</trkpt>
<trkpt lat="46.4238555" lon="13.5347086">
<ele>1460.13</ele>
<time>2026-08-02T07:18:16.000Z</time>
</trkpt>
<trkpt lat="46.4239109" lon="13.5344476">
<ele>1448.59</ele>
<time>2026-08-02T07:19:14.000Z</time>
</trkpt>
<trkpt lat="46.4238648" lon="13.5341920">
<ele>1437.22</ele>
<time>2026-08-02T07:19:38.000Z</time>
</trkpt>
<trkpt lat="46.4237698" lon="13.5339697">
<ele>1422.30</ele>
<time>2026-08-02T07:20:09.000Z</time>
</trkpt>
<trkpt lat="46.4238649" lon="13.5337414">
<ele>1408.90</ele>
<time>2026-08-02T07:20:55.000Z</time>
</trkpt>
<trkpt lat="46.4239283" lon="13.5334957">
<ele>1395.43</ele>
<time>2026-08-02T07:21:31.000Z</time>
</trkpt>
<trkpt lat="46.4238650" lon="13.5332460">
<ele>1390.82</ele>
<time>2026-08-02T07:22:03.000Z</time>
</trkpt>
<trkpt lat="46.4236889" lon="13.5331805">
<ele>1377.02</ele>
<time>2026-08-02T07:23:01.000Z</time>
</trkpt>
<trkpt lat="46.4238684" lon="13.5331635">
<ele>1373.76</ele>
<time>2026-08-02T07:23:51.000Z</time>
</trkpt>
<trkpt lat="46.4237172" lon="13.5330150">
<ele>1370.62</ele>
<time>2026-08-02T07:30:56.000Z</time>
</trkpt>
<trkpt lat="46.4237322" lon="13.5327502">
<ele>1362.54</ele>
<time>2026-08-02T07:32:03.000Z</time>
</trkpt>
<trkpt lat="46.4236978" lon="13.5324895">
<ele>1365.22</ele>
<time>2026-08-02T07:32:39.000Z</time>
</trkpt>
<trkpt lat="46.4236462" lon="13.5322243">
<ele>1377.18</ele>
<time>2026-08-02T07:33:18.000Z</time>
</trkpt>
<trkpt lat="46.4236735" lon="13.5319582">
<ele>1379.37</ele>
<time>2026-08-02T07:33:42.000Z</time>
</trkpt>
<trkpt lat="46.4235430" lon="13.5317685">
<ele>1394.61</ele>
<time>2026-08-02T07:34:05.000Z</time>
</trkpt>
<trkpt lat="46.4236291" lon="13.5315385">
<ele>1407.37</ele>
<time>2026-08-02T07:35:07.000Z</time>
</trkpt>
<trkpt lat="46.4234817" lon="13.5313848">
<ele>1414.51</ele>
<time>2026-08-02T07:35:40.000Z</time>
</trkpt>
<trkpt lat="46.4236070" lon="13.5311815">
<ele>1412.28</ele>
<time>2026-08-02T07:36:25.000Z</time>
</trkpt>
<trkpt lat="46.4236127" lon="13.5309157">
<ele>1416.39</ele>
<time>2026-08-02T07:36:59.000Z</time>
</trkpt>
<trkpt lat="46.4237797" lon="13.5308176">
<ele>1429.87</ele>
<time>2026-08-02T07:38:24.000Z</time>
</trkpt>
<trkpt lat="46.4239656" lon="13.5308089">
<ele>1424.40</ele>
<time>2026-08-02T07:39:23.000Z</time>
</trkpt>
<trkpt lat="46.4241438" lon="13.5307069">
<ele>1417.54</ele>
<time>2026-08-02T07:39:35.000Z</time>
</trkpt>
<trkpt lat="46.4243201" lon="13.5306277">
<ele>1423.75</ele>
<time>2026-08-02T07:40:03.000Z</time>
</trkpt>
<trkpt lat="46.4244369" lon="13.5304241">
<ele>1430.05</ele>
<time>2026-08-02T07:40:30.000Z</time>
</trkpt>
<trkpt lat="46.4245980" lon="13.5302977">
<ele>1432.69</ele>
<time>2026-08-02T07:40:55.000Z</time>
</trkpt>
<trkpt lat="46.4247704" lon="13.5302209">
<ele>1440.81</ele>
<time>2026-08-02T07:41:18.000Z</time>
</trkpt>
<trkpt lat="46.4249521" lon="13.5301915">
<ele>1448.80</ele>
<time>2026-08-02T07:41:44.000Z</time>
</trkpt>
<trkpt lat="46.4251231" lon="13.5302845">
<ele>1455.67</ele>
<time>2026-08-02T07:42:16.000Z</time>
</trkpt>
<trkpt lat="46.4252507" lon="13.5300958">
<ele>1461.81</ele>
<time>2026-08-02T07:42:47.000Z</time>
</trkpt>
<trkpt lat="46.4254241" lon="13.5300190">
<ele>1466.53</ele>
<time>2026-08-02T07:43:11.000Z</time>
</trkpt>
<trkpt lat="46.4255793" lon="13.5298861">
<ele>1470.45</ele>
<time>2026-08-02T07:43:38.000Z</time>
</trkpt>
<trkpt lat="46.4257345" lon="13.5297430">
<ele>1477.32</ele>
<time>2026-08-02T07:44:03.000Z</time>
</trkpt>
<trkpt lat="46.4259139" lon="13.5297247">
<ele>1490.33</ele>
<time>2026-08-02T07:44:34.000Z</time>
</trkpt>
<trkpt lat="46.4260814" lon="13.5296276">
<ele>1499.79</ele>
<time>2026-08-02T07:45:15.000Z</time>
</trkpt>
<trkpt lat="46.4261823" lon="13.5294103">
<ele>1505.02</ele>
<time>2026-08-02T07:45:40.000Z</time>
</trkpt>
<trkpt lat="46.4263629" lon="13.5293789">
<ele>1514.84</ele>
<time>2026-08-02T07:46:20.000Z</time>
</trkpt>
<trkpt lat="46.4264791" lon="13.5295812">
<ele>1523.18</ele>
<time>2026-08-02T07:46:39.000Z</time>
</trkpt>
<trkpt lat="46.4264900" lon="13.5298514">
<ele>1525.74</ele>
<time>2026-08-02T07:47:07.000Z</time>
</trkpt>
<trkpt lat="46.4265850" lon="13.5300733">
<ele>1533.91</ele>
<time>2026-08-02T07:47:37.000Z</time>
</trkpt>
<trkpt lat="46.4267013" lon="13.5302776">
<ele>1539.50</ele>
<time>2026-08-02T07:48:03.000Z</time>
</trkpt>
<trkpt lat="46.4268432" lon="13.5304427">
<ele>1559.33</ele>
<time>2026-08-02T07:49:27.000Z</time>
</trkpt>
<trkpt lat="46.4268946" lon="13.5306967">
<ele>1568.85</ele>
<time>2026-08-02T07:50:15.000Z</time>
</trkpt>
<trkpt lat="46.4269635" lon="13.5309425">
<ele>1574.78</ele>
<time>2026-08-02T07:51:01.000Z</time>
</trkpt>
<trkpt lat="46.4269972" lon="13.5312058">
<ele>1588.71</ele>
<time>2026-08-02T07:51:52.000Z</time>
</trkpt>
<trkpt lat="46.4268720" lon="13.5313969">
<ele>1597.99</ele>
<time>2026-08-02T07:52:17.000Z</time>
</trkpt>
<trkpt lat="46.4269571" lon="13.5316302">
<ele>1605.44</ele>
<time>2026-08-02T07:53:03.000Z</time>
</trkpt>
<trkpt lat="46.4271387" lon="13.5316362">
<ele>1614.08</ele>
<time>2026-08-02T07:53:53.000Z</time>
</trkpt>
<trkpt lat="46.4271811" lon="13.5318903">
<ele>1628.57</ele>
<time>2026-08-02T07:54:49.000Z</time>
</trkpt>
<trkpt lat="46.4271952" lon="13.5321636">
<ele>1643.53</ele>
<time>2026-08-02T07:55:33.000Z</time>
</trkpt>
<trkpt lat="46.4272960" lon="13.5323844">
<ele>1648.80</ele>
<time>2026-08-02T07:56:18.000Z</time>
</trkpt>
<trkpt lat="46.4274228" lon="13.5321937">
<ele>1661.64</ele>
<time>2026-08-02T07:57:47.000Z</time>
</trkpt>
<trkpt lat="46.4275967" lon="13.5321173">
<ele>1671.24</ele>
<time>2026-08-02T07:58:15.000Z</time>
</trkpt>
<trkpt lat="46.4277699" lon="13.5320319">
<ele>1680.57</ele>
<time>2026-08-02T07:58:43.000Z</time>
</trkpt>
<trkpt lat="46.4279434" lon="13.5319447">
<ele>1687.69</ele>
<time>2026-08-02T07:59:15.000Z</time>
</trkpt>
<trkpt lat="46.4280539" lon="13.5317349">
<ele>1691.04</ele>
<time>2026-08-02T07:59:57.000Z</time>
</trkpt>
<trkpt lat="46.4282312" lon="13.5316558">
<ele>1692.48</ele>
<time>2026-08-02T08:00:29.000Z</time>
</trkpt>
<trkpt lat="46.4283605" lon="13.5318400">
<ele>1703.67</ele>
<time>2026-08-02T08:01:14.000Z</time>
</trkpt>
<trkpt lat="46.4285235" lon="13.5317181">
<ele>1713.11</ele>
<time>2026-08-02T08:02:16.000Z</time>
</trkpt>
<trkpt lat="46.4286796" lon="13.5318620">
<ele>1722.40</ele>
<time>2026-08-02T08:03:17.000Z</time>
</trkpt>
<trkpt lat="46.4288540" lon="13.5317844">
<ele>1739.86</ele>
<time>2026-08-02T08:04:09.000Z</time>
</trkpt>
<trkpt lat="46.4290279" lon="13.5317052">
<ele>1746.21</ele>
<time>2026-08-02T08:04:43.000Z</time>
</trkpt>
<trkpt lat="46.4292002" lon="13.5316270">
<ele>1763.66</ele>
<time>2026-08-02T08:06:12.000Z</time>
</trkpt>
<trkpt lat="46.4293844" lon="13.5315852">
<ele>1771.88</ele>
<time>2026-08-02T08:06:58.000Z</time>
</trkpt>
<trkpt lat="46.4294934" lon="13.5313711">
<ele>1784.17</ele>
<time>2026-08-02T08:07:46.000Z</time>
</trkpt>
<trkpt lat="46.4296604" lon="13.5312594">
<ele>1801.02</ele>
<time>2026-08-02T08:08:22.000Z</time>
</trkpt>
<trkpt lat="46.4297560" lon="13.5310353">
<ele>1817.47</ele>
<time>2026-08-02T08:09:12.000Z</time>
</trkpt>
<trkpt lat="46.4298292" lon="13.5307891">
<ele>1831.71</ele>
<time>2026-08-02T08:10:19.000Z</time>
</trkpt>
<trkpt lat="46.4298679" lon="13.5305296">
<ele>1843.45</ele>
<time>2026-08-02T08:11:08.000Z</time>
</trkpt>
<trkpt lat="46.4298350" lon="13.5302699">
<ele>1869.69</ele>
<time>2026-08-02T08:12:07.000Z</time>
</trkpt>
<trkpt lat="46.4297816" lon="13.5300113">
<ele>1879.34</ele>
<time>2026-08-02T08:12:46.000Z</time>
</trkpt>
<trkpt lat="46.4296334" lon="13.5298440">
<ele>1889.29</ele>
<time>2026-08-02T08:13:16.000Z</time>
</trkpt>
<trkpt lat="46.4296194" lon="13.5295766">
<ele>1905.50</ele>
<time>2026-08-02T08:14:16.000Z</time>
</trkpt>
<trkpt lat="46.4296570" lon="13.5293148">
<ele>1917.80</ele>
<time>2026-08-02T08:14:51.000Z</time>
</trkpt>
<trkpt lat="46.4297178" lon="13.5290684">
<ele>1925.84</ele>
<time>2026-08-02T08:15:52.000Z</time>
</trkpt>
<trkpt lat="46.4298939" lon="13.5289927">
<ele>1932.43</ele>
<time>2026-08-02T08:16:27.000Z</time>
</trkpt>
<trkpt lat="46.4300332" lon="13.5288159">
<ele>1949.06</ele>
<time>2026-08-02T08:16:58.000Z</time>
</trkpt>
<trkpt lat="46.4300476" lon="13.5285407">
<ele>1951.81</ele>
<time>2026-08-02T08:17:25.000Z</time>
</trkpt>
<trkpt lat="46.4300636" lon="13.5282690">
<ele>1960.89</ele>
<time>2026-08-02T08:17:54.000Z</time>
</trkpt>
<trkpt lat="46.4299897" lon="13.5280293">
<ele>1970.74</ele>
<time>2026-08-02T08:18:18.000Z</time>
</trkpt>
<trkpt lat="46.4298826" lon="13.5278168">
<ele>1981.38</ele>
<time>2026-08-02T08:18:49.000Z</time>
</trkpt>
<trkpt lat="46.4299911" lon="13.5276048">
<ele>1992.58</ele>
<time>2026-08-02T08:19:26.000Z</time>
</trkpt>
<trkpt lat="46.4299845" lon="13.5273344">
<ele>2001.71</ele>
<time>2026-08-02T08:19:59.000Z</time>
</trkpt>
<trkpt lat="46.4301526" lon="13.5272314">
<ele>2014.98</ele>
<time>2026-08-02T08:20:38.000Z</time>
</trkpt>
<trkpt lat="46.4303364" lon="13.5272378">
<ele>2026.53</ele>
<time>2026-08-02T08:21:24.000Z</time>
</trkpt>
<trkpt lat="46.4305132" lon="13.5273249">
<ele>2041.42</ele>
<time>2026-08-02T08:22:10.000Z</time>
</trkpt>
<trkpt lat="46.4306003" lon="13.5270915">
<ele>2046.85</ele>
<time>2026-08-02T08:23:26.000Z</time>
</trkpt>
<trkpt lat="46.4307070" lon="13.5268811">
<ele>2053.05</ele>
<time>2026-08-02T08:25:19.000Z</time>
</trkpt>
<trkpt lat="46.4305854" lon="13.5270862">
<ele>2049.01</ele>
<time>2026-08-02T08:32:20.000Z</time>
</trkpt>
<trkpt lat="46.4305183" lon="13.5273295">
<ele>2043.17</ele>
<time>2026-08-02T08:49:34.000Z</time>
</trkpt>
<trkpt lat="46.4303581" lon="13.5272070">
<ele>2034.62</ele>
<time>2026-08-02T08:50:28.000Z</time>
</trkpt>
<trkpt lat="46.4301783" lon="13.5272258">
<ele>2018.75</ele>
<time>2026-08-02T08:51:05.000Z</time>
</trkpt>
<trkpt lat="46.4300018" lon="13.5272855">
<ele>2007.75</ele>
<time>2026-08-02T08:51:24.000Z</time>
</trkpt>
<trkpt lat="46.4300241" lon="13.5275544">
<ele>1995.76</ele>
<time>2026-08-02T08:52:03.000Z</time>
</trkpt>
<trkpt lat="46.4298687" lon="13.5276934">
<ele>1986.24</ele>
<time>2026-08-02T08:52:30.000Z</time>
</trkpt>
<trkpt lat="46.4299616" lon="13.5279208">
<ele>1976.32</ele>
<time>2026-08-02T08:53:05.000Z</time>
</trkpt>
<trkpt lat="46.4300027" lon="13.5281838">
<ele>1967.50</ele>
<time>2026-08-02T08:53:27.000Z</time>
</trkpt>
<trkpt lat="46.4300795" lon="13.5284214">
<ele>1959.73</ele>
<time>2026-08-02T08:53:43.000Z</time>
</trkpt>
<trkpt lat="46.4300528" lon="13.5286924">
<ele>1949.80</ele>
<time>2026-08-02T08:54:04.000Z</time>
</trkpt>
<trkpt lat="46.4299990" lon="13.5289424">
<ele>1943.32</ele>
<time>2026-08-02T08:54:34.000Z</time>
</trkpt>
<trkpt lat="46.4298307" lon="13.5290398">
<ele>1937.09</ele>
<time>2026-08-02T08:54:56.000Z</time>
</trkpt>
<trkpt lat="46.4296614" lon="13.5291423">
<ele>1927.81</ele>
<time>2026-08-02T08:55:27.000Z</time>
</trkpt>
<trkpt lat="46.4296797" lon="13.5294034">
<ele>1915.72</ele>
<time>2026-08-02T08:55:53.000Z</time>
</trkpt>
<trkpt lat="46.4296159" lon="13.5296486">
<ele>1897.98</ele>
<time>2026-08-02T08:56:35.000Z</time>
</trkpt>
<trkpt lat="46.4296616" lon="13.5299097">
<ele>1886.50</ele>
<time>2026-08-02T08:57:12.000Z</time>
</trkpt>
<trkpt lat="46.4297991" lon="13.5300949">
<ele>1877.70</ele>
<time>2026-08-02T08:57:53.000Z</time>
</trkpt>
<trkpt lat="46.4298990" lon="13.5303265">
<ele>1861.59</ele>
<time>2026-08-02T08:58:29.000Z</time>
</trkpt>
<trkpt lat="46.4297958" lon="13.5305535">
<ele>1849.36</ele>
<time>2026-08-02T08:59:15.000Z</time>
</trkpt>
<trkpt lat="46.4297911" lon="13.5308184">
<ele>1830.92</ele>
<time>2026-08-02T09:00:04.000Z</time>
</trkpt>
<trkpt lat="46.4297161" lon="13.5310565">
<ele>1814.46</ele>
<time>2026-08-02T09:01:03.000Z</time>
</trkpt>
<trkpt lat="46.4295753" lon="13.5312361">
<ele>1799.19</ele>
<time>2026-08-02T09:01:52.000Z</time>
</trkpt>
<trkpt lat="46.4294306" lon="13.5313941">
<ele>1786.42</ele>
<time>2026-08-02T09:02:34.000Z</time>
</trkpt>
<trkpt lat="46.4292936" lon="13.5315828">
<ele>1776.47</ele>
<time>2026-08-02T09:03:06.000Z</time>
</trkpt>
<trkpt lat="46.4291141" lon="13.5316262">
<ele>1766.85</ele>
<time>2026-08-02T09:04:06.000Z</time>
</trkpt>
<trkpt lat="46.4289453" lon="13.5317324">
<ele>1751.62</ele>
<time>2026-08-02T09:04:32.000Z</time>
</trkpt>
<trkpt lat="46.4287587" lon="13.5317473">
<ele>1744.34</ele>
<time>2026-08-02T09:04:51.000Z</time>
</trkpt>
<trkpt lat="46.4285806" lon="13.5318038">
<ele>1725.79</ele>
<time>2026-08-02T09:05:49.000Z</time>
</trkpt>
<trkpt lat="46.4283976" lon="13.5317916">
<ele>1714.32</ele>
<time>2026-08-02T09:06:24.000Z</time>
</trkpt>
<trkpt lat="46.4282480" lon="13.5316335">
<ele>1709.75</ele>
<time>2026-08-02T09:11:49.000Z</time>
</trkpt>
<trkpt lat="46.4280596" lon="13.5316169">
<ele>1707.99</ele>
<time>2026-08-02T09:12:07.000Z</time>
</trkpt>
<trkpt lat="46.4280185" lon="13.5318761">
<ele>1697.12</ele>
<time>2026-08-02T09:12:48.000Z</time>
</trkpt>
<trkpt lat="46.4278537" lon="13.5319947">
<ele>1683.79</ele>
<time>2026-08-02T09:13:13.000Z</time>
</trkpt>
<trkpt lat="46.4276855" lon="13.5321188">
<ele>1680.46</ele>
<time>2026-08-02T09:13:31.000Z</time>
</trkpt>
<trkpt lat="46.4275033" lon="13.5321324">
<ele>1673.43</ele>
<time>2026-08-02T09:13:50.000Z</time>
</trkpt>
<trkpt lat="46.4273331" lon="13.5322405">
<ele>1662.02</ele>
<time>2026-08-02T09:14:28.000Z</time>
</trkpt>
<trkpt lat="46.4271789" lon="13.5321055">
<ele>1645.03</ele>
<time>2026-08-02T09:17:18.000Z</time>
</trkpt>
<trkpt lat="46.4271340" lon="13.5318444">
<ele>1639.49</ele>
<time>2026-08-02T09:19:24.000Z</time>
</trkpt>
<trkpt lat="46.4270348" lon="13.5316245">
<ele>1619.56</ele>
<time>2026-08-02T09:20:10.000Z</time>
</trkpt>
<trkpt lat="46.4269286" lon="13.5314070">
<ele>1596.39</ele>
<time>2026-08-02T09:23:00.000Z</time>
</trkpt>
<trkpt lat="46.4269662" lon="13.5311360">
<ele>1588.56</ele>
<time>2026-08-02T09:23:25.000Z</time>
</trkpt>
<trkpt lat="46.4269709" lon="13.5308735">
<ele>1582.30</ele>
<time>2026-08-02T09:23:43.000Z</time>
</trkpt>
<trkpt lat="46.4268869" lon="13.5306351">
<ele>1563.63</ele>
<time>2026-08-02T09:24:26.000Z</time>
</trkpt>
<trkpt lat="46.4267038" lon="13.5305870">
<ele>1561.48</ele>
<time>2026-08-02T09:24:46.000Z</time>
</trkpt>
<trkpt lat="46.4267292" lon="13.5303262">
<ele>1550.81</ele>
<time>2026-08-02T09:25:59.000Z</time>
</trkpt>
<trkpt lat="46.4266374" lon="13.5300970">
<ele>1539.44</ele>
<time>2026-08-02T09:26:32.000Z</time>
</trkpt>
<trkpt lat="46.4265136" lon="13.5299077">
<ele>1532.18</ele>
<time>2026-08-02T09:26:52.000Z</time>
</trkpt>
<trkpt lat="46.4265097" lon="13.5296379">
<ele>1527.09</ele>
<time>2026-08-02T09:27:08.000Z</time>
</trkpt>
<trkpt lat="46.4263966" lon="13.5294332">
<ele>1520.21</ele>
<time>2026-08-02T09:27:34.000Z</time>
</trkpt>
<trkpt lat="46.4262358" lon="13.5293138">
<ele>1518.39</ele>
<time>2026-08-02T09:27:57.000Z</time>
</trkpt>
<trkpt lat="46.4264044" lon="13.5294084">
<ele>1516.41</ele>
<time>2026-08-02T09:30:54.000Z</time>
</trkpt>
<trkpt lat="46.4262315" lon="13.5293249">
<ele>1521.55</ele>
<time>2026-08-02T09:32:39.000Z</time>
</trkpt>
<trkpt lat="46.4261070" lon="13.5295135">
<ele>1512.06</ele>
<time>2026-08-02T09:32:54.000Z</time>
</trkpt>
<trkpt lat="46.4259693" lon="13.5297094">
<ele>1505.22</ele>
<time>2026-08-02T09:33:10.000Z</time>
</trkpt>
<trkpt lat="46.4257754" lon="13.5297508">
<ele>1492.87</ele>
<time>2026-08-02T09:33:26.000Z</time>
</trkpt>
<trkpt lat="46.4255991" lon="13.5298715">
<ele>1487.77</ele>
<time>2026-08-02T09:33:37.000Z</time>
</trkpt>
<trkpt lat="46.4254298" lon="13.5299990">
<ele>1480.03</ele>
<time>2026-08-02T09:33:50.000Z</time>
</trkpt>
<trkpt lat="46.4252420" lon="13.5300779">
<ele>1472.23</ele>
<time>2026-08-02T09:34:01.000Z</time>
</trkpt>
<trkpt lat="46.4251199" lon="13.5302926">
<ele>1465.03</ele>
<time>2026-08-02T09:34:14.000Z</time>
</trkpt>
<trkpt lat="46.4249429" lon="13.5301930">
<ele>1457.88</ele>
<time>2026-08-02T09:34:33.000Z</time>
</trkpt>
<trkpt lat="46.4247611" lon="13.5301491">
<ele>1450.37</ele>
<time>2026-08-02T09:34:46.000Z</time>
</trkpt>
<trkpt lat="46.4245846" lon="13.5302230">
<ele>1447.84</ele>
<time>2026-08-02T09:35:00.000Z</time>
</trkpt>
<trkpt lat="46.4244294" lon="13.5300858">
<ele>1444.31</ele>
<time>2026-08-02T09:35:38.000Z</time>
</trkpt>
<trkpt lat="46.4244553" lon="13.5298272">
<ele>1455.08</ele>
<time>2026-08-02T09:37:09.000Z</time>
</trkpt>
<trkpt lat="46.4246139" lon="13.5296770">
<ele>1452.72</ele>
<time>2026-08-02T09:37:24.000Z</time>
</trkpt>
<trkpt lat="46.4247325" lon="13.5294625">
<ele>1460.19</ele>
<time>2026-08-02T09:37:43.000Z</time>
</trkpt>
<trkpt lat="46.4248804" lon="13.5293052">
<ele>1463.49</ele>
<time>2026-08-02T09:38:06.000Z</time>
</trkpt>
<trkpt lat="46.4250540" lon="13.5292307">
<ele>1469.01</ele>
<time>2026-08-02T09:38:32.000Z</time>
</trkpt>
<trkpt lat="46.4251417" lon="13.5290013">
<ele>1470.33</ele>
<time>2026-08-02T09:38:51.000Z</time>
</trkpt>
<trkpt lat="46.4253000" lon="13.5288434">
<ele>1480.73</ele>
<time>2026-08-02T09:39:14.000Z</time>
</trkpt>
<trkpt lat="46.4254695" lon="13.5287490">
<ele>1492.82</ele>
<time>2026-08-02T09:39:42.000Z</time>
</trkpt>
<trkpt lat="46.4256511" lon="13.5287561">
<ele>1500.39</ele>
<time>2026-08-02T09:40:10.000Z</time>
</trkpt>
<trkpt lat="46.4258372" lon="13.5287121">
<ele>1512.39</ele>
<time>2026-08-02T09:40:39.000Z</time>
</trkpt>
<trkpt lat="46.4260134" lon="13.5286593">
<ele>1521.26</ele>
<time>2026-08-02T09:41:05.000Z</time>
</trkpt>
<trkpt lat="46.4261915" lon="13.5286184">
<ele>1528.58</ele>
<time>2026-08-02T09:41:34.000Z</time>
</trkpt>
<trkpt lat="46.4263507" lon="13.5284927">
<ele>1532.80</ele>
<time>2026-08-02T09:42:04.000Z</time>
</trkpt>
<trkpt lat="46.4265344" lon="13.5284943">
<ele>1543.57</ele>
<time>2026-08-02T09:42:30.000Z</time>
</trkpt>
<trkpt lat="46.4266776" lon="13.5286652">
<ele>1544.06</ele>
<time>2026-08-02T09:42:49.000Z</time>
</trkpt>
<trkpt lat="46.4267818" lon="13.5284504">
<ele>1556.11</ele>
<time>2026-08-02T09:43:31.000Z</time>
</trkpt>
<trkpt lat="46.4269637" lon="13.5284147">
<ele>1566.47</ele>
<time>2026-08-02T09:44:06.000Z</time>
</trkpt>
<trkpt lat="46.4271376" lon="13.5283330">
<ele>1574.60</ele>
<time>2026-08-02T09:44:40.000Z</time>
</trkpt>
<trkpt lat="46.4273103" lon="13.5282529">
<ele>1584.92</ele>
<time>2026-08-02T09:45:21.000Z</time>
</trkpt>
<trkpt lat="46.4274791" lon="13.5281508">
<ele>1598.09</ele>
<time>2026-08-02T09:46:15.000Z</time>
</trkpt>
<trkpt lat="46.4275943" lon="13.5279491">
<ele>1606.21</ele>
<time>2026-08-02T09:46:44.000Z</time>
</trkpt>
<trkpt lat="46.4276941" lon="13.5277194">
<ele>1622.88</ele>
<time>2026-08-02T09:47:25.000Z</time>
</trkpt>
<trkpt lat="46.4278642" lon="13.5276158">
<ele>1627.25</ele>
<time>2026-08-02T09:47:47.000Z</time>
</trkpt>
<trkpt lat="46.4280291" lon="13.5274737">
<ele>1632.23</ele>
<time>2026-08-02T09:48:30.000Z</time>
</trkpt>
<trkpt lat="46.4282026" lon="13.5273678">
<ele>1643.62</ele>
<time>2026-08-02T09:49:23.000Z</time>
</trkpt>
<trkpt lat="46.4283641" lon="13.5272444">
<ele>1645.52</ele>
<time>2026-08-02T09:49:52.000Z</time>
</trkpt>
<trkpt lat="46.4285330" lon="13.5271534">
<ele>1666.88</ele>
<time>2026-08-02T09:50:45.000Z</time>
</trkpt>
<trkpt lat="46.4286860" lon="13.5270011">
<ele>1677.46</ele>
<time>2026-08-02T09:51:34.000Z</time>
</trkpt>
<trkpt lat="46.4287835" lon="13.5267756">
<ele>1687.90</ele>
<time>2026-08-02T09:52:12.000Z</time>
</trkpt>
<trkpt lat="46.4288681" lon="13.5265334">
<ele>1702.77</ele>
<time>2026-08-02T09:52:59.000Z</time>
</trkpt>
<trkpt lat="46.4290474" lon="13.5264719">
<ele>1717.71</ele>
<time>2026-08-02T09:53:56.000Z</time>
</trkpt>
<trkpt lat="46.4291610" lon="13.5262633">
<ele>1731.31</ele>
<time>2026-08-02T09:54:31.000Z</time>
</trkpt>
<trkpt lat="46.4293069" lon="13.5261052">
<ele>1748.42</ele>
<time>2026-08-02T09:55:31.000Z</time>
</trkpt>
<trkpt lat="46.4294269" lon="13.5259080">
<ele>1757.86</ele>
<time>2026-08-02T09:56:17.000Z</time>
</trkpt>
<trkpt lat="46.4295683" lon="13.5257390">
<ele>1766.09</ele>
<time>2026-08-02T09:57:09.000Z</time>
</trkpt>
<trkpt lat="46.4297556" lon="13.5257132">
<ele>1771.35</ele>
<time>2026-08-02T09:57:35.000Z</time>
</trkpt>
<trkpt lat="46.4299323" lon="13.5257778">
<ele>1804.56</ele>
<time>2026-08-02T09:58:44.000Z</time>
</trkpt>
<trkpt lat="46.4301075" lon="13.5256954">
<ele>1822.75</ele>
<time>2026-08-02T09:59:46.000Z</time>
</trkpt>
<trkpt lat="46.4302890" lon="13.5256826">
<ele>1839.24</ele>
<time>2026-08-02T10:00:31.000Z</time>
</trkpt>
<trkpt lat="46.4304404" lon="13.5255333">
<ele>1853.97</ele>
<time>2026-08-02T10:01:37.000Z</time>
</trkpt>
<trkpt lat="46.4306054" lon="13.5254167">
<ele>1863.93</ele>
<time>2026-08-02T10:02:30.000Z</time>
</trkpt>
<trkpt lat="46.4307590" lon="13.5252654">
<ele>1849.13</ele>
<time>2026-08-02T10:09:32.000Z</time>
</trkpt>
<trkpt lat="46.4309274" lon="13.5251561">
<ele>1822.50</ele>
<time>2026-08-02T10:10:51.000Z</time>
</trkpt>
<trkpt lat="46.4310213" lon="13.5249333">
<ele>1820.28</ele>
<time>2026-08-02T10:11:34.000Z</time>
</trkpt>
<trkpt lat="46.4312046" lon="13.5249636">
<ele>1822.45</ele>
<time>2026-08-02T10:12:08.000Z</time>
</trkpt>
<trkpt lat="46.4313882" lon="13.5249163">
<ele>1834.65</ele>
<time>2026-08-02T10:13:30.000Z</time>
</trkpt>
<trkpt lat="46.4315657" lon="13.5248619">
<ele>1843.78</ele>
<time>2026-08-02T10:14:06.000Z</time>
</trkpt>
<trkpt lat="46.4313859" lon="13.5249096">
<ele>1838.49</ele>
<time>2026-08-02T10:14:54.000Z</time>
</trkpt>
<trkpt lat="46.4315669" lon="13.5248639">
<ele>1841.78</ele>
<time>2026-08-02T10:17:42.000Z</time>
</trkpt>
<trkpt lat="46.4317558" lon="13.5248269">
<ele>1842.79</ele>
<time>2026-08-02T10:17:58.000Z</time>
</trkpt>
<trkpt lat="46.4319102" lon="13.5246618">
<ele>1834.59</ele>
<time>2026-08-02T10:38:44.000Z</time>
</trkpt>
<trkpt lat="46.4320847" lon="13.5245806">
<ele>1823.53</ele>
<time>2026-08-02T10:39:08.000Z</time>
</trkpt>
<trkpt lat="46.4322482" lon="13.5244537">
<ele>1808.01</ele>
<time>2026-08-02T10:39:58.000Z</time>
</trkpt>
<trkpt lat="46.4324296" lon="13.5244683">
<ele>1801.36</ele>
<time>2026-08-02T10:40:21.000Z</time>
</trkpt>
<trkpt lat="46.4326078" lon="13.5245167">
<ele>1791.12</ele>
<time>2026-08-02T10:40:48.000Z</time>
</trkpt>
<trkpt lat="46.4327739" lon="13.5246266">
<ele>1778.75</ele>
<time>2026-08-02T10:43:08.000Z</time>
</trkpt>
<trkpt lat="46.4329392" lon="13.5247608">
<ele>1767.99</ele>
<time>2026-08-02T10:43:41.000Z</time>
</trkpt>
<trkpt lat="46.4330308" lon="13.5249894">
<ele>1756.87</ele>
<time>2026-08-02T10:44:37.000Z</time>
</trkpt>
<trkpt lat="46.4328853" lon="13.5251435">
<ele>1748.22</ele>
<time>2026-08-02T10:45:20.000Z</time>
</trkpt>
<trkpt lat="46.4330083" lon="13.5253354">
<ele>1722.62</ele>
<time>2026-08-02T10:46:20.000Z</time>
</trkpt>
<trkpt lat="46.4329154" lon="13.5255693">
<ele>1710.70</ele>
<time>2026-08-02T10:46:52.000Z</time>
</trkpt>
<trkpt lat="46.4327938" lon="13.5257711">
<ele>1706.92</ele>
<time>2026-08-02T10:47:15.000Z</time>
</trkpt>
<trkpt lat="46.4327854" lon="13.5260358">
<ele>1688.43</ele>
<time>2026-08-02T10:47:45.000Z</time>
</trkpt>
<trkpt lat="46.4328664" lon="13.5262702">
<ele>1663.57</ele>
<time>2026-08-02T10:53:38.000Z</time>
</trkpt>
<trkpt lat="46.4330516" lon="13.5262765">
<ele>1656.13</ele>
<time>2026-08-02T10:54:22.000Z</time>
</trkpt>
<trkpt lat="46.4330998" lon="13.5265349">
<ele>1641.76</ele>
<time>2026-08-02T10:55:06.000Z</time>
</trkpt>
<trkpt lat="46.4330635" lon="13.5267985">
<ele>1638.03</ele>
<time>2026-08-02T10:55:22.000Z</time>
</trkpt>
<trkpt lat="46.4330695" lon="13.5270698">
<ele>1627.94</ele>
<time>2026-08-02T10:55:50.000Z</time>
</trkpt>
<trkpt lat="46.4330774" lon="13.5273383">
<ele>1611.30</ele>
<time>2026-08-02T10:56:22.000Z</time>
</trkpt>
<trkpt lat="46.4329956" lon="13.5275770">
<ele>1598.51</ele>
<time>2026-08-02T10:56:41.000Z</time>
</trkpt>
<trkpt lat="46.4328821" lon="13.5277908">
<ele>1595.93</ele>
<time>2026-08-02T10:57:03.000Z</time>
</trkpt>
<trkpt lat="46.4328260" lon="13.5280477">
<ele>1588.26</ele>
<time>2026-08-02T10:57:30.000Z</time>
</trkpt>
<trkpt lat="46.4326942" lon="13.5282264">
<ele>1574.55</ele>
<time>2026-08-02T10:57:52.000Z</time>
</trkpt>
<trkpt lat="46.4325785" lon="13.5284415">
<ele>1570.12</ele>
<time>2026-08-02T10:58:46.000Z</time>
</trkpt>
<trkpt lat="46.4326580" lon="13.5286768">
<ele>1560.46</ele>
<time>2026-08-02T11:06:26.000Z</time>
</trkpt>
<trkpt lat="46.4326047" lon="13.5289345">
<ele>1537.49</ele>
<time>2026-08-02T11:07:47.000Z</time>
</trkpt>
<trkpt lat="46.4325489" lon="13.5291854">
<ele>1541.40</ele>
<time>2026-08-02T11:11:53.000Z</time>
</trkpt>
<trkpt lat="46.4327008" lon="13.5293424">
<ele>1521.33</ele>
<time>2026-08-02T11:14:08.000Z</time>
</trkpt>
<trkpt lat="46.4328874" lon="13.5293384">
<ele>1515.59</ele>
<time>2026-08-02T11:14:46.000Z</time>
</trkpt>
<trkpt lat="46.4330625" lon="13.5294356">
<ele>1513.18</ele>
<time>2026-08-02T11:15:13.000Z</time>
</trkpt>
<trkpt lat="46.4332449" lon="13.5293782">
<ele>1504.41</ele>
<time>2026-08-02T11:15:46.000Z</time>
</trkpt>
<trkpt lat="46.4332138" lon="13.5291133">
<ele>1499.03</ele>
<time>2026-08-02T11:16:04.000Z</time>
</trkpt>
<trkpt lat="46.4333682" lon="13.5289630">
<ele>1487.39</ele>
<time>2026-08-02T11:17:14.000Z</time>
</trkpt>
<trkpt lat="46.4334118" lon="13.5287079">
<ele>1474.34</ele>
<time>2026-08-02T11:17:55.000Z</time>
</trkpt>
<trkpt lat="46.4335742" lon="13.5285801">
<ele>1460.99</ele>
<time>2026-08-02T11:18:34.000Z</time>
</trkpt>
<trkpt lat="46.4337324" lon="13.5284350">
<ele>1458.25</ele>
<time>2026-08-02T11:22:12.000Z</time>
</trkpt>
<trkpt lat="46.4339080" lon="13.5283450">
<ele>1438.37</ele>
<time>2026-08-02T11:22:52.000Z</time>
</trkpt>
<trkpt lat="46.4340788" lon="13.5282570">
<ele>1421.30</ele>
<time>2026-08-02T11:23:19.000Z</time>
</trkpt>
<trkpt lat="46.4342212" lon="13.5284257">
<ele>1399.40</ele>
<time>2026-08-02T11:24:57.000Z</time>
</trkpt>
<trkpt lat="46.4343894" lon="13.5282991">
<ele>1393.37</ele>
<time>2026-08-02T11:25:24.000Z</time>
</trkpt>
<trkpt lat="46.4345685" lon="13.5282683">
<ele>1383.47</ele>
<time>2026-08-02T11:25:45.000Z</time>
</trkpt>
<trkpt lat="46.4346714" lon="13.5280487">
<ele>1374.09</ele>
<time>2026-08-02T11:26:01.000Z</time>
</trkpt>
<trkpt lat="46.4348043" lon="13.5278473">
<ele>1371.13</ele>
<time>2026-08-02T11:26:17.000Z</time>
</trkpt>
<trkpt lat="46.4348973" lon="13.5276060">
<ele>1363.80</ele>
<time>2026-08-02T11:26:34.000Z</time>
</trkpt>
<trkpt lat="46.4350026" lon="13.5273922">
<ele>1350.50</ele>
<time>2026-08-02T11:27:14.000Z</time>
</trkpt>
<trkpt lat="46.4349621" lon="13.5271315">
<ele>1353.12</ele>
<time>2026-08-02T11:30:48.000Z</time>
</trkpt>
<trkpt lat="46.4350688" lon="13.5269057">
<ele>1355.47</ele>
<time>2026-08-02T11:31:11.000Z</time>
</trkpt>
<trkpt lat="46.4350944" lon="13.5266401">
<ele>1357.26</ele>
<time>2026-08-02T11:31:28.000Z</time>
</trkpt>
<trkpt lat="46.4350185" lon="13.5264006">
<ele>1344.42</ele>
<time>2026-08-02T11:32:43.000Z</time>
</trkpt>
<trkpt lat="46.4349784" lon="13.5261459">
<ele>1351.64</ele>
<time>2026-08-02T11:33:32.000Z</time>
</trkpt>
<trkpt lat="46.4349367" lon="13.5258910">
<ele>1349.14</ele>
<time>2026-08-02T11:33:58.000Z</time>
</trkpt>
<trkpt lat="46.4347707" lon="13.5257631">
<ele>1356.08</ele>
<time>2026-08-02T11:36:24.000Z</time>
</trkpt>
<trkpt lat="46.4347280" lon="13.5254990">
<ele>1365.47</ele>
<time>2026-08-02T11:36:48.000Z</time>
</trkpt>
<trkpt lat="46.4347623" lon="13.5252257">
<ele>1367.93</ele>
<time>2026-08-02T11:37:13.000Z</time>
</trkpt>
<trkpt lat="46.4348020" lon="13.5249549">
<ele>1370.65</ele>
<time>2026-08-02T11:37:26.000Z</time>
</trkpt>
<trkpt lat="46.4348135" lon="13.5246874">
<ele>1366.43</ele>
<time>2026-08-02T11:37:55.000Z</time>
</trkpt>
<trkpt lat="46.4349914" lon="13.5246112">
<ele>1373.58</ele>
<time>2026-08-02T11:38:10.000Z</time>
</trkpt>
<trkpt lat="46.4349245" lon="13.5243646">
<ele>1380.28</ele>
<time>2026-08-02T11:39:14.000Z</time>
</trkpt>
<trkpt lat="46.4348839" lon="13.5240984">
<ele>1381.43</ele>
<time>2026-08-02T11:39:38.000Z</time>
</trkpt>
<trkpt lat="46.4349481" lon="13.5238498">
<ele>1385.40</ele>
<time>2026-08-02T11:39:59.000Z</time>
</trkpt>
<trkpt lat="46.4350489" lon="13.5236102">
<ele>1388.02</ele>
<time>2026-08-02T11:40:39.000Z</time>
</trkpt>
<trkpt lat="46.4351423" lon="13.5233857">
<ele>1390.37</ele>
<time>2026-08-02T11:40:54.000Z</time>
</trkpt>
<trkpt lat="46.4352570" lon="13.5231753">
<ele>1395.57</ele>
<time>2026-08-02T11:41:38.000Z</time>
</trkpt>
<trkpt lat="46.4353886" lon="13.5229938">
<ele>1406.59</ele>
<time>2026-08-02T11:42:12.000Z</time>
</trkpt>
<trkpt lat="46.4353217" lon="13.5227478">
<ele>1423.10</ele>
<time>2026-08-02T11:43:23.000Z</time>
</trkpt>
<trkpt lat="46.4354232" lon="13.5225273">
<ele>1430.25</ele>
<time>2026-08-02T11:44:06.000Z</time>
</trkpt>
<trkpt lat="46.4355598" lon="13.5223484">
<ele>1446.28</ele>
<time>2026-08-02T11:45:00.000Z</time>
</trkpt>
<trkpt lat="46.4355031" lon="13.5221003">
<ele>1451.34</ele>
<time>2026-08-02T11:45:37.000Z</time>
</trkpt>
<trkpt lat="46.4354008" lon="13.5218838">
<ele>1459.23</ele>
<time>2026-08-02T11:46:03.000Z</time>
</trkpt>
<trkpt lat="46.4352116" lon="13.5218918">
<ele>1468.44</ele>
<time>2026-08-02T11:46:46.000Z</time>
</trkpt>
<trkpt lat="46.4350299" lon="13.5218758">
<ele>1472.63</ele>
<time>2026-08-02T11:47:06.000Z</time>
</trkpt>
<trkpt lat="46.4348639" lon="13.5217667">
<ele>1475.77</ele>
<time>2026-08-02T11:48:22.000Z</time>
</trkpt>
<trkpt lat="46.4350255" lon="13.5218847">
<ele>1474.70</ele>
<time>2026-08-02T11:50:29.000Z</time>
</trkpt>
<trkpt lat="46.4352104" lon="13.5219152">
<ele>1464.44</ele>
<time>2026-08-02T11:50:57.000Z</time>
</trkpt>
<trkpt lat="46.4353956" lon="13.5219403">
<ele>1464.18</ele>
<time>2026-08-02T11:51:19.000Z</time>
</trkpt>
<trkpt lat="46.4354004" lon="13.5216536">
<ele>1461.65</ele>
<time>2026-08-02T11:51:54.000Z</time>
</trkpt>
<trkpt lat="46.4355689" lon="13.5215285">
<ele>1452.96</ele>
<time>2026-08-02T11:52:32.000Z</time>
</trkpt>
<trkpt lat="46.4357498" lon="13.5215616">
<ele>1444.79</ele>
<time>2026-08-02T11:53:32.000Z</time>
</trkpt>
<trkpt lat="46.4358744" lon="13.5217525">
<ele>1430.86</ele>
<time>2026-08-02T11:53:58.000Z</time>
</trkpt>
<trkpt lat="46.4360503" lon="13.5216886">
<ele>1426.31</ele>
<time>2026-08-02T11:54:56.000Z</time>
</trkpt>
<trkpt lat="46.4358709" lon="13.5217338">
<ele>1429.55</ele>
<time>2026-08-02T11:55:38.000Z</time>
</trkpt>
<trkpt lat="46.4359051" lon="13.5214699">
<ele>1435.74</ele>
<time>2026-08-02T11:56:17.000Z</time>
</trkpt>
<trkpt lat="46.4360188" lon="13.5212636">
<ele>1438.05</ele>
<time>2026-08-02T11:56:49.000Z</time>
</trkpt>
<trkpt lat="46.4361750" lon="13.5211155">
<ele>1439.15</ele>
<time>2026-08-02T11:57:07.000Z</time>
</trkpt>
<trkpt lat="46.4363566" lon="13.5211218">
<ele>1445.79</ele>
<time>2026-08-02T11:57:22.000Z</time>
</trkpt>
<trkpt lat="46.4365361" lon="13.5210627">
<ele>1438.04</ele>
<time>2026-08-02T11:57:44.000Z</time>
</trkpt>
<trkpt lat="46.4367097" lon="13.5211451">
<ele>1433.01</ele>
<time>2026-08-02T11:58:00.000Z</time>
</trkpt>
<trkpt lat="46.4369001" lon="13.5211230">
<ele>1426.70</ele>
<time>2026-08-02T11:58:13.000Z</time>
</trkpt>
<trkpt lat="46.4370812" lon="13.5210316">
<ele>1418.33</ele>
<time>2026-08-02T11:58:30.000Z</time>
</trkpt>
<trkpt lat="46.4372597" lon="13.5209591">
<ele>1413.45</ele>
<time>2026-08-02T11:58:53.000Z</time>
</trkpt>
<trkpt lat="46.4374507" lon="13.5209210">
<ele>1406.70</ele>
<time>2026-08-02T11:59:14.000Z</time>
</trkpt>
<trkpt lat="46.4376231" lon="13.5210486">
<ele>1404.76</ele>
<time>2026-08-02T11:59:31.000Z</time>
</trkpt>
<trkpt lat="46.4377761" lon="13.5212200">
<ele>1407.43</ele>
<time>2026-08-02T11:59:44.000Z</time>
</trkpt>
<trkpt lat="46.4379552" lon="13.5211818">
<ele>1400.37</ele>
<time>2026-08-02T12:00:00.000Z</time>
</trkpt>
<trkpt lat="46.4380228" lon="13.5214360">
<ele>1392.46</ele>
<time>2026-08-02T12:00:28.000Z</time>
</trkpt>
<trkpt lat="46.4381452" lon="13.5216275">
<ele>1386.83</ele>
<time>2026-08-02T12:00:51.000Z</time>
</trkpt>
<trkpt lat="46.4381642" lon="13.5218885">
<ele>1382.99</ele>
<time>2026-08-02T12:01:02.000Z</time>
</trkpt>
<trkpt lat="46.4383104" lon="13.5220591">
<ele>1377.25</ele>
<time>2026-08-02T12:01:18.000Z</time>
</trkpt>
<trkpt lat="46.4384841" lon="13.5221739">
<ele>1372.03</ele>
<time>2026-08-02T12:01:39.000Z</time>
</trkpt>
<trkpt lat="46.4386486" lon="13.5222889">
<ele>1369.03</ele>
<time>2026-08-02T12:02:05.000Z</time>
</trkpt>
<trkpt lat="46.4387663" lon="13.5224944">
<ele>1356.99</ele>
<time>2026-08-02T12:02:25.000Z</time>
</trkpt>
<trkpt lat="46.4387324" lon="13.5227616">
<ele>1349.84</ele>
<time>2026-08-02T12:03:08.000Z</time>
</trkpt>
<trkpt lat="46.4387763" lon="13.5230237">
<ele>1338.37</ele>
<time>2026-08-02T12:03:28.000Z</time>
</trkpt>
<trkpt lat="46.4387203" lon="13.5232794">
<ele>1329.81</ele>
<time>2026-08-02T12:03:47.000Z</time>
</trkpt>
<trkpt lat="46.4386958" lon="13.5235486">
<ele>1321.46</ele>
<time>2026-08-02T12:04:02.000Z</time>
</trkpt>
<trkpt lat="46.4386646" lon="13.5238105">
<ele>1316.48</ele>
<time>2026-08-02T12:04:18.000Z</time>
</trkpt>
<trkpt lat="46.4386188" lon="13.5240891">
<ele>1307.16</ele>
<time>2026-08-02T12:04:34.000Z</time>
</trkpt>
<trkpt lat="46.4386320" lon="13.5243541">
<ele>1305.69</ele>
<time>2026-08-02T12:04:54.000Z</time>
</trkpt>
<trkpt lat="46.4386784" lon="13.5246176">
<ele>1299.42</ele>
<time>2026-08-02T12:05:06.000Z</time>
</trkpt>
<trkpt lat="46.4386854" lon="13.5248807">
<ele>1294.54</ele>
<time>2026-08-02T12:05:24.000Z</time>
</trkpt>
<trkpt lat="46.4386668" lon="13.5251458">
<ele>1278.88</ele>
<time>2026-08-02T12:05:52.000Z</time>
</trkpt>
<trkpt lat="46.4386427" lon="13.5254178">
<ele>1271.43</ele>
<time>2026-08-02T12:06:04.000Z</time>
</trkpt>
<trkpt lat="46.4386575" lon="13.5256781">
<ele>1268.54</ele>
<time>2026-08-02T12:06:50.000Z</time>
</trkpt>
<trkpt lat="46.4387483" lon="13.5259145">
<ele>1271.81</ele>
<time>2026-08-02T12:07:16.000Z</time>
</trkpt>
<trkpt lat="46.4387359" lon="13.5261837">
<ele>1274.21</ele>
<time>2026-08-02T12:07:29.000Z</time>
</trkpt>
<trkpt lat="46.4386624" lon="13.5264376">
<ele>1272.08</ele>
<time>2026-08-02T12:07:44.000Z</time>
</trkpt>
<trkpt lat="46.4385884" lon="13.5266814">
<ele>1270.88</ele>
<time>2026-08-02T12:07:57.000Z</time>
</trkpt>
<trkpt lat="46.4385840" lon="13.5269496">
<ele>1271.99</ele>
<time>2026-08-02T12:08:12.000Z</time>
</trkpt>
<trkpt lat="46.4387310" lon="13.5271529">
<ele>1268.04</ele>
<time>2026-08-02T12:08:53.000Z</time>
</trkpt>
<trkpt lat="46.4389212" lon="13.5272420">
<ele>1268.55</ele>
<time>2026-08-02T12:09:01.000Z</time>
</trkpt>
<trkpt lat="46.4390958" lon="13.5273703">
<ele>1264.10</ele>
<time>2026-08-02T12:09:11.000Z</time>
</trkpt>
<trkpt lat="46.4391136" lon="13.5276460">
<ele>1263.71</ele>
<time>2026-08-02T12:09:28.000Z</time>
</trkpt>
<trkpt lat="46.4391775" lon="13.5279087">
<ele>1257.47</ele>
<time>2026-08-02T12:09:39.000Z</time>
</trkpt>
<trkpt lat="46.4389830" lon="13.5278685">
<ele>1258.99</ele>
<time>2026-08-02T12:10:07.000Z</time>
</trkpt>
<trkpt lat="46.4387966" lon="13.5278813">
<ele>1255.61</ele>
<time>2026-08-02T12:10:19.000Z</time>
</trkpt>
<trkpt lat="46.4386305" lon="13.5280329">
<ele>1248.83</ele>
<time>2026-08-02T12:10:30.000Z</time>
</trkpt>
<trkpt lat="46.4386217" lon="13.5283112">
<ele>1235.24</ele>
<time>2026-08-02T12:10:40.000Z</time>
</trkpt>
<trkpt lat="46.4386664" lon="13.5285860">
<ele>1231.94</ele>
<time>2026-08-02T12:10:56.000Z</time>
</trkpt>
<trkpt lat="46.4386952" lon="13.5288634">
<ele>1220.39</ele>
<time>2026-08-02T12:11:10.000Z</time>
</trkpt>
<trkpt lat="46.4387811" lon="13.5291202">
<ele>1218.89</ele>
<time>2026-08-02T12:11:23.000Z</time>
</trkpt>
<trkpt lat="46.4388654" lon="13.5293643">
<ele>1215.08</ele>
<time>2026-08-02T12:11:32.000Z</time>
</trkpt>
<trkpt lat="46.4390215" lon="13.5295397">
<ele>1210.73</ele>
<time>2026-08-02T12:11:39.000Z</time>
</trkpt>
<trkpt lat="46.4391720" lon="13.5296969">
<ele>1209.98</ele>
<time>2026-08-02T12:11:51.000Z</time>
</trkpt>
<trkpt lat="46.4393468" lon="13.5297863">
<ele>1208.77</ele>
<time>2026-08-02T12:12:02.000Z</time>
</trkpt>
<trkpt lat="46.4394733" lon="13.5300008">
<ele>1204.33</ele>
<time>2026-08-02T12:12:16.000Z</time>
</trkpt>
<trkpt lat="46.4395139" lon="13.5302557">
<ele>1190.58</ele>
<time>2026-08-02T12:12:32.000Z</time>
</trkpt>
<trkpt lat="46.4394219" lon="13.5304870">
<ele>1180.89</ele>
<time>2026-08-02T12:12:53.000Z</time>
</trkpt>
<trkpt lat="46.4392335" lon="13.5304064">
<ele>1177.56</ele>
<time>2026-08-02T12:13:07.000Z</time>
</trkpt>
<trkpt lat="46.4390540" lon="13.5303243">
<ele>1193.78</ele>
<time>2026-08-02T12:13:16.000Z</time>
</trkpt>
<trkpt lat="46.4388766" lon="13.5304303">
<ele>1199.54</ele>
<time>2026-08-02T12:13:26.000Z</time>
</trkpt>
<trkpt lat="46.4387787" lon="13.5306668">
<ele>1195.61</ele>
<time>2026-08-02T12:13:33.000Z</time>
</trkpt>
<trkpt lat="46.4388490" lon="13.5309104">
<ele>1184.49</ele>
<time>2026-08-02T12:13:46.000Z</time>
</trkpt>
<trkpt lat="46.4389623" lon="13.5311237">
<ele>1180.46</ele>
<time>2026-08-02T12:13:57.000Z</time>
</trkpt>
<trkpt lat="46.4390914" lon="13.5313477">
<ele>1173.34</ele>
<time>2026-08-02T12:14:12.000Z</time>
</trkpt>
<trkpt lat="46.4392391" lon="13.5315310">
<ele>1166.69</ele>
<time>2026-08-02T12:14:22.000Z</time>
</trkpt>
<trkpt lat="46.4393548" lon="13.5317461">
<ele>1161.86</ele>
<time>2026-08-02T12:14:33.000Z</time>
</trkpt>
<trkpt lat="46.4394967" lon="13.5319355">
<ele>1159.68</ele>
<time>2026-08-02T12:14:43.000Z</time>
</trkpt>
<trkpt lat="46.4396796" lon="13.5320248">
<ele>1151.58</ele>
<time>2026-08-02T12:14:55.000Z</time>
</trkpt>
<trkpt lat="46.4395595" lon="13.5322254">
<ele>1152.20</ele>
<time>2026-08-02T12:15:17.000Z</time>
</trkpt>
<trkpt lat="46.4393875" lon="13.5323452">
<ele>1145.55</ele>
<time>2026-08-02T12:15:31.000Z</time>
</trkpt>
<trkpt lat="46.4392043" lon="13.5323476">
<ele>1144.94</ele>
<time>2026-08-02T12:15:42.000Z</time>
</trkpt>
<trkpt lat="46.4392298" lon="13.5326072">
<ele>1136.33</ele>
<time>2026-08-02T12:16:01.000Z</time>
</trkpt>
<trkpt lat="46.4394028" lon="13.5326849">
<ele>1130.58</ele>
<time>2026-08-02T12:16:14.000Z</time>
</trkpt>
<trkpt lat="46.4395497" lon="13.5328547">
<ele>1127.56</ele>
<time>2026-08-02T12:16:24.000Z</time>
</trkpt>
<trkpt lat="46.4396992" lon="13.5330451">
<ele>1129.46</ele>
<time>2026-08-02T12:16:36.000Z</time>
</trkpt>
<trkpt lat="46.4398113" lon="13.5332542">
<ele>1128.38</ele>
<time>2026-08-02T12:16:50.000Z</time>
</trkpt>
<trkpt lat="46.4396573" lon="13.5334117">
<ele>1120.64</ele>
<time>2026-08-02T12:17:07.000Z</time>
</trkpt>
<trkpt lat="46.4394936" lon="13.5335322">
<ele>1116.57</ele>
<time>2026-08-02T12:17:23.000Z</time>
</trkpt>
<trkpt lat="46.4393201" lon="13.5336378">
<ele>1111.69</ele>
<time>2026-08-02T12:17:34.000Z</time>
</trkpt>
<trkpt lat="46.4393891" lon="13.5338860">
<ele>1110.42</ele>
<time>2026-08-02T12:17:44.000Z</time>
</trkpt>
<trkpt lat="46.4395732" lon="13.5339771">
<ele>1107.20</ele>
<time>2026-08-02T12:17:57.000Z</time>
</trkpt>
<trkpt lat="46.4394934" lon="13.5342261">
<ele>1096.32</ele>
<time>2026-08-02T12:18:28.000Z</time>
</trkpt>
<trkpt lat="46.4396161" lon="13.5344272">
<ele>1073.98</ele>
<time>2026-08-02T12:19:44.000Z</time>
</trkpt>
<trkpt lat="46.4398001" lon="13.5344957">
<ele>1071.39</ele>
<time>2026-08-02T12:19:55.000Z</time>
</trkpt>
<trkpt lat="46.4399260" lon="13.5346893">
<ele>1075.15</ele>
<time>2026-08-02T12:20:09.000Z</time>
</trkpt>
<trkpt lat="46.4400663" lon="13.5348677">
<ele>1073.99</ele>
<time>2026-08-02T12:20:19.000Z</time>
</trkpt>
<trkpt lat="46.4402276" lon="13.5349865">
<ele>1069.12</ele>
<time>2026-08-02T12:20:29.000Z</time>
</trkpt>
<trkpt lat="46.4404086" lon="13.5350603">
<ele>1073.22</ele>
<time>2026-08-02T12:20:43.000Z</time>
</trkpt>
<trkpt lat="46.4405772" lon="13.5351955">
<ele>1072.30</ele>
<time>2026-08-02T12:20:54.000Z</time>
</trkpt>
<trkpt lat="46.4407599" lon="13.5352873">
<ele>1064.10</ele>
<time>2026-08-02T12:21:06.000Z</time>
</trkpt>
<trkpt lat="46.4409353" lon="13.5353905">
<ele>1063.50</ele>
<time>2026-08-02T12:21:16.000Z</time>
</trkpt>
<trkpt lat="46.4410835" lon="13.5355761">
<ele>1064.41</ele>
<time>2026-08-02T12:21:26.000Z</time>
</trkpt>
<trkpt lat="46.4411829" lon="13.5358209">
<ele>1063.87</ele>
<time>2026-08-02T12:21:39.000Z</time>
</trkpt>
<trkpt lat="46.4412764" lon="13.5360671">
<ele>1063.84</ele>
<time>2026-08-02T12:21:54.000Z</time>
</trkpt>
<trkpt lat="46.4414041" lon="13.5362552">
<ele>1059.88</ele>
<time>2026-08-02T12:22:10.000Z</time>
</trkpt>
<trkpt lat="46.4415528" lon="13.5364505">
<ele>1058.64</ele>
<time>2026-08-02T12:22:21.000Z</time>
</trkpt>
<trkpt lat="46.4416685" lon="13.5366812">
<ele>1058.25</ele>
<time>2026-08-02T12:22:32.000Z</time>
</trkpt>
<trkpt lat="46.4417820" lon="13.5368971">
<ele>1053.93</ele>
<time>2026-08-02T12:22:44.000Z</time>
</trkpt>
<trkpt lat="46.4419072" lon="13.5370972">
<ele>1052.79</ele>
<time>2026-08-02T12:22:55.000Z</time>
</trkpt>
<trkpt lat="46.4420438" lon="13.5372922">
<ele>1053.20</ele>
<time>2026-08-02T12:23:07.000Z</time>
</trkpt>
<trkpt lat="46.4421971" lon="13.5374307">
<ele>1046.56</ele>
<time>2026-08-02T12:23:21.000Z</time>
</trkpt>
<trkpt lat="46.4423637" lon="13.5375800">
<ele>1041.41</ele>
<time>2026-08-02T12:23:35.000Z</time>
</trkpt>
<trkpt lat="46.4425457" lon="13.5376590">
<ele>1041.77</ele>
<time>2026-08-02T12:23:44.000Z</time>
</trkpt>
<trkpt lat="46.4427376" lon="13.5376888">
<ele>1036.94</ele>
<time>2026-08-02T12:23:55.000Z</time>
</trkpt>
<trkpt lat="46.4429229" lon="13.5376656">
<ele>1029.49</ele>
<time>2026-08-02T12:24:13.000Z</time>
</trkpt>
<trkpt lat="46.4431141" lon="13.5376642">
<ele>1031.46</ele>
<time>2026-08-02T12:24:25.000Z</time>
</trkpt>
<trkpt lat="46.4433018" lon="13.5377014">
<ele>1026.82</ele>
<time>2026-08-02T12:24:39.000Z</time>
</trkpt>
<trkpt lat="46.4434947" lon="13.5376762">
<ele>1020.84</ele>
<time>2026-08-02T12:25:01.000Z</time>
</trkpt>
<trkpt lat="46.4436732" lon="13.5376204">
<ele>1021.17</ele>
<time>2026-08-02T12:25:10.000Z</time>
</trkpt>
<trkpt lat="46.4438487" lon="13.5376918">
<ele>1023.44</ele>
<time>2026-08-02T12:25:20.000Z</time>
</trkpt>
<trkpt lat="46.4440162" lon="13.5377967">
<ele>1020.30</ele>
<time>2026-08-02T12:25:31.000Z</time>
</trkpt>
<trkpt lat="46.4442026" lon="13.5377839">
<ele>1016.35</ele>
<time>2026-08-02T12:25:43.000Z</time>
</trkpt>
<trkpt lat="46.4443837" lon="13.5377027">
<ele>1014.52</ele>
<time>2026-08-02T12:25:54.000Z</time>
</trkpt>
<trkpt lat="46.4445561" lon="13.5376206">
<ele>1017.79</ele>
<time>2026-08-02T12:26:12.000Z</time>
</trkpt>
<trkpt lat="46.4447344" lon="13.5375279">
<ele>1014.95</ele>
<time>2026-08-02T12:26:23.000Z</time>
</trkpt>
<trkpt lat="46.4449139" lon="13.5375472">
<ele>1007.03</ele>
<time>2026-08-02T12:26:55.000Z</time>
</trkpt>
<trkpt lat="46.4450038" lon="13.5377924">
<ele>1008.39</ele>
<time>2026-08-02T12:27:15.000Z</time>
</trkpt>
<trkpt lat="46.4449051" lon="13.5380259">
<ele>1006.33</ele>
<time>2026-08-02T12:27:32.000Z</time>
</trkpt>
<trkpt lat="46.4448510" lon="13.5382849">
<ele>1007.90</ele>
<time>2026-08-02T12:27:44.000Z</time>
</trkpt>
<trkpt lat="46.4449111" lon="13.5385330">
<ele>1007.70</ele>
<time>2026-08-02T12:28:12.000Z</time>
</trkpt>
<trkpt lat="46.4448457" lon="13.5387831">
<ele>1007.22</ele>
<time>2026-08-02T12:28:24.000Z</time>
</trkpt>
<trkpt lat="46.4448140" lon="13.5390503">
<ele>1005.80</ele>
<time>2026-08-02T12:28:43.000Z</time>
</trkpt>
<trkpt lat="46.4449214" lon="13.5392777">
<ele>1007.01</ele>
<time>2026-08-02T12:28:53.000Z</time>
</trkpt>
<trkpt lat="46.4448954" lon="13.5395569">
<ele>1009.24</ele>
<time>2026-08-02T12:29:09.000Z</time>
</trkpt>
<trkpt lat="46.4447686" lon="13.5397461">
<ele>1014.50</ele>
<time>2026-08-02T12:29:33.000Z</time>
</trkpt>
<trkpt lat="46.4446715" lon="13.5399821">
<ele>1013.30</ele>
<time>2026-08-02T12:30:05.000Z</time>
</trkpt>
<trkpt lat="46.4445378" lon="13.5401569">
<ele>1014.53</ele>
<time>2026-08-02T12:30:16.000Z</time>
</trkpt>
<trkpt lat="46.4444199" lon="13.5403598">
<ele>1018.20</ele>
<time>2026-08-02T12:30:37.000Z</time>
</trkpt>
<trkpt lat="46.4442455" lon="13.5404548">
<ele>1019.31</ele>
<time>2026-08-02T12:30:56.000Z</time>
</trkpt>
<trkpt lat="46.4440643" lon="13.5405604">
<ele>1029.73</ele>
<time>2026-08-02T12:31:28.000Z</time>
</trkpt>
<trkpt lat="46.4439265" lon="13.5407335">
<ele>1029.70</ele>
<time>2026-08-02T12:31:40.000Z</time>
</trkpt>
<trkpt lat="46.4437632" lon="13.5408455">
<ele>1016.93</ele>
<time>2026-08-02T12:32:10.000Z</time>
</trkpt>
<trkpt lat="46.4436012" lon="13.5409837">
<ele>1038.87</ele>
<time>2026-08-02T12:32:45.000Z</time>
</trkpt>
<trkpt lat="46.4435391" lon="13.5412329">
<ele>1051.95</ele>
<time>2026-08-02T12:33:27.000Z</time>
</trkpt>
<trkpt lat="46.4434587" lon="13.5414687">
<ele>1059.81</ele>
<time>2026-08-02T12:33:45.000Z</time>
</trkpt>
<trkpt lat="46.4436179" lon="13.5416136">
<ele>1072.34</ele>
<time>2026-08-02T12:34:08.000Z</time>
</trkpt>
<trkpt lat="46.4437901" lon="13.5417087">
<ele>1073.96</ele>
<time>2026-08-02T12:34:24.000Z</time>
</trkpt>
<trkpt lat="46.4439678" lon="13.5418096">
<ele>1073.79</ele>
<time>2026-08-02T12:34:38.000Z</time>
</trkpt>
<trkpt lat="46.4439309" lon="13.5420694">
<ele>1083.24</ele>
<time>2026-08-02T12:35:34.000Z</time>
</trkpt>
<trkpt lat="46.4437561" lon="13.5421336">
<ele>1086.88</ele>
<time>2026-08-02T12:36:15.000Z</time>
</trkpt>
<trkpt lat="46.4437892" lon="13.5424063">
<ele>1086.58</ele>
<time>2026-08-02T12:36:39.000Z</time>
</trkpt>
<trkpt lat="46.4438200" lon="13.5426673">
<ele>1099.16</ele>
<time>2026-08-02T12:37:37.000Z</time>
</trkpt>
<trkpt lat="46.4438170" lon="13.5429377">
<ele>1114.61</ele>
<time>2026-08-02T12:38:34.000Z</time>
</trkpt>
<trkpt lat="46.4436359" lon="13.5429331">
<ele>1122.56</ele>
<time>2026-08-02T12:39:13.000Z</time>
</trkpt>
<trkpt lat="46.4436649" lon="13.5431968">
<ele>1128.64</ele>
<time>2026-08-02T12:39:40.000Z</time>
</trkpt>
<trkpt lat="46.4435109" lon="13.5433336">
<ele>1139.57</ele>
<time>2026-08-02T12:40:27.000Z</time>
</trkpt>
<trkpt lat="46.4436473" lon="13.5435274">
<ele>1141.63</ele>
<time>2026-08-02T12:40:52.000Z</time>
</trkpt>
<trkpt lat="46.4438284" lon="13.5435850">
<ele>1155.12</ele>
<time>2026-08-02T12:41:09.000Z</time>
</trkpt>
<trkpt lat="46.4436477" lon="13.5436787">
<ele>1157.65</ele>
<time>2026-08-02T12:41:32.000Z</time>
</trkpt>
<trkpt lat="46.4434705" lon="13.5437545">
<ele>1163.65</ele>
<time>2026-08-02T12:41:51.000Z</time>
</trkpt>
<trkpt lat="46.4435488" lon="13.5439921">
<ele>1165.26</ele>
<time>2026-08-02T12:42:18.000Z</time>
</trkpt>
<trkpt lat="46.4435040" lon="13.5442498">
<ele>1164.72</ele>
<time>2026-08-02T12:42:36.000Z</time>
</trkpt>
<trkpt lat="46.4436575" lon="13.5440952">
<ele>1186.14</ele>
<time>2026-08-02T12:42:57.000Z</time>
</trkpt>
<trkpt lat="46.4436391" lon="13.5443554">
<ele>1197.32</ele>
<time>2026-08-02T12:43:46.000Z</time>
</trkpt>
<trkpt lat="46.4437147" lon="13.5445922">
<ele>1206.08</ele>
<time>2026-08-02T12:44:30.000Z</time>
</trkpt>
<trkpt lat="46.4438193" lon="13.5448161">
<ele>1212.94</ele>
<time>2026-08-02T12:44:44.000Z</time>
</trkpt>
<trkpt lat="46.4438269" lon="13.5450842">
<ele>1222.47</ele>
<time>2026-08-02T12:45:05.000Z</time>
</trkpt>
<trkpt lat="46.4438616" lon="13.5453448">
<ele>1238.38</ele>
<time>2026-08-02T12:45:41.000Z</time>
</trkpt>
<trkpt lat="46.4438215" lon="13.5456099">
<ele>1238.28</ele>
<time>2026-08-02T12:45:59.000Z</time>
</trkpt>
<trkpt lat="46.4438106" lon="13.5458875">
<ele>1247.81</ele>
<time>2026-08-02T12:46:29.000Z</time>
</trkpt>
<trkpt lat="46.4436714" lon="13.5460733">
<ele>1249.94</ele>
<time>2026-08-02T12:46:47.000Z</time>
</trkpt>
<trkpt lat="46.4436856" lon="13.5463388">
<ele>1248.80</ele>
<time>2026-08-02T12:47:05.000Z</time>
</trkpt>
<trkpt lat="46.4437617" lon="13.5465761">
<ele>1249.69</ele>
<time>2026-08-02T12:47:26.000Z</time>
</trkpt>
<trkpt lat="46.4436487" lon="13.5467928">
<ele>1260.34</ele>
<time>2026-08-02T12:47:45.000Z</time>
</trkpt>
<trkpt lat="46.4435251" lon="13.5469998">
<ele>1269.83</ele>
<time>2026-08-02T12:48:09.000Z</time>
</trkpt>
<trkpt lat="46.4434836" lon="13.5472611">
<ele>1280.14</ele>
<time>2026-08-02T12:48:29.000Z</time>
</trkpt>
<trkpt lat="46.4433928" lon="13.5474914">
<ele>1280.77</ele>
<time>2026-08-02T12:48:48.000Z</time>
</trkpt>
<trkpt lat="46.4433753" lon="13.5477547">
<ele>1280.05</ele>
<time>2026-08-02T12:49:05.000Z</time>
</trkpt>
<trkpt lat="46.4433285" lon="13.5480187">
<ele>1290.87</ele>
<time>2026-08-02T12:49:20.000Z</time>
</trkpt>
<trkpt lat="46.4431591" lon="13.5481264">
<ele>1290.66</ele>
<time>2026-08-02T12:49:34.000Z</time>
</trkpt>
<trkpt lat="46.4429781" lon="13.5481496">
<ele>1292.72</ele>
<time>2026-08-02T12:49:54.000Z</time>
</trkpt>
<trkpt lat="46.4430485" lon="13.5483920">
<ele>1305.60</ele>
<time>2026-08-02T12:50:25.000Z</time>
</trkpt>
<trkpt lat="46.4429687" lon="13.5486291">
<ele>1308.99</ele>
<time>2026-08-02T12:50:58.000Z</time>
</trkpt>
<trkpt lat="46.4429362" lon="13.5488983">
<ele>1321.34</ele>
<time>2026-08-02T12:51:14.000Z</time>
</trkpt>
<trkpt lat="46.4430108" lon="13.5491438">
<ele>1328.98</ele>
<time>2026-08-02T12:51:31.000Z</time>
</trkpt>
<trkpt lat="46.4430288" lon="13.5494039">
<ele>1334.48</ele>
<time>2026-08-02T12:51:53.000Z</time>
</trkpt>
<trkpt lat="46.4429814" lon="13.5496602">
<ele>1330.31</ele>
<time>2026-08-02T12:52:22.000Z</time>
</trkpt>
<trkpt lat="46.4431343" lon="13.5495160">
<ele>1331.86</ele>
<time>2026-08-02T12:53:06.000Z</time>
</trkpt>
<trkpt lat="46.4432358" lon="13.5497450">
<ele>1311.85</ele>
<time>2026-08-02T12:56:07.000Z</time>
</trkpt>
<trkpt lat="46.4432822" lon="13.5500122">
<ele>1324.43</ele>
<time>2026-08-02T12:56:24.000Z</time>
</trkpt>
<trkpt lat="46.4432225" lon="13.5502596">
<ele>1323.19</ele>
<time>2026-08-02T12:56:36.000Z</time>
</trkpt>
<trkpt lat="46.4432660" lon="13.5505270">
<ele>1312.61</ele>
<time>2026-08-02T12:56:46.000Z</time>
</trkpt>
<trkpt lat="46.4433505" lon="13.5507685">
<ele>1300.09</ele>
<time>2026-08-02T12:56:54.000Z</time>
</trkpt>
<trkpt lat="46.4433831" lon="13.5510555">
<ele>1314.08</ele>
<time>2026-08-02T12:57:16.000Z</time>
</trkpt>
<trkpt lat="46.4433960" lon="13.5513177">
<ele>1306.71</ele>
<time>2026-08-02T12:57:29.000Z</time>
</trkpt>
<trkpt lat="46.4433195" lon="13.5515599">
<ele>1311.09</ele>
<time>2026-08-02T12:57:50.000Z</time>
</trkpt>
<trkpt lat="46.4431841" lon="13.5517412">
<ele>1302.53</ele>
<time>2026-08-02T12:58:01.000Z</time>
</trkpt>
<trkpt lat="46.4430848" lon="13.5519748">
<ele>1290.60</ele>
<time>2026-08-02T12:58:10.000Z</time>
</trkpt>
<trkpt lat="46.4431017" lon="13.5522387">
<ele>1284.10</ele>
<time>2026-08-02T12:58:24.000Z</time>
</trkpt>
<trkpt lat="46.4430465" lon="13.5525014">
<ele>1273.72</ele>
<time>2026-08-02T12:58:38.000Z</time>
</trkpt>
<trkpt lat="46.4430782" lon="13.5527736">
<ele>1263.71</ele>
<time>2026-08-02T12:58:51.000Z</time>
</trkpt>
<trkpt lat="46.4430622" lon="13.5530337">
<ele>1260.29</ele>
<time>2026-08-02T12:59:08.000Z</time>
</trkpt>
<trkpt lat="46.4429597" lon="13.5528115">
<ele>1255.76</ele>
<time>2026-08-02T13:00:05.000Z</time>
</trkpt>
<trkpt lat="46.4428507" lon="13.5530445">
<ele>1254.27</ele>
<time>2026-08-02T13:00:23.000Z</time>
</trkpt>
<trkpt lat="46.4429148" lon="13.5532988">
<ele>1239.41</ele>
<time>2026-08-02T13:00:37.000Z</time>
</trkpt>
<trkpt lat="46.4429565" lon="13.5535838">
<ele>1239.70</ele>
<time>2026-08-02T13:00:49.000Z</time>
</trkpt>
<trkpt lat="46.4429368" lon="13.5538506">
<ele>1234.00</ele>
<time>2026-08-02T13:01:02.000Z</time>
</trkpt>
<trkpt lat="46.4428880" lon="13.5541136">
<ele>1229.21</ele>
<time>2026-08-02T13:01:13.000Z</time>
</trkpt>
<trkpt lat="46.4430546" lon="13.5542261">
<ele>1222.51</ele>
<time>2026-08-02T13:01:27.000Z</time>
</trkpt>
<trkpt lat="46.4429977" lon="13.5544968">
<ele>1227.97</ele>
<time>2026-08-02T13:01:43.000Z</time>
</trkpt>
<trkpt lat="46.4428619" lon="13.5546944">
<ele>1220.55</ele>
<time>2026-08-02T13:01:54.000Z</time>
</trkpt>
<trkpt lat="46.4428479" lon="13.5549593">
<ele>1206.71</ele>
<time>2026-08-02T13:02:10.000Z</time>
</trkpt>
<trkpt lat="46.4428270" lon="13.5552429">
<ele>1204.56</ele>
<time>2026-08-02T13:02:19.000Z</time>
</trkpt>
<trkpt lat="46.4428621" lon="13.5555309">
<ele>1198.33</ele>
<time>2026-08-02T13:02:26.000Z</time>
</trkpt>
<trkpt lat="46.4428604" lon="13.5557926">
<ele>1195.26</ele>
<time>2026-08-02T13:02:32.000Z</time>
</trkpt>
<trkpt lat="46.4427007" lon="13.5556514">
<ele>1182.24</ele>
<time>2026-08-02T13:02:48.000Z</time>
</trkpt>
<trkpt lat="46.4426311" lon="13.5559298">
<ele>1173.54</ele>
<time>2026-08-02T13:03:12.000Z</time>
</trkpt>
<trkpt lat="46.4424569" lon="13.5560458">
<ele>1161.00</ele>
<time>2026-08-02T13:03:35.000Z</time>
</trkpt>
<trkpt lat="46.4423204" lon="13.5562267">
<ele>1162.00</ele>
<time>2026-08-02T13:03:43.000Z</time>
</trkpt>
<trkpt lat="46.4422570" lon="13.5564884">
<ele>1154.25</ele>
<time>2026-08-02T13:03:51.000Z</time>
</trkpt>
<trkpt lat="46.4421277" lon="13.5566902">
<ele>1142.34</ele>
<time>2026-08-02T13:04:10.000Z</time>
</trkpt>
<trkpt lat="46.4419571" lon="13.5567971">
<ele>1132.43</ele>
<time>2026-08-02T13:04:34.000Z</time>
</trkpt>
<trkpt lat="46.4418529" lon="13.5570324">
<ele>1120.90</ele>
<time>2026-08-02T13:04:46.000Z</time>
</trkpt>
<trkpt lat="46.4420046" lon="13.5571844">
<ele>1109.59</ele>
<time>2026-08-02T13:05:14.000Z</time>
</trkpt>
<trkpt lat="46.4421872" lon="13.5571678">
<ele>1107.66</ele>
<time>2026-08-02T13:05:37.000Z</time>
</trkpt>
<trkpt lat="46.4422168" lon="13.5574310">
<ele>1114.88</ele>
<time>2026-08-02T13:06:16.000Z</time>
</trkpt>
<trkpt lat="46.4421613" lon="13.5576927">
<ele>1104.76</ele>
<time>2026-08-02T13:06:31.000Z</time>
</trkpt>
<trkpt lat="46.4420500" lon="13.5579099">
<ele>1093.29</ele>
<time>2026-08-02T13:06:54.000Z</time>
</trkpt>
<trkpt lat="46.4419470" lon="13.5581408">
<ele>1073.91</ele>
<time>2026-08-02T13:07:21.000Z</time>
</trkpt>
<trkpt lat="46.4419497" lon="13.5584163">
<ele>1061.79</ele>
<time>2026-08-02T13:07:32.000Z</time>
</trkpt>
<trkpt lat="46.4420684" lon="13.5586349">
<ele>1050.10</ele>
<time>2026-08-02T13:07:44.000Z</time>
</trkpt>
<trkpt lat="46.4420970" lon="13.5589139">
<ele>1044.36</ele>
<time>2026-08-02T13:08:05.000Z</time>
</trkpt>
<trkpt lat="46.4420941" lon="13.5591924">
<ele>1042.86</ele>
<time>2026-08-02T13:08:19.000Z</time>
</trkpt>
<trkpt lat="46.4421265" lon="13.5594577">
<ele>1027.85</ele>
<time>2026-08-02T13:08:30.000Z</time>
</trkpt>
<trkpt lat="46.4422270" lon="13.5596899">
<ele>1018.39</ele>
<time>2026-08-02T13:08:40.000Z</time>
</trkpt>
<trkpt lat="46.4423538" lon="13.5598845">
<ele>1010.60</ele>
<time>2026-08-02T13:08:55.000Z</time>
</trkpt>
<trkpt lat="46.4424129" lon="13.5601354">
<ele>1021.46</ele>
<time>2026-08-02T13:09:12.000Z</time>
</trkpt>
<trkpt lat="46.4422264" lon="13.5602192">
<ele>1025.27</ele>
<time>2026-08-02T13:09:22.000Z</time>
</trkpt>
<trkpt lat="46.4421260" lon="13.5604372">
<ele>1024.71</ele>
<time>2026-08-02T13:09:47.000Z</time>
</trkpt>
<trkpt lat="46.4421008" lon="13.5607000">
<ele>1016.55</ele>
<time>2026-08-02T13:10:04.000Z</time>
</trkpt>
<trkpt lat="46.4421666" lon="13.5609523">
<ele>1016.55</ele>
<time>2026-08-02T13:10:16.000Z</time>
</trkpt>
<trkpt lat="46.4421000" lon="13.5611966">
<ele>1013.13</ele>
<time>2026-08-02T13:10:27.000Z</time>
</trkpt>
<trkpt lat="46.4420731" lon="13.5614862">
<ele>1015.84</ele>
<time>2026-08-02T13:10:41.000Z</time>
</trkpt>
<trkpt lat="46.4420754" lon="13.5617492">
<ele>1013.37</ele>
<time>2026-08-02T13:10:51.000Z</time>
</trkpt>
<trkpt lat="46.4420348" lon="13.5620144">
<ele>1010.26</ele>
<time>2026-08-02T13:11:05.000Z</time>
</trkpt>
<trkpt lat="46.4419088" lon="13.5622293">
<ele>1002.72</ele>
<time>2026-08-02T13:11:19.000Z</time>
</trkpt>
<trkpt lat="46.4418233" lon="13.5624973">
<ele>1002.01</ele>
<time>2026-08-02T13:11:28.000Z</time>
</trkpt>
<trkpt lat="46.4417447" lon="13.5627398">
<ele>1001.78</ele>
<time>2026-08-02T13:11:38.000Z</time>
</trkpt>
<trkpt lat="46.4416995" lon="13.5630068">
<ele>1002.39</ele>
<time>2026-08-02T13:11:56.000Z</time>
</trkpt>
<trkpt lat="46.4416332" lon="13.5632502">
<ele>1001.41</ele>
<time>2026-08-02T13:12:03.000Z</time>
</trkpt>
<trkpt lat="46.4416325" lon="13.5635308">
<ele>995.32</ele>
<time>2026-08-02T13:12:15.000Z</time>
</trkpt>
<trkpt lat="46.4415488" lon="13.5637813">
<ele>990.66</ele>
<time>2026-08-02T13:12:25.000Z</time>
</trkpt>
<trkpt lat="46.4414350" lon="13.5639877">
<ele>985.81</ele>
<time>2026-08-02T13:12:38.000Z</time>
</trkpt>
<trkpt lat="46.4412963" lon="13.5641751">
<ele>987.56</ele>
<time>2026-08-02T13:12:46.000Z</time>
</trkpt>
<trkpt lat="46.4412228" lon="13.5644162">
<ele>980.47</ele>
<time>2026-08-02T13:12:58.000Z</time>
</trkpt>
<trkpt lat="46.4413234" lon="13.5646490">
<ele>968.02</ele>
<time>2026-08-02T13:13:08.000Z</time>
</trkpt>
<trkpt lat="46.4413212" lon="13.5649295">
<ele>971.85</ele>
<time>2026-08-02T13:13:18.000Z</time>
</trkpt>
<trkpt lat="46.4411336" lon="13.5649484">
<ele>970.35</ele>
<time>2026-08-02T13:13:32.000Z</time>
</trkpt>
<trkpt lat="46.4411034" lon="13.5646898">
<ele>969.46</ele>
<time>2026-08-02T13:13:42.000Z</time>
</trkpt>
<trkpt lat="46.4410988" lon="13.5644059">
<ele>969.11</ele>
<time>2026-08-02T13:13:51.000Z</time>
</trkpt>
<trkpt lat="46.4411528" lon="13.5641457">
<ele>972.14</ele>
<time>2026-08-02T13:14:03.000Z</time>
</trkpt>
<trkpt lat="46.4412867" lon="13.5639396">
<ele>966.75</ele>
<time>2026-08-02T13:14:13.000Z</time>
</trkpt>
<trkpt lat="46.4413461" lon="13.5636688">
<ele>961.27</ele>
<time>2026-08-02T13:14:29.000Z</time>
</trkpt>
<trkpt lat="46.4413094" lon="13.5633994">
<ele>963.65</ele>
<time>2026-08-02T13:14:37.000Z</time>
</trkpt>
<trkpt lat="46.4412313" lon="13.5631589">
<ele>958.97</ele>
<time>2026-08-02T13:14:51.000Z</time>
</trkpt>
<trkpt lat="46.4412301" lon="13.5628808">
<ele>954.95</ele>
<time>2026-08-02T13:15:00.000Z</time>
</trkpt>
<trkpt lat="46.4412707" lon="13.5626115">
<ele>953.95</ele>
<time>2026-08-02T13:15:13.000Z</time>
</trkpt>
<trkpt lat="46.4410893" lon="13.5625498">
<ele>953.52</ele>
<time>2026-08-02T13:15:26.000Z</time>
</trkpt>
<trkpt lat="46.4410667" lon="13.5628185">
<ele>953.12</ele>
<time>2026-08-02T13:15:38.000Z</time>
</trkpt>
<trkpt lat="46.4410249" lon="13.5630769">
<ele>955.11</ele>
<time>2026-08-02T13:15:48.000Z</time>
</trkpt>
<trkpt lat="46.4409301" lon="13.5633042">
<ele>950.24</ele>
<time>2026-08-02T13:16:00.000Z</time>
</trkpt>
<trkpt lat="46.4407893" lon="13.5634814">
<ele>950.49</ele>
<time>2026-08-02T13:16:11.000Z</time>
</trkpt>
<trkpt lat="46.4406305" lon="13.5636043">
<ele>940.98</ele>
<time>2026-08-02T13:16:26.000Z</time>
</trkpt>
<trkpt lat="46.4404589" lon="13.5637409">
<ele>944.25</ele>
<time>2026-08-02T13:16:43.000Z</time>
</trkpt>
<trkpt lat="46.4402772" lon="13.5637860">
<ele>941.78</ele>
<time>2026-08-02T13:16:53.000Z</time>
</trkpt>
<trkpt lat="46.4401674" lon="13.5640114">
<ele>939.70</ele>
<time>2026-08-02T13:17:10.000Z</time>
</trkpt>
<trkpt lat="46.4401652" lon="13.5642995">
<ele>942.78</ele>
<time>2026-08-02T13:17:18.000Z</time>
</trkpt>
<trkpt lat="46.4401855" lon="13.5645602">
<ele>934.25</ele>
<time>2026-08-02T13:17:29.000Z</time>
</trkpt>
<trkpt lat="46.4401025" lon="13.5648008">
<ele>929.33</ele>
<time>2026-08-02T13:17:43.000Z</time>
</trkpt>
<trkpt lat="46.4400909" lon="13.5650624">
<ele>922.04</ele>
<time>2026-08-02T13:17:53.000Z</time>
</trkpt>
<trkpt lat="46.4401821" lon="13.5653018">
<ele>927.30</ele>
<time>2026-08-02T13:18:02.000Z</time>
</trkpt>
<trkpt lat="46.4402303" lon="13.5655730">
<ele>918.67</ele>
<time>2026-08-02T13:18:15.000Z</time>
</trkpt>
<trkpt lat="46.4402798" lon="13.5658443">
<ele>915.23</ele>
<time>2026-08-02T13:18:30.000Z</time>
</trkpt>
<trkpt lat="46.4403035" lon="13.5661272">
<ele>922.08</ele>
<time>2026-08-02T13:18:39.000Z</time>
</trkpt>
<trkpt lat="46.4402308" lon="13.5663833">
<ele>920.24</ele>
<time>2026-08-02T13:18:50.000Z</time>
</trkpt>
<trkpt lat="46.4401903" lon="13.5666438">
<ele>918.95</ele>
<time>2026-08-02T13:19:03.000Z</time>
</trkpt>
<trkpt lat="46.4401839" lon="13.5669195">
<ele>916.23</ele>
<time>2026-08-02T13:19:16.000Z</time>
</trkpt>
<trkpt lat="46.4401847" lon="13.5671829">
<ele>913.78</ele>
<time>2026-08-02T13:19:23.000Z</time>
</trkpt>
<trkpt lat="46.4401548" lon="13.5674409">
<ele>911.84</ele>
<time>2026-08-02T13:19:34.000Z</time>
</trkpt>
<trkpt lat="46.4402076" lon="13.5676975">
<ele>908.99</ele>
<time>2026-08-02T13:19:52.000Z</time>
</trkpt>
<trkpt lat="46.4402983" lon="13.5679327">
<ele>901.42</ele>
<time>2026-08-02T13:20:04.000Z</time>
</trkpt>
<trkpt lat="46.4404190" lon="13.5681388">
<ele>898.71</ele>
<time>2026-08-02T13:20:16.000Z</time>
</trkpt>
<trkpt lat="46.4405338" lon="13.5683473">
<ele>894.54</ele>
<time>2026-08-02T13:20:28.000Z</time>
</trkpt>
<trkpt lat="46.4406356" lon="13.5685675">
<ele>895.55</ele>
<time>2026-08-02T13:20:38.000Z</time>
</trkpt>
<trkpt lat="46.4407280" lon="13.5688036">
<ele>893.14</ele>
<time>2026-08-02T13:20:52.000Z</time>
</trkpt>
<trkpt lat="46.4408515" lon="13.5690244">
<ele>894.33</ele>
<time>2026-08-02T13:21:25.000Z</time>
</trkpt>
<trkpt lat="46.4409634" lon="13.5692327">
<ele>896.69</ele>
<time>2026-08-02T13:21:36.000Z</time>
</trkpt>
<trkpt lat="46.4410531" lon="13.5694621">
<ele>895.05</ele>
<time>2026-08-02T13:21:48.000Z</time>
</trkpt>
<trkpt lat="46.4412164" lon="13.5695892">
<ele>894.63</ele>
<time>2026-08-02T13:22:03.000Z</time>
</trkpt>
<trkpt lat="46.4413824" lon="13.5697075">
<ele>896.70</ele>
<time>2026-08-02T13:22:16.000Z</time>
</trkpt>
<trkpt lat="46.4415638" lon="13.5698225">
<ele>896.87</ele>
<time>2026-08-02T13:22:25.000Z</time>
</trkpt>
<trkpt lat="46.4417279" lon="13.5699441">
<ele>897.84</ele>
<time>2026-08-02T13:22:35.000Z</time>
</trkpt>
<trkpt lat="46.4418709" lon="13.5701305">
<ele>895.81</ele>
<time>2026-08-02T13:22:45.000Z</time>
</trkpt>
<trkpt lat="46.4420208" lon="13.5702940">
<ele>895.99</ele>
<time>2026-08-02T13:22:59.000Z</time>
</trkpt>
<trkpt lat="46.4421564" lon="13.5704699">
<ele>891.75</ele>
<time>2026-08-02T13:23:09.000Z</time>
</trkpt>
<trkpt lat="46.4421680" lon="13.5707363">
<ele>885.61</ele>
<time>2026-08-02T13:23:25.000Z</time>
</trkpt>
<trkpt lat="46.4420729" lon="13.5709691">
<ele>889.39</ele>
<time>2026-08-02T13:23:38.000Z</time>
</trkpt>
<trkpt lat="46.4420121" lon="13.5712208">
<ele>887.03</ele>
<time>2026-08-02T13:23:51.000Z</time>
</trkpt>
<trkpt lat="46.4420707" lon="13.5714778">
<ele>889.58</ele>
<time>2026-08-02T13:24:10.000Z</time>
</trkpt>
<trkpt lat="46.4419458" lon="13.5716751">
<ele>892.56</ele>
<time>2026-08-02T13:24:23.000Z</time>
</trkpt>
<extensions>
<om:oruxmapsextensions>
<om:ext type="NAME" subtype="0"><![CDATA[Segment: 1]]></om:ext>
</om:oruxmapsextensions>
</extensions>
</trkseg>
</trk>
</gpx>
