<?xml version="1.0" encoding="UTF-8" standalone="no" ?>
<gpx xmlns="http://www.topografix.com/GPX/1/1" creator="OruxMaps v.10.7.4 GP" version="1.1" xmlns:gpxtpx="http://www.garmin.com/xmlschemas/TrackPointExtension/v2" xmlns:xsi="http://www.w3.org/2001/XMLSchema-instance" xmlns:om="http://www.oruxmaps.com/oruxmapsextensions/1/0" xsi:schemaLocation="http://www.topografix.com/GPX/1/1 http://www.topografix.com/GPX/1/1/gpx.xsd">
<!-- owner: e57cf051988575 -->
<metadata>
<name><![CDATA[2026-08-09 05:58:26 Klečica, Debela peč, Debeli Vrh]]></name>
<link href="https://www.oruxmaps.com">
<text>OruxMaps GP</text>
</link>
<time>2026-08-09T03:58:26.353Z</time><bounds maxlat="46.4039630" maxlon="13.9640477" minlat="46.3658986" minlon="13.9089120"/>
</metadata>
<wpt lat="46.3659309" lon="13.9339190">
<ele>1374.81</ele>
<time>2026-08-09T03:58:26.970Z</time>
<name><![CDATA[]]></name>
<sym>Waypoint</sym>
<type>Starting Point</type>
<extensions>
<om:oruxmapsextensions>
<om:ext type="ICON" subtype="0">38</om:ext>
</om:oruxmapsextensions>
</extensions>
</wpt>
<wpt lat="46.3658986" lon="13.9341304">
<ele>1355.54</ele>
<time>2026-08-09T10:33:41.476Z</time>
<name><![CDATA[]]></name>
<desc><![CDATA[<p><br /><h3>Name: Segment: 1</h3><br />Type: Hiking<br/>Start time: 05:58 9 Aug 2026<br/>Finish time: 12:33 9 Aug 2026<br/>Distance: 18.1km (06:35)<br/>Moving time: 05:21<br/>Average speed: 2.75 km/h<br/>Speed in Movement: 3.38 km/h<br/>Maximum Speed: 10.22 km/h<br/>Minimum altitude: 1355 m<br/>Maximum altitude: 2005 m<br/>Ascent speed: 499.0 m/h<br/>Descent speed: 524.5 m/h<br/>Elevation gain: 1358 m<br/>Elevation loss: 1378 m<br/>Ascent time: 02:43<br/>Descent time: 02:37<br/></p>]]></desc>
<sym>Waypoint</sym>
<type>Finishing Point</type>
<extensions>
<om:oruxmapsextensions>
<om:ext type="ICON" subtype="0">15</om:ext>
</om:oruxmapsextensions>
</extensions>
</wpt>
<trk>
<name><![CDATA[2026-08-09 05:58:26 Klečica, Debela peč, Debeli Vrh]]></name>
<desc><![CDATA[<p>Type: Hiking<br/>Start time: 05:58 9 Aug 2026<br/>Finish time: 12:33 9 Aug 2026<br/>Distance: 18.1 km (06:35)<br/>Moving time: 05:21<br/>Average speed: 2.75 km/h<br/>Speed in Movement: 3.38 km/h<br/>Maximum Speed: 10.22 km/h<br/>Minimum altitude: 1355 m<br/>Maximum altitude: 2005 m<br/>Ascent speed: 499.0 m/h<br/>Descent speed: 524.5 m/h<br/>Elevation gain: 1358 m<br/>Elevation loss: 1378 m<br/>Ascent time: 02:43<br/>Descent time: 02:37<br/></p><hr align="center" width="480" style="height: 2px; width: 517px"/>]]></desc>
<type>Hiking</type>
<extensions>
<om:oruxmapsextensions>
<om:ext type="TYPE" subtype="0">5</om:ext>
<om:ext type="DIFFICULTY">0</om:ext>
</om:oruxmapsextensions>
</extensions>
<trkseg>
<trkpt lat="46.3659309" lon="13.9339190">
<ele>1374.81</ele>
<time>2026-08-09T03:58:27.000Z</time>
</trkpt>
<trkpt lat="46.3659897" lon="13.9341670">
<ele>1364.04</ele>
<time>2026-08-09T04:00:20.000Z</time>
</trkpt>
<trkpt lat="46.3661836" lon="13.9342092">
<ele>1359.14</ele>
<time>2026-08-09T04:00:56.000Z</time>
</trkpt>
<trkpt lat="46.3663750" lon="13.9342313">
<ele>1357.76</ele>
<time>2026-08-09T04:01:08.000Z</time>
</trkpt>
<trkpt lat="46.3665677" lon="13.9342137">
<ele>1365.27</ele>
<time>2026-08-09T04:01:40.000Z</time>
</trkpt>
<trkpt lat="46.3667430" lon="13.9341440">
<ele>1366.65</ele>
<time>2026-08-09T04:01:50.000Z</time>
</trkpt>
<trkpt lat="46.3669292" lon="13.9341367">
<ele>1362.98</ele>
<time>2026-08-09T04:02:00.000Z</time>
</trkpt>
<trkpt lat="46.3671148" lon="13.9341266">
<ele>1367.17</ele>
<time>2026-08-09T04:02:12.000Z</time>
</trkpt>
<trkpt lat="46.3673042" lon="13.9341120">
<ele>1366.98</ele>
<time>2026-08-09T04:02:25.000Z</time>
</trkpt>
<trkpt lat="46.3674800" lon="13.9341961">
<ele>1373.08</ele>
<time>2026-08-09T04:02:38.000Z</time>
</trkpt>
<trkpt lat="46.3676686" lon="13.9341596">
<ele>1383.09</ele>
<time>2026-08-09T04:02:55.000Z</time>
</trkpt>
<trkpt lat="46.3678540" lon="13.9341644">
<ele>1383.48</ele>
<time>2026-08-09T04:03:28.000Z</time>
</trkpt>
<trkpt lat="46.3680502" lon="13.9341769">
<ele>1391.95</ele>
<time>2026-08-09T04:03:41.000Z</time>
</trkpt>
<trkpt lat="46.3682263" lon="13.9342297">
<ele>1393.68</ele>
<time>2026-08-09T04:03:55.000Z</time>
</trkpt>
<trkpt lat="46.3684175" lon="13.9342374">
<ele>1396.76</ele>
<time>2026-08-09T04:04:15.000Z</time>
</trkpt>
<trkpt lat="46.3685981" lon="13.9342307">
<ele>1398.91</ele>
<time>2026-08-09T04:04:35.000Z</time>
</trkpt>
<trkpt lat="46.3687796" lon="13.9342494">
<ele>1404.97</ele>
<time>2026-08-09T04:05:00.000Z</time>
</trkpt>
<trkpt lat="46.3689381" lon="13.9341204">
<ele>1398.59</ele>
<time>2026-08-09T04:06:01.000Z</time>
</trkpt>
<trkpt lat="46.3691248" lon="13.9341750">
<ele>1393.60</ele>
<time>2026-08-09T04:06:10.000Z</time>
</trkpt>
<trkpt lat="46.3693153" lon="13.9341915">
<ele>1395.14</ele>
<time>2026-08-09T04:06:21.000Z</time>
</trkpt>
<trkpt lat="46.3694968" lon="13.9341047">
<ele>1400.37</ele>
<time>2026-08-09T04:06:34.000Z</time>
</trkpt>
<trkpt lat="46.3696368" lon="13.9339361">
<ele>1409.47</ele>
<time>2026-08-09T04:06:48.000Z</time>
</trkpt>
<trkpt lat="46.3698259" lon="13.9338614">
<ele>1406.51</ele>
<time>2026-08-09T04:07:41.000Z</time>
</trkpt>
<trkpt lat="46.3700106" lon="13.9339119">
<ele>1411.93</ele>
<time>2026-08-09T04:07:55.000Z</time>
</trkpt>
<trkpt lat="46.3701627" lon="13.9340541">
<ele>1421.20</ele>
<time>2026-08-09T04:08:12.000Z</time>
</trkpt>
<trkpt lat="46.3703485" lon="13.9340709">
<ele>1426.34</ele>
<time>2026-08-09T04:08:27.000Z</time>
</trkpt>
<trkpt lat="46.3705170" lon="13.9342021">
<ele>1440.86</ele>
<time>2026-08-09T04:08:51.000Z</time>
</trkpt>
<trkpt lat="46.3706629" lon="13.9340430">
<ele>1441.09</ele>
<time>2026-08-09T04:09:07.000Z</time>
</trkpt>
<trkpt lat="46.3708469" lon="13.9340338">
<ele>1444.73</ele>
<time>2026-08-09T04:09:27.000Z</time>
</trkpt>
<trkpt lat="46.3710362" lon="13.9339872">
<ele>1451.78</ele>
<time>2026-08-09T04:09:40.000Z</time>
</trkpt>
<trkpt lat="46.3712318" lon="13.9339938">
<ele>1452.17</ele>
<time>2026-08-09T04:09:56.000Z</time>
</trkpt>
<trkpt lat="46.3713823" lon="13.9338360">
<ele>1448.07</ele>
<time>2026-08-09T04:10:10.000Z</time>
</trkpt>
<trkpt lat="46.3715567" lon="13.9337143">
<ele>1453.00</ele>
<time>2026-08-09T04:10:28.000Z</time>
</trkpt>
<trkpt lat="46.3717465" lon="13.9336872">
<ele>1455.65</ele>
<time>2026-08-09T04:11:09.000Z</time>
</trkpt>
<trkpt lat="46.3719285" lon="13.9336218">
<ele>1462.53</ele>
<time>2026-08-09T04:11:22.000Z</time>
</trkpt>
<trkpt lat="46.3721097" lon="13.9336708">
<ele>1467.19</ele>
<time>2026-08-09T04:11:35.000Z</time>
</trkpt>
<trkpt lat="46.3722916" lon="13.9336818">
<ele>1462.11</ele>
<time>2026-08-09T04:11:50.000Z</time>
</trkpt>
<trkpt lat="46.3724790" lon="13.9336566">
<ele>1466.94</ele>
<time>2026-08-09T04:12:30.000Z</time>
</trkpt>
<trkpt lat="46.3726379" lon="13.9335051">
<ele>1473.09</ele>
<time>2026-08-09T04:12:42.000Z</time>
</trkpt>
<trkpt lat="46.3727819" lon="13.9333386">
<ele>1478.78</ele>
<time>2026-08-09T04:13:02.000Z</time>
</trkpt>
<trkpt lat="46.3729039" lon="13.9331307">
<ele>1485.57</ele>
<time>2026-08-09T04:13:47.000Z</time>
</trkpt>
<trkpt lat="46.3729971" lon="13.9328962">
<ele>1483.86</ele>
<time>2026-08-09T04:14:23.000Z</time>
</trkpt>
<trkpt lat="46.3731198" lon="13.9327022">
<ele>1497.67</ele>
<time>2026-08-09T04:14:59.000Z</time>
</trkpt>
<trkpt lat="46.3732130" lon="13.9324770">
<ele>1510.48</ele>
<time>2026-08-09T04:15:26.000Z</time>
</trkpt>
<trkpt lat="46.3733220" lon="13.9322650">
<ele>1521.01</ele>
<time>2026-08-09T04:15:53.000Z</time>
</trkpt>
<trkpt lat="46.3734849" lon="13.9321381">
<ele>1531.82</ele>
<time>2026-08-09T04:16:19.000Z</time>
</trkpt>
<trkpt lat="46.3735884" lon="13.9319225">
<ele>1536.30</ele>
<time>2026-08-09T04:16:33.000Z</time>
</trkpt>
<trkpt lat="46.3737565" lon="13.9318180">
<ele>1545.38</ele>
<time>2026-08-09T04:16:52.000Z</time>
</trkpt>
<trkpt lat="46.3739329" lon="13.9317305">
<ele>1548.09</ele>
<time>2026-08-09T04:17:07.000Z</time>
</trkpt>
<trkpt lat="46.3741095" lon="13.9316368">
<ele>1553.08</ele>
<time>2026-08-09T04:17:22.000Z</time>
</trkpt>
<trkpt lat="46.3742870" lon="13.9315529">
<ele>1563.56</ele>
<time>2026-08-09T04:17:36.000Z</time>
</trkpt>
<trkpt lat="46.3744580" lon="13.9314466">
<ele>1569.53</ele>
<time>2026-08-09T04:17:50.000Z</time>
</trkpt>
<trkpt lat="46.3745891" lon="13.9312653">
<ele>1571.45</ele>
<time>2026-08-09T04:17:57.000Z</time>
</trkpt>
<trkpt lat="46.3747263" lon="13.9310877">
<ele>1570.68</ele>
<time>2026-08-09T04:18:09.000Z</time>
</trkpt>
<trkpt lat="46.3747761" lon="13.9308268">
<ele>1570.81</ele>
<time>2026-08-09T04:18:23.000Z</time>
</trkpt>
<trkpt lat="46.3748190" lon="13.9305639">
<ele>1574.60</ele>
<time>2026-08-09T04:18:37.000Z</time>
</trkpt>
<trkpt lat="46.3749347" lon="13.9303629">
<ele>1572.05</ele>
<time>2026-08-09T04:18:49.000Z</time>
</trkpt>
<trkpt lat="46.3748969" lon="13.9300975">
<ele>1574.82</ele>
<time>2026-08-09T04:19:03.000Z</time>
</trkpt>
<trkpt lat="46.3748261" lon="13.9298476">
<ele>1578.80</ele>
<time>2026-08-09T04:19:15.000Z</time>
</trkpt>
<trkpt lat="46.3748402" lon="13.9295663">
<ele>1579.73</ele>
<time>2026-08-09T04:19:30.000Z</time>
</trkpt>
<trkpt lat="46.3748049" lon="13.9292936">
<ele>1583.45</ele>
<time>2026-08-09T04:19:42.000Z</time>
</trkpt>
<trkpt lat="46.3746376" lon="13.9291522">
<ele>1584.24</ele>
<time>2026-08-09T04:20:03.000Z</time>
</trkpt>
<trkpt lat="46.3744451" lon="13.9291617">
<ele>1587.61</ele>
<time>2026-08-09T04:20:17.000Z</time>
</trkpt>
<trkpt lat="46.3742713" lon="13.9290739">
<ele>1590.08</ele>
<time>2026-08-09T04:20:27.000Z</time>
</trkpt>
<trkpt lat="46.3740871" lon="13.9290329">
<ele>1593.08</ele>
<time>2026-08-09T04:20:43.000Z</time>
</trkpt>
<trkpt lat="46.3742608" lon="13.9289362">
<ele>1610.97</ele>
<time>2026-08-09T04:21:17.000Z</time>
</trkpt>
<trkpt lat="46.3744420" lon="13.9287814">
<ele>1610.15</ele>
<time>2026-08-09T04:21:24.000Z</time>
</trkpt>
<trkpt lat="46.3746059" lon="13.9286540">
<ele>1610.39</ele>
<time>2026-08-09T04:21:36.000Z</time>
</trkpt>
<trkpt lat="46.3747907" lon="13.9286162">
<ele>1610.50</ele>
<time>2026-08-09T04:21:50.000Z</time>
</trkpt>
<trkpt lat="46.3749599" lon="13.9284828">
<ele>1615.77</ele>
<time>2026-08-09T04:22:08.000Z</time>
</trkpt>
<trkpt lat="46.3751331" lon="13.9284119">
<ele>1618.79</ele>
<time>2026-08-09T04:22:21.000Z</time>
</trkpt>
<trkpt lat="46.3752757" lon="13.9285880">
<ele>1620.10</ele>
<time>2026-08-09T04:22:54.000Z</time>
</trkpt>
<trkpt lat="46.3754588" lon="13.9285970">
<ele>1624.28</ele>
<time>2026-08-09T04:23:11.000Z</time>
</trkpt>
<trkpt lat="46.3755364" lon="13.9288465">
<ele>1628.25</ele>
<time>2026-08-09T04:23:48.000Z</time>
</trkpt>
<trkpt lat="46.3756697" lon="13.9290343">
<ele>1626.57</ele>
<time>2026-08-09T04:24:00.000Z</time>
</trkpt>
<trkpt lat="46.3757268" lon="13.9292912">
<ele>1628.96</ele>
<time>2026-08-09T04:24:24.000Z</time>
</trkpt>
<trkpt lat="46.3757206" lon="13.9295672">
<ele>1632.06</ele>
<time>2026-08-09T04:24:42.000Z</time>
</trkpt>
<trkpt lat="46.3757763" lon="13.9298155">
<ele>1639.12</ele>
<time>2026-08-09T04:24:54.000Z</time>
</trkpt>
<trkpt lat="46.3758200" lon="13.9300871">
<ele>1642.85</ele>
<time>2026-08-09T04:25:08.000Z</time>
</trkpt>
<trkpt lat="46.3759242" lon="13.9303098">
<ele>1645.86</ele>
<time>2026-08-09T04:25:35.000Z</time>
</trkpt>
<trkpt lat="46.3759928" lon="13.9305607">
<ele>1648.35</ele>
<time>2026-08-09T04:25:55.000Z</time>
</trkpt>
<trkpt lat="46.3759972" lon="13.9308241">
<ele>1652.68</ele>
<time>2026-08-09T04:26:11.000Z</time>
</trkpt>
<trkpt lat="46.3759305" lon="13.9310677">
<ele>1655.89</ele>
<time>2026-08-09T04:26:32.000Z</time>
</trkpt>
<trkpt lat="46.3759349" lon="13.9313366">
<ele>1652.86</ele>
<time>2026-08-09T04:26:51.000Z</time>
</trkpt>
<trkpt lat="46.3759557" lon="13.9315992">
<ele>1657.47</ele>
<time>2026-08-09T04:27:10.000Z</time>
</trkpt>
<trkpt lat="46.3761174" lon="13.9317291">
<ele>1670.70</ele>
<time>2026-08-09T04:27:33.000Z</time>
</trkpt>
<trkpt lat="46.3763010" lon="13.9318083">
<ele>1670.67</ele>
<time>2026-08-09T04:27:59.000Z</time>
</trkpt>
<trkpt lat="46.3764026" lon="13.9320298">
<ele>1670.71</ele>
<time>2026-08-09T04:28:16.000Z</time>
</trkpt>
<trkpt lat="46.3765171" lon="13.9322354">
<ele>1686.35</ele>
<time>2026-08-09T04:28:32.000Z</time>
</trkpt>
<trkpt lat="46.3767085" lon="13.9322089">
<ele>1688.91</ele>
<time>2026-08-09T04:29:12.000Z</time>
</trkpt>
<trkpt lat="46.3768526" lon="13.9320306">
<ele>1693.01</ele>
<time>2026-08-09T04:29:50.000Z</time>
</trkpt>
<trkpt lat="46.3770295" lon="13.9319675">
<ele>1699.23</ele>
<time>2026-08-09T04:30:13.000Z</time>
</trkpt>
<trkpt lat="46.3772126" lon="13.9319839">
<ele>1703.13</ele>
<time>2026-08-09T04:30:44.000Z</time>
</trkpt>
<trkpt lat="46.3772912" lon="13.9317320">
<ele>1705.64</ele>
<time>2026-08-09T04:31:01.000Z</time>
</trkpt>
<trkpt lat="46.3773971" lon="13.9315172">
<ele>1712.29</ele>
<time>2026-08-09T04:31:21.000Z</time>
</trkpt>
<trkpt lat="46.3774932" lon="13.9312845">
<ele>1717.47</ele>
<time>2026-08-09T04:31:42.000Z</time>
</trkpt>
<trkpt lat="46.3775680" lon="13.9315318">
<ele>1722.01</ele>
<time>2026-08-09T04:32:22.000Z</time>
</trkpt>
<trkpt lat="46.3776710" lon="13.9317531">
<ele>1729.12</ele>
<time>2026-08-09T04:33:31.000Z</time>
</trkpt>
<trkpt lat="46.3778394" lon="13.9318916">
<ele>1729.50</ele>
<time>2026-08-09T04:34:10.000Z</time>
</trkpt>
<trkpt lat="46.3779740" lon="13.9320682">
<ele>1739.05</ele>
<time>2026-08-09T04:34:45.000Z</time>
</trkpt>
<trkpt lat="46.3781559" lon="13.9321079">
<ele>1745.72</ele>
<time>2026-08-09T04:35:00.000Z</time>
</trkpt>
<trkpt lat="46.3783283" lon="13.9321911">
<ele>1749.06</ele>
<time>2026-08-09T04:35:12.000Z</time>
</trkpt>
<trkpt lat="46.3785218" lon="13.9321841">
<ele>1752.87</ele>
<time>2026-08-09T04:35:31.000Z</time>
</trkpt>
<trkpt lat="46.3787088" lon="13.9321820">
<ele>1757.30</ele>
<time>2026-08-09T04:35:45.000Z</time>
</trkpt>
<trkpt lat="46.3788829" lon="13.9320834">
<ele>1760.13</ele>
<time>2026-08-09T04:35:59.000Z</time>
</trkpt>
<trkpt lat="46.3790595" lon="13.9321546">
<ele>1760.51</ele>
<time>2026-08-09T04:36:13.000Z</time>
</trkpt>
<trkpt lat="46.3792493" lon="13.9321503">
<ele>1762.75</ele>
<time>2026-08-09T04:36:35.000Z</time>
</trkpt>
<trkpt lat="46.3794366" lon="13.9321851">
<ele>1761.58</ele>
<time>2026-08-09T04:37:08.000Z</time>
</trkpt>
<trkpt lat="46.3795595" lon="13.9324012">
<ele>1761.69</ele>
<time>2026-08-09T04:37:23.000Z</time>
</trkpt>
<trkpt lat="46.3797200" lon="13.9325471">
<ele>1761.61</ele>
<time>2026-08-09T04:37:38.000Z</time>
</trkpt>
<trkpt lat="46.3798805" lon="13.9326892">
<ele>1763.06</ele>
<time>2026-08-09T04:37:55.000Z</time>
</trkpt>
<trkpt lat="46.3800367" lon="13.9328332">
<ele>1762.48</ele>
<time>2026-08-09T04:38:12.000Z</time>
</trkpt>
<trkpt lat="46.3801908" lon="13.9329797">
<ele>1767.77</ele>
<time>2026-08-09T04:38:40.000Z</time>
</trkpt>
<trkpt lat="46.3803550" lon="13.9330933">
<ele>1771.46</ele>
<time>2026-08-09T04:38:57.000Z</time>
</trkpt>
<trkpt lat="46.3804994" lon="13.9332530">
<ele>1773.50</ele>
<time>2026-08-09T04:39:20.000Z</time>
</trkpt>
<trkpt lat="46.3806856" lon="13.9333054">
<ele>1781.25</ele>
<time>2026-08-09T04:39:44.000Z</time>
</trkpt>
<trkpt lat="46.3808306" lon="13.9334632">
<ele>1787.61</ele>
<time>2026-08-09T04:40:00.000Z</time>
</trkpt>
<trkpt lat="46.3809838" lon="13.9336144">
<ele>1786.64</ele>
<time>2026-08-09T04:40:18.000Z</time>
</trkpt>
<trkpt lat="46.3811685" lon="13.9336664">
<ele>1788.26</ele>
<time>2026-08-09T04:40:35.000Z</time>
</trkpt>
<trkpt lat="46.3813475" lon="13.9337009">
<ele>1787.23</ele>
<time>2026-08-09T04:40:51.000Z</time>
</trkpt>
<trkpt lat="46.3815315" lon="13.9336679">
<ele>1786.13</ele>
<time>2026-08-09T04:41:09.000Z</time>
</trkpt>
<trkpt lat="46.3817151" lon="13.9335877">
<ele>1788.04</ele>
<time>2026-08-09T04:41:32.000Z</time>
</trkpt>
<trkpt lat="46.3818781" lon="13.9334495">
<ele>1793.57</ele>
<time>2026-08-09T04:41:50.000Z</time>
</trkpt>
<trkpt lat="46.3819525" lon="13.9332056">
<ele>1794.26</ele>
<time>2026-08-09T04:42:06.000Z</time>
</trkpt>
<trkpt lat="46.3818503" lon="13.9334326">
<ele>1794.90</ele>
<time>2026-08-09T04:43:13.000Z</time>
</trkpt>
<trkpt lat="46.3820241" lon="13.9333562">
<ele>1783.00</ele>
<time>2026-08-09T04:43:41.000Z</time>
</trkpt>
<trkpt lat="46.3821982" lon="13.9334373">
<ele>1774.61</ele>
<time>2026-08-09T04:44:02.000Z</time>
</trkpt>
<trkpt lat="46.3823844" lon="13.9335190">
<ele>1769.67</ele>
<time>2026-08-09T04:44:18.000Z</time>
</trkpt>
<trkpt lat="46.3825540" lon="13.9333832">
<ele>1769.49</ele>
<time>2026-08-09T04:44:35.000Z</time>
</trkpt>
<trkpt lat="46.3827374" lon="13.9333749">
<ele>1765.06</ele>
<time>2026-08-09T04:44:49.000Z</time>
</trkpt>
<trkpt lat="46.3829236" lon="13.9333933">
<ele>1760.47</ele>
<time>2026-08-09T04:45:02.000Z</time>
</trkpt>
<trkpt lat="46.3831069" lon="13.9333422">
<ele>1761.28</ele>
<time>2026-08-09T04:45:35.000Z</time>
</trkpt>
<trkpt lat="46.3832936" lon="13.9333891">
<ele>1760.62</ele>
<time>2026-08-09T04:45:51.000Z</time>
</trkpt>
<trkpt lat="46.3834302" lon="13.9335748">
<ele>1760.24</ele>
<time>2026-08-09T04:46:11.000Z</time>
</trkpt>
<trkpt lat="46.3836029" lon="13.9336817">
<ele>1757.08</ele>
<time>2026-08-09T04:46:28.000Z</time>
</trkpt>
<trkpt lat="46.3837312" lon="13.9338801">
<ele>1755.55</ele>
<time>2026-08-09T04:46:44.000Z</time>
</trkpt>
<trkpt lat="46.3838146" lon="13.9341236">
<ele>1753.45</ele>
<time>2026-08-09T04:47:03.000Z</time>
</trkpt>
<trkpt lat="46.3839556" lon="13.9342986">
<ele>1748.36</ele>
<time>2026-08-09T04:47:25.000Z</time>
</trkpt>
<trkpt lat="46.3840886" lon="13.9344781">
<ele>1746.42</ele>
<time>2026-08-09T04:47:41.000Z</time>
</trkpt>
<trkpt lat="46.3842500" lon="13.9346069">
<ele>1739.30</ele>
<time>2026-08-09T04:47:57.000Z</time>
</trkpt>
<trkpt lat="46.3844385" lon="13.9345853">
<ele>1736.87</ele>
<time>2026-08-09T04:48:10.000Z</time>
</trkpt>
<trkpt lat="46.3846125" lon="13.9346848">
<ele>1731.91</ele>
<time>2026-08-09T04:48:26.000Z</time>
</trkpt>
<trkpt lat="46.3847391" lon="13.9348831">
<ele>1729.90</ele>
<time>2026-08-09T04:48:42.000Z</time>
</trkpt>
<trkpt lat="46.3847880" lon="13.9351608">
<ele>1728.16</ele>
<time>2026-08-09T04:49:02.000Z</time>
</trkpt>
<trkpt lat="46.3848930" lon="13.9353802">
<ele>1723.92</ele>
<time>2026-08-09T04:49:20.000Z</time>
</trkpt>
<trkpt lat="46.3849089" lon="13.9356623">
<ele>1721.52</ele>
<time>2026-08-09T04:49:35.000Z</time>
</trkpt>
<trkpt lat="46.3850167" lon="13.9358745">
<ele>1722.70</ele>
<time>2026-08-09T04:49:52.000Z</time>
</trkpt>
<trkpt lat="46.3851690" lon="13.9360365">
<ele>1719.87</ele>
<time>2026-08-09T04:50:11.000Z</time>
</trkpt>
<trkpt lat="46.3853517" lon="13.9361027">
<ele>1713.69</ele>
<time>2026-08-09T04:50:24.000Z</time>
</trkpt>
<trkpt lat="46.3854124" lon="13.9363489">
<ele>1713.12</ele>
<time>2026-08-09T04:50:40.000Z</time>
</trkpt>
<trkpt lat="46.3855925" lon="13.9364331">
<ele>1709.24</ele>
<time>2026-08-09T04:51:00.000Z</time>
</trkpt>
<trkpt lat="46.3857762" lon="13.9364472">
<ele>1709.37</ele>
<time>2026-08-09T04:51:18.000Z</time>
</trkpt>
<trkpt lat="46.3859410" lon="13.9363348">
<ele>1711.68</ele>
<time>2026-08-09T04:51:36.000Z</time>
</trkpt>
<trkpt lat="46.3861288" lon="13.9363449">
<ele>1719.72</ele>
<time>2026-08-09T04:52:02.000Z</time>
</trkpt>
<trkpt lat="46.3862743" lon="13.9365125">
<ele>1719.72</ele>
<time>2026-08-09T04:53:14.000Z</time>
</trkpt>
<trkpt lat="46.3864148" lon="13.9366854">
<ele>1723.45</ele>
<time>2026-08-09T04:53:38.000Z</time>
</trkpt>
<trkpt lat="46.3865504" lon="13.9368760">
<ele>1722.25</ele>
<time>2026-08-09T04:53:51.000Z</time>
</trkpt>
<trkpt lat="46.3867213" lon="13.9369718">
<ele>1721.42</ele>
<time>2026-08-09T04:54:06.000Z</time>
</trkpt>
<trkpt lat="46.3869055" lon="13.9369062">
<ele>1719.76</ele>
<time>2026-08-09T04:54:23.000Z</time>
</trkpt>
<trkpt lat="46.3870857" lon="13.9369875">
<ele>1717.00</ele>
<time>2026-08-09T04:54:39.000Z</time>
</trkpt>
<trkpt lat="46.3872678" lon="13.9370056">
<ele>1717.95</ele>
<time>2026-08-09T04:54:56.000Z</time>
</trkpt>
<trkpt lat="46.3874460" lon="13.9371231">
<ele>1715.75</ele>
<time>2026-08-09T04:55:11.000Z</time>
</trkpt>
<trkpt lat="46.3875837" lon="13.9373193">
<ele>1716.74</ele>
<time>2026-08-09T04:55:26.000Z</time>
</trkpt>
<trkpt lat="46.3877325" lon="13.9374680">
<ele>1721.72</ele>
<time>2026-08-09T04:55:37.000Z</time>
</trkpt>
<trkpt lat="46.3879007" lon="13.9375846">
<ele>1722.45</ele>
<time>2026-08-09T04:55:52.000Z</time>
</trkpt>
<trkpt lat="46.3880849" lon="13.9376254">
<ele>1725.50</ele>
<time>2026-08-09T04:56:08.000Z</time>
</trkpt>
<trkpt lat="46.3882613" lon="13.9375570">
<ele>1725.89</ele>
<time>2026-08-09T04:56:26.000Z</time>
</trkpt>
<trkpt lat="46.3884353" lon="13.9376540">
<ele>1731.77</ele>
<time>2026-08-09T04:56:47.000Z</time>
</trkpt>
<trkpt lat="46.3885677" lon="13.9378352">
<ele>1734.35</ele>
<time>2026-08-09T04:57:03.000Z</time>
</trkpt>
<trkpt lat="46.3887354" lon="13.9379736">
<ele>1735.24</ele>
<time>2026-08-09T04:57:19.000Z</time>
</trkpt>
<trkpt lat="46.3889148" lon="13.9380359">
<ele>1728.74</ele>
<time>2026-08-09T04:57:33.000Z</time>
</trkpt>
<trkpt lat="46.3889733" lon="13.9382953">
<ele>1728.81</ele>
<time>2026-08-09T04:57:46.000Z</time>
</trkpt>
<trkpt lat="46.3890182" lon="13.9385577">
<ele>1728.98</ele>
<time>2026-08-09T04:58:04.000Z</time>
</trkpt>
<trkpt lat="46.3890096" lon="13.9388239">
<ele>1726.47</ele>
<time>2026-08-09T04:58:22.000Z</time>
</trkpt>
<trkpt lat="46.3890348" lon="13.9390956">
<ele>1721.28</ele>
<time>2026-08-09T04:58:35.000Z</time>
</trkpt>
<trkpt lat="46.3890283" lon="13.9393618">
<ele>1713.85</ele>
<time>2026-08-09T04:58:53.000Z</time>
</trkpt>
<trkpt lat="46.3891496" lon="13.9395555">
<ele>1715.33</ele>
<time>2026-08-09T04:59:12.000Z</time>
</trkpt>
<trkpt lat="46.3892257" lon="13.9398019">
<ele>1710.69</ele>
<time>2026-08-09T04:59:28.000Z</time>
</trkpt>
<trkpt lat="46.3892648" lon="13.9400635">
<ele>1709.79</ele>
<time>2026-08-09T04:59:38.000Z</time>
</trkpt>
<trkpt lat="46.3894211" lon="13.9402242">
<ele>1704.99</ele>
<time>2026-08-09T04:59:53.000Z</time>
</trkpt>
<trkpt lat="46.3894838" lon="13.9404732">
<ele>1705.30</ele>
<time>2026-08-09T05:00:07.000Z</time>
</trkpt>
<trkpt lat="46.3895510" lon="13.9407216">
<ele>1703.70</ele>
<time>2026-08-09T05:00:17.000Z</time>
</trkpt>
<trkpt lat="46.3896299" lon="13.9409623">
<ele>1698.56</ele>
<time>2026-08-09T05:00:35.000Z</time>
</trkpt>
<trkpt lat="46.3897068" lon="13.9412034">
<ele>1695.78</ele>
<time>2026-08-09T05:00:55.000Z</time>
</trkpt>
<trkpt lat="46.3897312" lon="13.9414887">
<ele>1697.98</ele>
<time>2026-08-09T05:01:02.000Z</time>
</trkpt>
<trkpt lat="46.3898101" lon="13.9417249">
<ele>1697.48</ele>
<time>2026-08-09T05:01:12.000Z</time>
</trkpt>
<trkpt lat="46.3899148" lon="13.9419572">
<ele>1697.53</ele>
<time>2026-08-09T05:01:22.000Z</time>
</trkpt>
<trkpt lat="46.3900337" lon="13.9421629">
<ele>1699.03</ele>
<time>2026-08-09T05:01:36.000Z</time>
</trkpt>
<trkpt lat="46.3901660" lon="13.9423447">
<ele>1690.10</ele>
<time>2026-08-09T05:01:51.000Z</time>
</trkpt>
<trkpt lat="46.3902636" lon="13.9425707">
<ele>1690.00</ele>
<time>2026-08-09T05:02:05.000Z</time>
</trkpt>
<trkpt lat="46.3902730" lon="13.9428453">
<ele>1685.86</ele>
<time>2026-08-09T05:02:25.000Z</time>
</trkpt>
<trkpt lat="46.3903048" lon="13.9431185">
<ele>1684.41</ele>
<time>2026-08-09T05:02:37.000Z</time>
</trkpt>
<trkpt lat="46.3904023" lon="13.9433409">
<ele>1681.69</ele>
<time>2026-08-09T05:02:51.000Z</time>
</trkpt>
<trkpt lat="46.3904692" lon="13.9435867">
<ele>1681.64</ele>
<time>2026-08-09T05:03:03.000Z</time>
</trkpt>
<trkpt lat="46.3904908" lon="13.9438535">
<ele>1680.23</ele>
<time>2026-08-09T05:03:26.000Z</time>
</trkpt>
<trkpt lat="46.3905988" lon="13.9440656">
<ele>1677.57</ele>
<time>2026-08-09T05:04:30.000Z</time>
</trkpt>
<trkpt lat="46.3907039" lon="13.9442884">
<ele>1680.26</ele>
<time>2026-08-09T05:05:35.000Z</time>
</trkpt>
<trkpt lat="46.3907666" lon="13.9445549">
<ele>1680.87</ele>
<time>2026-08-09T05:05:49.000Z</time>
</trkpt>
<trkpt lat="46.3907675" lon="13.9448169">
<ele>1682.81</ele>
<time>2026-08-09T05:06:02.000Z</time>
</trkpt>
<trkpt lat="46.3908803" lon="13.9450306">
<ele>1681.05</ele>
<time>2026-08-09T05:06:16.000Z</time>
</trkpt>
<trkpt lat="46.3909692" lon="13.9452634">
<ele>1676.03</ele>
<time>2026-08-09T05:06:29.000Z</time>
</trkpt>
<trkpt lat="46.3911539" lon="13.9452234">
<ele>1665.83</ele>
<time>2026-08-09T05:06:44.000Z</time>
</trkpt>
<trkpt lat="46.3912723" lon="13.9454243">
<ele>1664.97</ele>
<time>2026-08-09T05:06:57.000Z</time>
</trkpt>
<trkpt lat="46.3914376" lon="13.9455345">
<ele>1668.02</ele>
<time>2026-08-09T05:07:18.000Z</time>
</trkpt>
<trkpt lat="46.3914998" lon="13.9457881">
<ele>1669.53</ele>
<time>2026-08-09T05:07:31.000Z</time>
</trkpt>
<trkpt lat="46.3916057" lon="13.9460086">
<ele>1669.03</ele>
<time>2026-08-09T05:07:47.000Z</time>
</trkpt>
<trkpt lat="46.3916407" lon="13.9462658">
<ele>1666.46</ele>
<time>2026-08-09T05:08:00.000Z</time>
</trkpt>
<trkpt lat="46.3917353" lon="13.9465002">
<ele>1668.67</ele>
<time>2026-08-09T05:08:13.000Z</time>
</trkpt>
<trkpt lat="46.3918581" lon="13.9466981">
<ele>1668.38</ele>
<time>2026-08-09T05:08:30.000Z</time>
</trkpt>
<trkpt lat="46.3918326" lon="13.9469639">
<ele>1661.55</ele>
<time>2026-08-09T05:08:48.000Z</time>
</trkpt>
<trkpt lat="46.3917817" lon="13.9472366">
<ele>1655.53</ele>
<time>2026-08-09T05:09:12.000Z</time>
</trkpt>
<trkpt lat="46.3917337" lon="13.9474913">
<ele>1654.72</ele>
<time>2026-08-09T05:09:26.000Z</time>
</trkpt>
<trkpt lat="46.3916787" lon="13.9477424">
<ele>1653.86</ele>
<time>2026-08-09T05:09:42.000Z</time>
</trkpt>
<trkpt lat="46.3916990" lon="13.9480101">
<ele>1651.13</ele>
<time>2026-08-09T05:09:55.000Z</time>
</trkpt>
<trkpt lat="46.3917265" lon="13.9482705">
<ele>1651.18</ele>
<time>2026-08-09T05:10:09.000Z</time>
</trkpt>
<trkpt lat="46.3917610" lon="13.9485316">
<ele>1646.24</ele>
<time>2026-08-09T05:10:22.000Z</time>
</trkpt>
<trkpt lat="46.3917607" lon="13.9488071">
<ele>1643.25</ele>
<time>2026-08-09T05:10:35.000Z</time>
</trkpt>
<trkpt lat="46.3919067" lon="13.9489601">
<ele>1637.54</ele>
<time>2026-08-09T05:11:01.000Z</time>
</trkpt>
<trkpt lat="46.3920526" lon="13.9491204">
<ele>1633.59</ele>
<time>2026-08-09T05:11:18.000Z</time>
</trkpt>
<trkpt lat="46.3921392" lon="13.9493553">
<ele>1631.50</ele>
<time>2026-08-09T05:11:34.000Z</time>
</trkpt>
<trkpt lat="46.3922837" lon="13.9495224">
<ele>1629.73</ele>
<time>2026-08-09T05:11:53.000Z</time>
</trkpt>
<trkpt lat="46.3924022" lon="13.9497271">
<ele>1639.00</ele>
<time>2026-08-09T05:12:17.000Z</time>
</trkpt>
<trkpt lat="46.3924637" lon="13.9499723">
<ele>1637.54</ele>
<time>2026-08-09T05:12:41.000Z</time>
</trkpt>
<trkpt lat="46.3925152" lon="13.9502393">
<ele>1634.75</ele>
<time>2026-08-09T05:12:55.000Z</time>
</trkpt>
<trkpt lat="46.3926812" lon="13.9503597">
<ele>1633.14</ele>
<time>2026-08-09T05:13:10.000Z</time>
</trkpt>
<trkpt lat="46.3928016" lon="13.9505611">
<ele>1636.05</ele>
<time>2026-08-09T05:13:26.000Z</time>
</trkpt>
<trkpt lat="46.3929829" lon="13.9506093">
<ele>1633.59</ele>
<time>2026-08-09T05:13:45.000Z</time>
</trkpt>
<trkpt lat="46.3931400" lon="13.9507377">
<ele>1633.58</ele>
<time>2026-08-09T05:13:59.000Z</time>
</trkpt>
<trkpt lat="46.3931770" lon="13.9510089">
<ele>1632.76</ele>
<time>2026-08-09T05:14:16.000Z</time>
</trkpt>
<trkpt lat="46.3933409" lon="13.9511270">
<ele>1622.64</ele>
<time>2026-08-09T05:14:35.000Z</time>
</trkpt>
<trkpt lat="46.3934357" lon="13.9513489">
<ele>1619.28</ele>
<time>2026-08-09T05:14:54.000Z</time>
</trkpt>
<trkpt lat="46.3934262" lon="13.9516180">
<ele>1616.25</ele>
<time>2026-08-09T05:15:12.000Z</time>
</trkpt>
<trkpt lat="46.3934851" lon="13.9518722">
<ele>1619.31</ele>
<time>2026-08-09T05:15:31.000Z</time>
</trkpt>
<trkpt lat="46.3936081" lon="13.9520723">
<ele>1616.32</ele>
<time>2026-08-09T05:15:47.000Z</time>
</trkpt>
<trkpt lat="46.3935826" lon="13.9523416">
<ele>1615.11</ele>
<time>2026-08-09T05:16:02.000Z</time>
</trkpt>
<trkpt lat="46.3936207" lon="13.9526086">
<ele>1614.17</ele>
<time>2026-08-09T05:16:16.000Z</time>
</trkpt>
<trkpt lat="46.3937309" lon="13.9528297">
<ele>1611.64</ele>
<time>2026-08-09T05:16:31.000Z</time>
</trkpt>
<trkpt lat="46.3937559" lon="13.9530906">
<ele>1611.98</ele>
<time>2026-08-09T05:16:42.000Z</time>
</trkpt>
<trkpt lat="46.3939128" lon="13.9532268">
<ele>1607.02</ele>
<time>2026-08-09T05:16:58.000Z</time>
</trkpt>
<trkpt lat="46.3940935" lon="13.9533171">
<ele>1601.79</ele>
<time>2026-08-09T05:17:13.000Z</time>
</trkpt>
<trkpt lat="46.3941483" lon="13.9535759">
<ele>1600.00</ele>
<time>2026-08-09T05:17:34.000Z</time>
</trkpt>
<trkpt lat="46.3942357" lon="13.9538298">
<ele>1599.59</ele>
<time>2026-08-09T05:17:51.000Z</time>
</trkpt>
<trkpt lat="46.3943676" lon="13.9540080">
<ele>1600.95</ele>
<time>2026-08-09T05:18:03.000Z</time>
</trkpt>
<trkpt lat="46.3944950" lon="13.9542093">
<ele>1602.37</ele>
<time>2026-08-09T05:18:24.000Z</time>
</trkpt>
<trkpt lat="46.3945343" lon="13.9544684">
<ele>1598.98</ele>
<time>2026-08-09T05:18:44.000Z</time>
</trkpt>
<trkpt lat="46.3946662" lon="13.9546459">
<ele>1597.50</ele>
<time>2026-08-09T05:19:05.000Z</time>
</trkpt>
<trkpt lat="46.3945634" lon="13.9548700">
<ele>1591.67</ele>
<time>2026-08-09T05:19:21.000Z</time>
</trkpt>
<trkpt lat="46.3944602" lon="13.9551044">
<ele>1587.92</ele>
<time>2026-08-09T05:19:38.000Z</time>
</trkpt>
<trkpt lat="46.3943996" lon="13.9553580">
<ele>1586.98</ele>
<time>2026-08-09T05:19:52.000Z</time>
</trkpt>
<trkpt lat="46.3944628" lon="13.9556213">
<ele>1583.20</ele>
<time>2026-08-09T05:20:09.000Z</time>
</trkpt>
<trkpt lat="46.3944830" lon="13.9558956">
<ele>1584.37</ele>
<time>2026-08-09T05:20:24.000Z</time>
</trkpt>
<trkpt lat="46.3945256" lon="13.9561529">
<ele>1583.08</ele>
<time>2026-08-09T05:20:36.000Z</time>
</trkpt>
<trkpt lat="46.3944795" lon="13.9564144">
<ele>1583.14</ele>
<time>2026-08-09T05:20:53.000Z</time>
</trkpt>
<trkpt lat="46.3944946" lon="13.9566855">
<ele>1577.57</ele>
<time>2026-08-09T05:21:14.000Z</time>
</trkpt>
<trkpt lat="46.3946071" lon="13.9568946">
<ele>1574.72</ele>
<time>2026-08-09T05:21:42.000Z</time>
</trkpt>
<trkpt lat="46.3945489" lon="13.9571436">
<ele>1570.99</ele>
<time>2026-08-09T05:22:01.000Z</time>
</trkpt>
<trkpt lat="46.3946273" lon="13.9573860">
<ele>1570.26</ele>
<time>2026-08-09T05:22:15.000Z</time>
</trkpt>
<trkpt lat="46.3946871" lon="13.9576380">
<ele>1568.59</ele>
<time>2026-08-09T05:22:47.000Z</time>
</trkpt>
<trkpt lat="46.3947596" lon="13.9578874">
<ele>1567.99</ele>
<time>2026-08-09T05:23:03.000Z</time>
</trkpt>
<trkpt lat="46.3948515" lon="13.9581140">
<ele>1568.90</ele>
<time>2026-08-09T05:23:16.000Z</time>
</trkpt>
<trkpt lat="46.3949084" lon="13.9583634">
<ele>1561.89</ele>
<time>2026-08-09T05:23:35.000Z</time>
</trkpt>
<trkpt lat="46.3949322" lon="13.9586358">
<ele>1558.23</ele>
<time>2026-08-09T05:23:54.000Z</time>
</trkpt>
<trkpt lat="46.3948926" lon="13.9589035">
<ele>1554.96</ele>
<time>2026-08-09T05:24:14.000Z</time>
</trkpt>
<trkpt lat="46.3948666" lon="13.9591765">
<ele>1551.32</ele>
<time>2026-08-09T05:24:32.000Z</time>
</trkpt>
<trkpt lat="46.3949181" lon="13.9594266">
<ele>1542.96</ele>
<time>2026-08-09T05:27:51.000Z</time>
</trkpt>
<trkpt lat="46.3948231" lon="13.9596534">
<ele>1539.58</ele>
<time>2026-08-09T05:28:09.000Z</time>
</trkpt>
<trkpt lat="46.3949201" lon="13.9598886">
<ele>1538.77</ele>
<time>2026-08-09T05:28:27.000Z</time>
</trkpt>
<trkpt lat="46.3949573" lon="13.9601444">
<ele>1538.93</ele>
<time>2026-08-09T05:28:57.000Z</time>
</trkpt>
<trkpt lat="46.3949799" lon="13.9604097">
<ele>1537.24</ele>
<time>2026-08-09T05:29:14.000Z</time>
</trkpt>
<trkpt lat="46.3950357" lon="13.9606582">
<ele>1537.78</ele>
<time>2026-08-09T05:29:31.000Z</time>
</trkpt>
<trkpt lat="46.3951980" lon="13.9607884">
<ele>1541.51</ele>
<time>2026-08-09T05:29:54.000Z</time>
</trkpt>
<trkpt lat="46.3952895" lon="13.9610153">
<ele>1543.82</ele>
<time>2026-08-09T05:30:10.000Z</time>
</trkpt>
<trkpt lat="46.3954416" lon="13.9611663">
<ele>1547.03</ele>
<time>2026-08-09T05:30:27.000Z</time>
</trkpt>
<trkpt lat="46.3956117" lon="13.9612707">
<ele>1548.01</ele>
<time>2026-08-09T05:30:45.000Z</time>
</trkpt>
<trkpt lat="46.3956801" lon="13.9615162">
<ele>1549.91</ele>
<time>2026-08-09T05:31:01.000Z</time>
</trkpt>
<trkpt lat="46.3957093" lon="13.9617739">
<ele>1551.73</ele>
<time>2026-08-09T05:31:18.000Z</time>
</trkpt>
<trkpt lat="46.3958603" lon="13.9615944">
<ele>1556.88</ele>
<time>2026-08-09T05:32:29.000Z</time>
</trkpt>
<trkpt lat="46.3960358" lon="13.9614964">
<ele>1559.94</ele>
<time>2026-08-09T05:32:46.000Z</time>
</trkpt>
<trkpt lat="46.3962193" lon="13.9615611">
<ele>1564.82</ele>
<time>2026-08-09T05:33:03.000Z</time>
</trkpt>
<trkpt lat="46.3963637" lon="13.9613843">
<ele>1566.33</ele>
<time>2026-08-09T05:33:16.000Z</time>
</trkpt>
<trkpt lat="46.3964300" lon="13.9611404">
<ele>1565.96</ele>
<time>2026-08-09T05:33:34.000Z</time>
</trkpt>
<trkpt lat="46.3964752" lon="13.9608858">
<ele>1566.17</ele>
<time>2026-08-09T05:34:01.000Z</time>
</trkpt>
<trkpt lat="46.3966035" lon="13.9606919">
<ele>1580.22</ele>
<time>2026-08-09T05:34:26.000Z</time>
</trkpt>
<trkpt lat="46.3967901" lon="13.9606441">
<ele>1584.25</ele>
<time>2026-08-09T05:34:42.000Z</time>
</trkpt>
<trkpt lat="46.3969374" lon="13.9604857">
<ele>1585.46</ele>
<time>2026-08-09T05:34:56.000Z</time>
</trkpt>
<trkpt lat="46.3971254" lon="13.9605152">
<ele>1587.16</ele>
<time>2026-08-09T05:35:15.000Z</time>
</trkpt>
<trkpt lat="46.3973207" lon="13.9604939">
<ele>1590.91</ele>
<time>2026-08-09T05:35:30.000Z</time>
</trkpt>
<trkpt lat="46.3975102" lon="13.9604482">
<ele>1591.58</ele>
<time>2026-08-09T05:35:45.000Z</time>
</trkpt>
<trkpt lat="46.3976647" lon="13.9605914">
<ele>1589.17</ele>
<time>2026-08-09T05:36:14.000Z</time>
</trkpt>
<trkpt lat="46.3978442" lon="13.9605226">
<ele>1583.62</ele>
<time>2026-08-09T05:36:44.000Z</time>
</trkpt>
<trkpt lat="46.3980382" lon="13.9605070">
<ele>1582.09</ele>
<time>2026-08-09T05:36:59.000Z</time>
</trkpt>
<trkpt lat="46.3982111" lon="13.9604171">
<ele>1578.80</ele>
<time>2026-08-09T05:37:13.000Z</time>
</trkpt>
<trkpt lat="46.3983927" lon="13.9604317">
<ele>1578.30</ele>
<time>2026-08-09T05:37:30.000Z</time>
</trkpt>
<trkpt lat="46.3985680" lon="13.9605043">
<ele>1576.90</ele>
<time>2026-08-09T05:37:43.000Z</time>
</trkpt>
<trkpt lat="46.3987519" lon="13.9604838">
<ele>1576.97</ele>
<time>2026-08-09T05:38:02.000Z</time>
</trkpt>
<trkpt lat="46.3989096" lon="13.9606135">
<ele>1576.35</ele>
<time>2026-08-09T05:38:17.000Z</time>
</trkpt>
<trkpt lat="46.3990811" lon="13.9605282">
<ele>1574.18</ele>
<time>2026-08-09T05:38:28.000Z</time>
</trkpt>
<trkpt lat="46.3992614" lon="13.9605354">
<ele>1576.18</ele>
<time>2026-08-09T05:38:45.000Z</time>
</trkpt>
<trkpt lat="46.3994518" lon="13.9605387">
<ele>1574.07</ele>
<time>2026-08-09T05:38:59.000Z</time>
</trkpt>
<trkpt lat="46.3996343" lon="13.9605489">
<ele>1573.43</ele>
<time>2026-08-09T05:39:15.000Z</time>
</trkpt>
<trkpt lat="46.3998163" lon="13.9604999">
<ele>1573.88</ele>
<time>2026-08-09T05:39:33.000Z</time>
</trkpt>
<trkpt lat="46.3999944" lon="13.9605570">
<ele>1584.18</ele>
<time>2026-08-09T05:39:51.000Z</time>
</trkpt>
<trkpt lat="46.4001733" lon="13.9605181">
<ele>1581.61</ele>
<time>2026-08-09T05:40:02.000Z</time>
</trkpt>
<trkpt lat="46.4003526" lon="13.9605429">
<ele>1584.54</ele>
<time>2026-08-09T05:40:26.000Z</time>
</trkpt>
<trkpt lat="46.4005372" lon="13.9605566">
<ele>1584.74</ele>
<time>2026-08-09T05:40:43.000Z</time>
</trkpt>
<trkpt lat="46.4007158" lon="13.9605919">
<ele>1593.55</ele>
<time>2026-08-09T05:41:01.000Z</time>
</trkpt>
<trkpt lat="46.4008882" lon="13.9604874">
<ele>1590.63</ele>
<time>2026-08-09T05:41:49.000Z</time>
</trkpt>
<trkpt lat="46.4010592" lon="13.9605731">
<ele>1595.21</ele>
<time>2026-08-09T05:42:12.000Z</time>
</trkpt>
<trkpt lat="46.4012443" lon="13.9606444">
<ele>1590.95</ele>
<time>2026-08-09T05:42:37.000Z</time>
</trkpt>
<trkpt lat="46.4013711" lon="13.9608425">
<ele>1596.99</ele>
<time>2026-08-09T05:43:02.000Z</time>
</trkpt>
<trkpt lat="46.4014817" lon="13.9610728">
<ele>1600.40</ele>
<time>2026-08-09T05:43:17.000Z</time>
</trkpt>
<trkpt lat="46.4015606" lon="13.9613094">
<ele>1601.54</ele>
<time>2026-08-09T05:43:39.000Z</time>
</trkpt>
<trkpt lat="46.4016041" lon="13.9615715">
<ele>1614.96</ele>
<time>2026-08-09T05:44:04.000Z</time>
</trkpt>
<trkpt lat="46.4016737" lon="13.9618143">
<ele>1604.08</ele>
<time>2026-08-09T05:44:30.000Z</time>
</trkpt>
<trkpt lat="46.4016592" lon="13.9620843">
<ele>1602.62</ele>
<time>2026-08-09T05:44:51.000Z</time>
</trkpt>
<trkpt lat="46.4017157" lon="13.9623331">
<ele>1602.23</ele>
<time>2026-08-09T05:45:13.000Z</time>
</trkpt>
<trkpt lat="46.4016899" lon="13.9625929">
<ele>1606.74</ele>
<time>2026-08-09T05:45:43.000Z</time>
</trkpt>
<trkpt lat="46.4018782" lon="13.9626279">
<ele>1614.99</ele>
<time>2026-08-09T05:46:46.000Z</time>
</trkpt>
<trkpt lat="46.4020634" lon="13.9625769">
<ele>1622.14</ele>
<time>2026-08-09T05:47:05.000Z</time>
</trkpt>
<trkpt lat="46.4022395" lon="13.9626358">
<ele>1626.62</ele>
<time>2026-08-09T05:47:47.000Z</time>
</trkpt>
<trkpt lat="46.4024126" lon="13.9627370">
<ele>1634.08</ele>
<time>2026-08-09T05:48:10.000Z</time>
</trkpt>
<trkpt lat="46.4025930" lon="13.9627789">
<ele>1636.37</ele>
<time>2026-08-09T05:48:33.000Z</time>
</trkpt>
<trkpt lat="46.4027765" lon="13.9627414">
<ele>1648.77</ele>
<time>2026-08-09T05:49:02.000Z</time>
</trkpt>
<trkpt lat="46.4029324" lon="13.9628792">
<ele>1656.56</ele>
<time>2026-08-09T05:49:39.000Z</time>
</trkpt>
<trkpt lat="46.4030788" lon="13.9630321">
<ele>1663.22</ele>
<time>2026-08-09T05:50:30.000Z</time>
</trkpt>
<trkpt lat="46.4032656" lon="13.9631013">
<ele>1673.97</ele>
<time>2026-08-09T05:51:19.000Z</time>
</trkpt>
<trkpt lat="46.4034464" lon="13.9630724">
<ele>1679.37</ele>
<time>2026-08-09T05:51:42.000Z</time>
</trkpt>
<trkpt lat="46.4036239" lon="13.9631182">
<ele>1686.11</ele>
<time>2026-08-09T05:52:05.000Z</time>
</trkpt>
<trkpt lat="46.4037491" lon="13.9633163">
<ele>1687.44</ele>
<time>2026-08-09T05:52:21.000Z</time>
</trkpt>
<trkpt lat="46.4037724" lon="13.9635754">
<ele>1690.19</ele>
<time>2026-08-09T05:52:37.000Z</time>
</trkpt>
<trkpt lat="46.4038753" lon="13.9638021">
<ele>1690.43</ele>
<time>2026-08-09T05:53:59.000Z</time>
</trkpt>
<trkpt lat="46.4039630" lon="13.9640477">
<ele>1689.19</ele>
<time>2026-08-09T05:54:18.000Z</time>
</trkpt>
<trkpt lat="46.4039006" lon="13.9637870">
<ele>1688.21</ele>
<time>2026-08-09T05:55:38.000Z</time>
</trkpt>
<trkpt lat="46.4038113" lon="13.9635529">
<ele>1685.62</ele>
<time>2026-08-09T05:55:58.000Z</time>
</trkpt>
<trkpt lat="46.4037368" lon="13.9633110">
<ele>1687.32</ele>
<time>2026-08-09T05:56:19.000Z</time>
</trkpt>
<trkpt lat="46.4036708" lon="13.9630592">
<ele>1688.36</ele>
<time>2026-08-09T05:56:44.000Z</time>
</trkpt>
<trkpt lat="46.4036409" lon="13.9628004">
<ele>1689.71</ele>
<time>2026-08-09T05:57:19.000Z</time>
</trkpt>
<trkpt lat="46.4035842" lon="13.9625423">
<ele>1689.39</ele>
<time>2026-08-09T05:57:37.000Z</time>
</trkpt>
<trkpt lat="46.4035411" lon="13.9622776">
<ele>1688.73</ele>
<time>2026-08-09T05:57:58.000Z</time>
</trkpt>
<trkpt lat="46.4034367" lon="13.9620524">
<ele>1682.78</ele>
<time>2026-08-09T05:58:21.000Z</time>
</trkpt>
<trkpt lat="46.4033994" lon="13.9617896">
<ele>1676.02</ele>
<time>2026-08-09T05:58:42.000Z</time>
</trkpt>
<trkpt lat="46.4033745" lon="13.9615181">
<ele>1673.15</ele>
<time>2026-08-09T05:59:00.000Z</time>
</trkpt>
<trkpt lat="46.4033565" lon="13.9612561">
<ele>1672.80</ele>
<time>2026-08-09T05:59:20.000Z</time>
</trkpt>
<trkpt lat="46.4031967" lon="13.9611194">
<ele>1663.03</ele>
<time>2026-08-09T05:59:55.000Z</time>
</trkpt>
<trkpt lat="46.4030408" lon="13.9609725">
<ele>1663.82</ele>
<time>2026-08-09T06:00:20.000Z</time>
</trkpt>
<trkpt lat="46.4028655" lon="13.9609058">
<ele>1666.96</ele>
<time>2026-08-09T06:00:47.000Z</time>
</trkpt>
<trkpt lat="46.4028483" lon="13.9606375">
<ele>1670.26</ele>
<time>2026-08-09T06:01:18.000Z</time>
</trkpt>
<trkpt lat="46.4028315" lon="13.9603777">
<ele>1665.35</ele>
<time>2026-08-09T06:01:37.000Z</time>
</trkpt>
<trkpt lat="46.4027551" lon="13.9601292">
<ele>1660.46</ele>
<time>2026-08-09T06:02:00.000Z</time>
</trkpt>
<trkpt lat="46.4026457" lon="13.9599142">
<ele>1656.08</ele>
<time>2026-08-09T06:02:31.000Z</time>
</trkpt>
<trkpt lat="46.4025014" lon="13.9597457">
<ele>1656.13</ele>
<time>2026-08-09T06:02:50.000Z</time>
</trkpt>
<trkpt lat="46.4023221" lon="13.9596700">
<ele>1662.45</ele>
<time>2026-08-09T06:03:40.000Z</time>
</trkpt>
<trkpt lat="46.4022831" lon="13.9594065">
<ele>1671.16</ele>
<time>2026-08-09T06:04:54.000Z</time>
</trkpt>
<trkpt lat="46.4022431" lon="13.9591474">
<ele>1672.87</ele>
<time>2026-08-09T06:05:22.000Z</time>
</trkpt>
<trkpt lat="46.4022948" lon="13.9588967">
<ele>1674.39</ele>
<time>2026-08-09T06:05:53.000Z</time>
</trkpt>
<trkpt lat="46.4021298" lon="13.9587892">
<ele>1680.23</ele>
<time>2026-08-09T06:06:41.000Z</time>
</trkpt>
<trkpt lat="46.4019936" lon="13.9586162">
<ele>1677.80</ele>
<time>2026-08-09T06:07:16.000Z</time>
</trkpt>
<trkpt lat="46.4019722" lon="13.9583504">
<ele>1675.94</ele>
<time>2026-08-09T06:07:38.000Z</time>
</trkpt>
<trkpt lat="46.4019156" lon="13.9580939">
<ele>1677.44</ele>
<time>2026-08-09T06:08:39.000Z</time>
</trkpt>
<trkpt lat="46.4018571" lon="13.9578362">
<ele>1667.77</ele>
<time>2026-08-09T06:09:34.000Z</time>
</trkpt>
<trkpt lat="46.4019272" lon="13.9575909">
<ele>1674.38</ele>
<time>2026-08-09T06:10:15.000Z</time>
</trkpt>
<trkpt lat="46.4019822" lon="13.9573366">
<ele>1679.40</ele>
<time>2026-08-09T06:10:38.000Z</time>
</trkpt>
<trkpt lat="46.4018555" lon="13.9571360">
<ele>1674.80</ele>
<time>2026-08-09T06:10:54.000Z</time>
</trkpt>
<trkpt lat="46.4019163" lon="13.9568863">
<ele>1670.51</ele>
<time>2026-08-09T06:11:24.000Z</time>
</trkpt>
<trkpt lat="46.4019055" lon="13.9566151">
<ele>1669.67</ele>
<time>2026-08-09T06:11:54.000Z</time>
</trkpt>
<trkpt lat="46.4018725" lon="13.9563538">
<ele>1672.28</ele>
<time>2026-08-09T06:12:17.000Z</time>
</trkpt>
<trkpt lat="46.4017731" lon="13.9561268">
<ele>1673.60</ele>
<time>2026-08-09T06:12:39.000Z</time>
</trkpt>
<trkpt lat="46.4015911" lon="13.9561035">
<ele>1681.87</ele>
<time>2026-08-09T06:13:04.000Z</time>
</trkpt>
<trkpt lat="46.4014035" lon="13.9560914">
<ele>1681.60</ele>
<time>2026-08-09T06:13:27.000Z</time>
</trkpt>
<trkpt lat="46.4012229" lon="13.9561557">
<ele>1680.68</ele>
<time>2026-08-09T06:13:51.000Z</time>
</trkpt>
<trkpt lat="46.4011391" lon="13.9559192">
<ele>1687.49</ele>
<time>2026-08-09T06:14:24.000Z</time>
</trkpt>
<trkpt lat="46.4011935" lon="13.9556638">
<ele>1682.49</ele>
<time>2026-08-09T06:14:48.000Z</time>
</trkpt>
<trkpt lat="46.4012106" lon="13.9553858">
<ele>1674.81</ele>
<time>2026-08-09T06:15:07.000Z</time>
</trkpt>
<trkpt lat="46.4012261" lon="13.9551071">
<ele>1673.46</ele>
<time>2026-08-09T06:15:26.000Z</time>
</trkpt>
<trkpt lat="46.4012155" lon="13.9548398">
<ele>1670.92</ele>
<time>2026-08-09T06:15:40.000Z</time>
</trkpt>
<trkpt lat="46.4011313" lon="13.9545920">
<ele>1668.39</ele>
<time>2026-08-09T06:15:55.000Z</time>
</trkpt>
<trkpt lat="46.4010141" lon="13.9543864">
<ele>1670.32</ele>
<time>2026-08-09T06:16:12.000Z</time>
</trkpt>
<trkpt lat="46.4009352" lon="13.9541504">
<ele>1674.68</ele>
<time>2026-08-09T06:16:28.000Z</time>
</trkpt>
<trkpt lat="46.4008749" lon="13.9539001">
<ele>1676.01</ele>
<time>2026-08-09T06:16:49.000Z</time>
</trkpt>
<trkpt lat="46.4008503" lon="13.9536369">
<ele>1681.17</ele>
<time>2026-08-09T06:17:17.000Z</time>
</trkpt>
<trkpt lat="46.4008884" lon="13.9533815">
<ele>1689.13</ele>
<time>2026-08-09T06:17:58.000Z</time>
</trkpt>
<trkpt lat="46.4009043" lon="13.9531203">
<ele>1690.34</ele>
<time>2026-08-09T06:18:54.000Z</time>
</trkpt>
<trkpt lat="46.4007774" lon="13.9529225">
<ele>1691.91</ele>
<time>2026-08-09T06:19:14.000Z</time>
</trkpt>
<trkpt lat="46.4006338" lon="13.9527635">
<ele>1695.24</ele>
<time>2026-08-09T06:19:41.000Z</time>
</trkpt>
<trkpt lat="46.4005128" lon="13.9525555">
<ele>1698.58</ele>
<time>2026-08-09T06:20:22.000Z</time>
</trkpt>
<trkpt lat="46.4004008" lon="13.9523513">
<ele>1703.38</ele>
<time>2026-08-09T06:20:48.000Z</time>
</trkpt>
<trkpt lat="46.4003238" lon="13.9521142">
<ele>1704.64</ele>
<time>2026-08-09T06:21:07.000Z</time>
</trkpt>
<trkpt lat="46.4001899" lon="13.9519236">
<ele>1703.45</ele>
<time>2026-08-09T06:21:20.000Z</time>
</trkpt>
<trkpt lat="46.4000973" lon="13.9516977">
<ele>1700.87</ele>
<time>2026-08-09T06:21:38.000Z</time>
</trkpt>
<trkpt lat="46.3999428" lon="13.9515609">
<ele>1700.71</ele>
<time>2026-08-09T06:22:02.000Z</time>
</trkpt>
<trkpt lat="46.3998478" lon="13.9513356">
<ele>1705.11</ele>
<time>2026-08-09T06:22:22.000Z</time>
</trkpt>
<trkpt lat="46.3997652" lon="13.9510922">
<ele>1711.77</ele>
<time>2026-08-09T06:22:43.000Z</time>
</trkpt>
<trkpt lat="46.3997360" lon="13.9508243">
<ele>1716.89</ele>
<time>2026-08-09T06:23:16.000Z</time>
</trkpt>
<trkpt lat="46.3996719" lon="13.9505729">
<ele>1718.35</ele>
<time>2026-08-09T06:23:36.000Z</time>
</trkpt>
<trkpt lat="46.3996042" lon="13.9503193">
<ele>1715.05</ele>
<time>2026-08-09T06:23:54.000Z</time>
</trkpt>
<trkpt lat="46.3994687" lon="13.9501431">
<ele>1723.14</ele>
<time>2026-08-09T06:24:20.000Z</time>
</trkpt>
<trkpt lat="46.3993875" lon="13.9499081">
<ele>1726.78</ele>
<time>2026-08-09T06:24:57.000Z</time>
</trkpt>
<trkpt lat="46.3992823" lon="13.9496918">
<ele>1730.49</ele>
<time>2026-08-09T06:25:27.000Z</time>
</trkpt>
<trkpt lat="46.3991709" lon="13.9494848">
<ele>1737.03</ele>
<time>2026-08-09T06:26:37.000Z</time>
</trkpt>
<trkpt lat="46.3990792" lon="13.9492449">
<ele>1738.42</ele>
<time>2026-08-09T06:26:58.000Z</time>
</trkpt>
<trkpt lat="46.3989770" lon="13.9490191">
<ele>1749.83</ele>
<time>2026-08-09T06:27:23.000Z</time>
</trkpt>
<trkpt lat="46.3988530" lon="13.9488207">
<ele>1753.83</ele>
<time>2026-08-09T06:27:49.000Z</time>
</trkpt>
<trkpt lat="46.3987680" lon="13.9485864">
<ele>1760.28</ele>
<time>2026-08-09T06:28:17.000Z</time>
</trkpt>
<trkpt lat="46.3986988" lon="13.9483255">
<ele>1758.47</ele>
<time>2026-08-09T06:29:02.000Z</time>
</trkpt>
<trkpt lat="46.3986397" lon="13.9480768">
<ele>1765.28</ele>
<time>2026-08-09T06:29:20.000Z</time>
</trkpt>
<trkpt lat="46.3985735" lon="13.9478318">
<ele>1769.04</ele>
<time>2026-08-09T06:29:42.000Z</time>
</trkpt>
<trkpt lat="46.3985075" lon="13.9475840">
<ele>1772.82</ele>
<time>2026-08-09T06:30:02.000Z</time>
</trkpt>
<trkpt lat="46.3984394" lon="13.9473287">
<ele>1777.56</ele>
<time>2026-08-09T06:30:24.000Z</time>
</trkpt>
<trkpt lat="46.3983480" lon="13.9470989">
<ele>1784.51</ele>
<time>2026-08-09T06:30:50.000Z</time>
</trkpt>
<trkpt lat="46.3982834" lon="13.9468510">
<ele>1798.59</ele>
<time>2026-08-09T06:31:28.000Z</time>
</trkpt>
<trkpt lat="46.3982097" lon="13.9466087">
<ele>1806.54</ele>
<time>2026-08-09T06:31:54.000Z</time>
</trkpt>
<trkpt lat="46.3981524" lon="13.9463612">
<ele>1813.19</ele>
<time>2026-08-09T06:32:22.000Z</time>
</trkpt>
<trkpt lat="46.3980899" lon="13.9461137">
<ele>1820.74</ele>
<time>2026-08-09T06:33:07.000Z</time>
</trkpt>
<trkpt lat="46.3979763" lon="13.9459039">
<ele>1824.75</ele>
<time>2026-08-09T06:33:30.000Z</time>
</trkpt>
<trkpt lat="46.3978640" lon="13.9456954">
<ele>1829.52</ele>
<time>2026-08-09T06:33:53.000Z</time>
</trkpt>
<trkpt lat="46.3977730" lon="13.9454686">
<ele>1833.24</ele>
<time>2026-08-09T06:34:15.000Z</time>
</trkpt>
<trkpt lat="46.3976211" lon="13.9453119">
<ele>1839.72</ele>
<time>2026-08-09T06:34:56.000Z</time>
</trkpt>
<trkpt lat="46.3974919" lon="13.9451278">
<ele>1843.41</ele>
<time>2026-08-09T06:35:16.000Z</time>
</trkpt>
<trkpt lat="46.3973307" lon="13.9449990">
<ele>1846.00</ele>
<time>2026-08-09T06:35:46.000Z</time>
</trkpt>
<trkpt lat="46.3971717" lon="13.9448678">
<ele>1849.44</ele>
<time>2026-08-09T06:36:22.000Z</time>
</trkpt>
<trkpt lat="46.3970268" lon="13.9447115">
<ele>1858.01</ele>
<time>2026-08-09T06:36:44.000Z</time>
</trkpt>
<trkpt lat="46.3969736" lon="13.9444533">
<ele>1856.77</ele>
<time>2026-08-09T06:37:18.000Z</time>
</trkpt>
<trkpt lat="46.3968862" lon="13.9442132">
<ele>1850.11</ele>
<time>2026-08-09T06:38:08.000Z</time>
</trkpt>
<trkpt lat="46.3967358" lon="13.9440669">
<ele>1847.48</ele>
<time>2026-08-09T06:38:34.000Z</time>
</trkpt>
<trkpt lat="46.3965702" lon="13.9439536">
<ele>1842.54</ele>
<time>2026-08-09T06:39:10.000Z</time>
</trkpt>
<trkpt lat="46.3965063" lon="13.9437084">
<ele>1835.14</ele>
<time>2026-08-09T06:47:25.000Z</time>
</trkpt>
<trkpt lat="46.3963270" lon="13.9437706">
<ele>1831.14</ele>
<time>2026-08-09T06:48:19.000Z</time>
</trkpt>
<trkpt lat="46.3961494" lon="13.9437265">
<ele>1826.53</ele>
<time>2026-08-09T06:49:23.000Z</time>
</trkpt>
<trkpt lat="46.3961772" lon="13.9434545">
<ele>1831.13</ele>
<time>2026-08-09T06:49:48.000Z</time>
</trkpt>
<trkpt lat="46.3961678" lon="13.9431938">
<ele>1838.74</ele>
<time>2026-08-09T06:51:20.000Z</time>
</trkpt>
<trkpt lat="46.3962870" lon="13.9429963">
<ele>1847.88</ele>
<time>2026-08-09T06:54:59.000Z</time>
</trkpt>
<trkpt lat="46.3964230" lon="13.9428219">
<ele>1849.55</ele>
<time>2026-08-09T06:57:07.000Z</time>
</trkpt>
<trkpt lat="46.3965331" lon="13.9426110">
<ele>1852.41</ele>
<time>2026-08-09T06:59:13.000Z</time>
</trkpt>
<trkpt lat="46.3966984" lon="13.9425083">
<ele>1856.31</ele>
<time>2026-08-09T06:59:55.000Z</time>
</trkpt>
<trkpt lat="46.3967804" lon="13.9422712">
<ele>1863.02</ele>
<time>2026-08-09T07:03:42.000Z</time>
</trkpt>
<trkpt lat="46.3967926" lon="13.9420102">
<ele>1870.89</ele>
<time>2026-08-09T07:05:48.000Z</time>
</trkpt>
<trkpt lat="46.3968799" lon="13.9417818">
<ele>1877.50</ele>
<time>2026-08-09T07:07:47.000Z</time>
</trkpt>
<trkpt lat="46.3970554" lon="13.9417079">
<ele>1876.70</ele>
<time>2026-08-09T07:08:18.000Z</time>
</trkpt>
<trkpt lat="46.3972290" lon="13.9416335">
<ele>1878.72</ele>
<time>2026-08-09T07:08:32.000Z</time>
</trkpt>
<trkpt lat="46.3973722" lon="13.9414660">
<ele>1884.46</ele>
<time>2026-08-09T07:09:04.000Z</time>
</trkpt>
<trkpt lat="46.3972125" lon="13.9416079">
<ele>1881.71</ele>
<time>2026-08-09T07:15:07.000Z</time>
</trkpt>
<trkpt lat="46.3970459" lon="13.9417338">
<ele>1878.84</ele>
<time>2026-08-09T07:15:23.000Z</time>
</trkpt>
<trkpt lat="46.3968836" lon="13.9418563">
<ele>1876.63</ele>
<time>2026-08-09T07:16:30.000Z</time>
</trkpt>
<trkpt lat="46.3967825" lon="13.9420724">
<ele>1872.86</ele>
<time>2026-08-09T07:18:13.000Z</time>
</trkpt>
<trkpt lat="46.3966351" lon="13.9422274">
<ele>1865.95</ele>
<time>2026-08-09T07:20:05.000Z</time>
</trkpt>
<trkpt lat="46.3965650" lon="13.9424724">
<ele>1858.73</ele>
<time>2026-08-09T07:21:43.000Z</time>
</trkpt>
<trkpt lat="46.3964021" lon="13.9425978">
<ele>1854.94</ele>
<time>2026-08-09T07:22:28.000Z</time>
</trkpt>
<trkpt lat="46.3962299" lon="13.9424986">
<ele>1854.51</ele>
<time>2026-08-09T07:24:08.000Z</time>
</trkpt>
<trkpt lat="46.3962447" lon="13.9422283">
<ele>1857.34</ele>
<time>2026-08-09T07:24:22.000Z</time>
</trkpt>
<trkpt lat="46.3963115" lon="13.9419722">
<ele>1859.71</ele>
<time>2026-08-09T07:24:36.000Z</time>
</trkpt>
<trkpt lat="46.3962987" lon="13.9417116">
<ele>1869.65</ele>
<time>2026-08-09T07:24:50.000Z</time>
</trkpt>
<trkpt lat="46.3962388" lon="13.9414654">
<ele>1874.48</ele>
<time>2026-08-09T07:25:09.000Z</time>
</trkpt>
<trkpt lat="46.3960847" lon="13.9413104">
<ele>1875.71</ele>
<time>2026-08-09T07:25:25.000Z</time>
</trkpt>
<trkpt lat="46.3959061" lon="13.9412745">
<ele>1873.48</ele>
<time>2026-08-09T07:25:45.000Z</time>
</trkpt>
<trkpt lat="46.3957324" lon="13.9412041">
<ele>1874.21</ele>
<time>2026-08-09T07:26:04.000Z</time>
</trkpt>
<trkpt lat="46.3955574" lon="13.9410775">
<ele>1877.62</ele>
<time>2026-08-09T07:26:19.000Z</time>
</trkpt>
<trkpt lat="46.3953957" lon="13.9409388">
<ele>1876.24</ele>
<time>2026-08-09T07:26:34.000Z</time>
</trkpt>
<trkpt lat="46.3952560" lon="13.9407726">
<ele>1880.47</ele>
<time>2026-08-09T07:26:48.000Z</time>
</trkpt>
<trkpt lat="46.3950737" lon="13.9408116">
<ele>1879.95</ele>
<time>2026-08-09T07:27:22.000Z</time>
</trkpt>
<trkpt lat="46.3948985" lon="13.9407153">
<ele>1878.50</ele>
<time>2026-08-09T07:27:50.000Z</time>
</trkpt>
<trkpt lat="46.3947569" lon="13.9405251">
<ele>1878.74</ele>
<time>2026-08-09T07:28:05.000Z</time>
</trkpt>
<trkpt lat="46.3946001" lon="13.9403881">
<ele>1880.86</ele>
<time>2026-08-09T07:28:22.000Z</time>
</trkpt>
<trkpt lat="46.3944714" lon="13.9402056">
<ele>1879.72</ele>
<time>2026-08-09T07:28:37.000Z</time>
</trkpt>
<trkpt lat="46.3943356" lon="13.9400295">
<ele>1882.19</ele>
<time>2026-08-09T07:29:00.000Z</time>
</trkpt>
<trkpt lat="46.3942194" lon="13.9398270">
<ele>1886.50</ele>
<time>2026-08-09T07:29:25.000Z</time>
</trkpt>
<trkpt lat="46.3940408" lon="13.9397656">
<ele>1883.97</ele>
<time>2026-08-09T07:30:18.000Z</time>
</trkpt>
<trkpt lat="46.3938561" lon="13.9397941">
<ele>1878.79</ele>
<time>2026-08-09T07:30:59.000Z</time>
</trkpt>
<trkpt lat="46.3936784" lon="13.9398578">
<ele>1872.03</ele>
<time>2026-08-09T07:31:28.000Z</time>
</trkpt>
<trkpt lat="46.3934921" lon="13.9399289">
<ele>1859.88</ele>
<time>2026-08-09T07:32:53.000Z</time>
</trkpt>
<trkpt lat="46.3934011" lon="13.9396896">
<ele>1866.64</ele>
<time>2026-08-09T07:33:39.000Z</time>
</trkpt>
<trkpt lat="46.3932730" lon="13.9395034">
<ele>1869.21</ele>
<time>2026-08-09T07:33:57.000Z</time>
</trkpt>
<trkpt lat="46.3930923" lon="13.9394500">
<ele>1866.30</ele>
<time>2026-08-09T07:34:17.000Z</time>
</trkpt>
<trkpt lat="46.3929775" lon="13.9392445">
<ele>1869.52</ele>
<time>2026-08-09T07:34:39.000Z</time>
</trkpt>
<trkpt lat="46.3928410" lon="13.9390634">
<ele>1869.62</ele>
<time>2026-08-09T07:35:05.000Z</time>
</trkpt>
<trkpt lat="46.3926665" lon="13.9389877">
<ele>1865.49</ele>
<time>2026-08-09T07:35:37.000Z</time>
</trkpt>
<trkpt lat="46.3925139" lon="13.9388284">
<ele>1869.44</ele>
<time>2026-08-09T07:36:03.000Z</time>
</trkpt>
<trkpt lat="46.3923628" lon="13.9386680">
<ele>1870.50</ele>
<time>2026-08-09T07:36:23.000Z</time>
</trkpt>
<trkpt lat="46.3922138" lon="13.9385174">
<ele>1870.34</ele>
<time>2026-08-09T07:36:39.000Z</time>
</trkpt>
<trkpt lat="46.3921474" lon="13.9382708">
<ele>1874.28</ele>
<time>2026-08-09T07:36:57.000Z</time>
</trkpt>
<trkpt lat="46.3920238" lon="13.9380694">
<ele>1872.69</ele>
<time>2026-08-09T07:37:50.000Z</time>
</trkpt>
<trkpt lat="46.3918832" lon="13.9378835">
<ele>1875.52</ele>
<time>2026-08-09T07:38:11.000Z</time>
</trkpt>
<trkpt lat="46.3917090" lon="13.9377859">
<ele>1871.71</ele>
<time>2026-08-09T07:38:28.000Z</time>
</trkpt>
<trkpt lat="46.3915272" lon="13.9378172">
<ele>1862.77</ele>
<time>2026-08-09T07:39:00.000Z</time>
</trkpt>
<trkpt lat="46.3913443" lon="13.9377554">
<ele>1856.25</ele>
<time>2026-08-09T07:39:17.000Z</time>
</trkpt>
<trkpt lat="46.3911637" lon="13.9376922">
<ele>1852.73</ele>
<time>2026-08-09T07:39:38.000Z</time>
</trkpt>
<trkpt lat="46.3909886" lon="13.9376102">
<ele>1846.92</ele>
<time>2026-08-09T07:39:59.000Z</time>
</trkpt>
<trkpt lat="46.3908446" lon="13.9374455">
<ele>1846.84</ele>
<time>2026-08-09T07:40:26.000Z</time>
</trkpt>
<trkpt lat="46.3907686" lon="13.9372002">
<ele>1847.33</ele>
<time>2026-08-09T07:41:13.000Z</time>
</trkpt>
<trkpt lat="46.3906276" lon="13.9370254">
<ele>1849.04</ele>
<time>2026-08-09T07:41:42.000Z</time>
</trkpt>
<trkpt lat="46.3905310" lon="13.9368017">
<ele>1852.07</ele>
<time>2026-08-09T07:42:01.000Z</time>
</trkpt>
<trkpt lat="46.3903975" lon="13.9365990">
<ele>1855.81</ele>
<time>2026-08-09T07:42:29.000Z</time>
</trkpt>
<trkpt lat="46.3902721" lon="13.9364103">
<ele>1859.26</ele>
<time>2026-08-09T07:42:47.000Z</time>
</trkpt>
<trkpt lat="46.3902365" lon="13.9361492">
<ele>1876.39</ele>
<time>2026-08-09T07:44:02.000Z</time>
</trkpt>
<trkpt lat="46.3902523" lon="13.9358865">
<ele>1894.54</ele>
<time>2026-08-09T07:45:01.000Z</time>
</trkpt>
<trkpt lat="46.3900741" lon="13.9357938">
<ele>1900.42</ele>
<time>2026-08-09T07:45:24.000Z</time>
</trkpt>
<trkpt lat="46.3899190" lon="13.9356508">
<ele>1906.63</ele>
<time>2026-08-09T07:45:45.000Z</time>
</trkpt>
<trkpt lat="46.3898928" lon="13.9353910">
<ele>1925.90</ele>
<time>2026-08-09T07:46:37.000Z</time>
</trkpt>
<trkpt lat="46.3899784" lon="13.9351583">
<ele>1943.51</ele>
<time>2026-08-09T07:47:36.000Z</time>
</trkpt>
<trkpt lat="46.3901492" lon="13.9350525">
<ele>1956.83</ele>
<time>2026-08-09T07:48:15.000Z</time>
</trkpt>
<trkpt lat="46.3900688" lon="13.9348140">
<ele>1960.88</ele>
<time>2026-08-09T07:48:39.000Z</time>
</trkpt>
<trkpt lat="46.3900277" lon="13.9345574">
<ele>1969.66</ele>
<time>2026-08-09T07:49:06.000Z</time>
</trkpt>
<trkpt lat="46.3902081" lon="13.9345159">
<ele>1981.11</ele>
<time>2026-08-09T07:49:40.000Z</time>
</trkpt>
<trkpt lat="46.3902124" lon="13.9342517">
<ele>1990.24</ele>
<time>2026-08-09T07:50:24.000Z</time>
</trkpt>
<trkpt lat="46.3902387" lon="13.9339931">
<ele>1999.66</ele>
<time>2026-08-09T07:51:04.000Z</time>
</trkpt>
<trkpt lat="46.3902183" lon="13.9337196">
<ele>1998.73</ele>
<time>2026-08-09T08:12:13.000Z</time>
</trkpt>
<trkpt lat="46.3903292" lon="13.9335123">
<ele>2000.79</ele>
<time>2026-08-09T08:12:39.000Z</time>
</trkpt>
<trkpt lat="46.3904985" lon="13.9334018">
<ele>2009.52</ele>
<time>2026-08-09T08:13:05.000Z</time>
</trkpt>
<trkpt lat="46.3905616" lon="13.9331403">
<ele>2007.59</ele>
<time>2026-08-09T08:14:52.000Z</time>
</trkpt>
<trkpt lat="46.3904778" lon="13.9328999">
<ele>2000.16</ele>
<time>2026-08-09T08:15:05.000Z</time>
</trkpt>
<trkpt lat="46.3902925" lon="13.9328277">
<ele>1989.79</ele>
<time>2026-08-09T08:15:25.000Z</time>
</trkpt>
<trkpt lat="46.3901602" lon="13.9326419">
<ele>1983.42</ele>
<time>2026-08-09T08:15:38.000Z</time>
</trkpt>
<trkpt lat="46.3900090" lon="13.9324869">
<ele>1977.00</ele>
<time>2026-08-09T08:15:54.000Z</time>
</trkpt>
<trkpt lat="46.3898923" lon="13.9322843">
<ele>1970.66</ele>
<time>2026-08-09T08:16:11.000Z</time>
</trkpt>
<trkpt lat="46.3897103" lon="13.9322501">
<ele>1960.27</ele>
<time>2026-08-09T08:16:33.000Z</time>
</trkpt>
<trkpt lat="46.3895601" lon="13.9321061">
<ele>1953.06</ele>
<time>2026-08-09T08:16:51.000Z</time>
</trkpt>
<trkpt lat="46.3893808" lon="13.9320637">
<ele>1944.27</ele>
<time>2026-08-09T08:17:11.000Z</time>
</trkpt>
<trkpt lat="46.3892199" lon="13.9319362">
<ele>1936.47</ele>
<time>2026-08-09T08:17:28.000Z</time>
</trkpt>
<trkpt lat="46.3890387" lon="13.9319117">
<ele>1933.21</ele>
<time>2026-08-09T08:17:47.000Z</time>
</trkpt>
<trkpt lat="46.3888618" lon="13.9318611">
<ele>1935.19</ele>
<time>2026-08-09T08:17:59.000Z</time>
</trkpt>
<trkpt lat="46.3886830" lon="13.9318122">
<ele>1938.40</ele>
<time>2026-08-09T08:18:16.000Z</time>
</trkpt>
<trkpt lat="46.3884943" lon="13.9318143">
<ele>1932.85</ele>
<time>2026-08-09T08:18:37.000Z</time>
</trkpt>
<trkpt lat="46.3883178" lon="13.9317471">
<ele>1931.70</ele>
<time>2026-08-09T08:18:51.000Z</time>
</trkpt>
<trkpt lat="46.3881293" lon="13.9317594">
<ele>1933.03</ele>
<time>2026-08-09T08:19:05.000Z</time>
</trkpt>
<trkpt lat="46.3879918" lon="13.9315724">
<ele>1931.34</ele>
<time>2026-08-09T08:19:29.000Z</time>
</trkpt>
<trkpt lat="46.3878874" lon="13.9313513">
<ele>1932.17</ele>
<time>2026-08-09T08:19:45.000Z</time>
</trkpt>
<trkpt lat="46.3877979" lon="13.9311200">
<ele>1935.71</ele>
<time>2026-08-09T08:20:01.000Z</time>
</trkpt>
<trkpt lat="46.3876272" lon="13.9309874">
<ele>1934.39</ele>
<time>2026-08-09T08:20:16.000Z</time>
</trkpt>
<trkpt lat="46.3874612" lon="13.9308509">
<ele>1932.88</ele>
<time>2026-08-09T08:20:29.000Z</time>
</trkpt>
<trkpt lat="46.3872854" lon="13.9307902">
<ele>1932.38</ele>
<time>2026-08-09T08:20:40.000Z</time>
</trkpt>
<trkpt lat="46.3871159" lon="13.9306969">
<ele>1934.81</ele>
<time>2026-08-09T08:20:53.000Z</time>
</trkpt>
<trkpt lat="46.3869624" lon="13.9305531">
<ele>1933.63</ele>
<time>2026-08-09T08:21:09.000Z</time>
</trkpt>
<trkpt lat="46.3868154" lon="13.9303959">
<ele>1929.07</ele>
<time>2026-08-09T08:21:30.000Z</time>
</trkpt>
<trkpt lat="46.3866321" lon="13.9303583">
<ele>1929.53</ele>
<time>2026-08-09T08:21:44.000Z</time>
</trkpt>
<trkpt lat="46.3864653" lon="13.9302473">
<ele>1931.10</ele>
<time>2026-08-09T08:22:01.000Z</time>
</trkpt>
<trkpt lat="46.3862842" lon="13.9302794">
<ele>1934.08</ele>
<time>2026-08-09T08:22:18.000Z</time>
</trkpt>
<trkpt lat="46.3861024" lon="13.9302512">
<ele>1937.66</ele>
<time>2026-08-09T08:23:22.000Z</time>
</trkpt>
<trkpt lat="46.3859156" lon="13.9302726">
<ele>1942.76</ele>
<time>2026-08-09T08:23:45.000Z</time>
</trkpt>
<trkpt lat="46.3857582" lon="13.9301411">
<ele>1941.16</ele>
<time>2026-08-09T08:24:03.000Z</time>
</trkpt>
<trkpt lat="46.3855825" lon="13.9302391">
<ele>1943.28</ele>
<time>2026-08-09T08:26:08.000Z</time>
</trkpt>
<trkpt lat="46.3854342" lon="13.9304043">
<ele>1943.58</ele>
<time>2026-08-09T08:26:34.000Z</time>
</trkpt>
<trkpt lat="46.3852655" lon="13.9302916">
<ele>1944.57</ele>
<time>2026-08-09T08:26:58.000Z</time>
</trkpt>
<trkpt lat="46.3850972" lon="13.9301947">
<ele>1945.85</ele>
<time>2026-08-09T08:27:17.000Z</time>
</trkpt>
<trkpt lat="46.3849136" lon="13.9301871">
<ele>1944.00</ele>
<time>2026-08-09T08:27:36.000Z</time>
</trkpt>
<trkpt lat="46.3847400" lon="13.9301033">
<ele>1942.73</ele>
<time>2026-08-09T08:28:17.000Z</time>
</trkpt>
<trkpt lat="46.3846575" lon="13.9298658">
<ele>1940.61</ele>
<time>2026-08-09T08:28:40.000Z</time>
</trkpt>
<trkpt lat="46.3846715" lon="13.9295999">
<ele>1937.17</ele>
<time>2026-08-09T08:28:54.000Z</time>
</trkpt>
<trkpt lat="46.3847853" lon="13.9293860">
<ele>1936.38</ele>
<time>2026-08-09T08:29:11.000Z</time>
</trkpt>
<trkpt lat="46.3848403" lon="13.9291364">
<ele>1933.54</ele>
<time>2026-08-09T08:29:28.000Z</time>
</trkpt>
<trkpt lat="46.3848932" lon="13.9288723">
<ele>1934.37</ele>
<time>2026-08-09T08:29:51.000Z</time>
</trkpt>
<trkpt lat="46.3847768" lon="13.9286644">
<ele>1935.17</ele>
<time>2026-08-09T08:30:12.000Z</time>
</trkpt>
<trkpt lat="46.3846204" lon="13.9285081">
<ele>1940.44</ele>
<time>2026-08-09T08:30:46.000Z</time>
</trkpt>
<trkpt lat="46.3845818" lon="13.9282484">
<ele>1942.50</ele>
<time>2026-08-09T08:31:04.000Z</time>
</trkpt>
<trkpt lat="46.3846551" lon="13.9280049">
<ele>1945.10</ele>
<time>2026-08-09T08:31:19.000Z</time>
</trkpt>
<trkpt lat="46.3846642" lon="13.9277429">
<ele>1947.95</ele>
<time>2026-08-09T08:31:36.000Z</time>
</trkpt>
<trkpt lat="46.3846065" lon="13.9274914">
<ele>1951.70</ele>
<time>2026-08-09T08:31:51.000Z</time>
</trkpt>
<trkpt lat="46.3844378" lon="13.9273836">
<ele>1958.96</ele>
<time>2026-08-09T08:32:12.000Z</time>
</trkpt>
<trkpt lat="46.3843448" lon="13.9271457">
<ele>1956.53</ele>
<time>2026-08-09T08:32:30.000Z</time>
</trkpt>
<trkpt lat="46.3842755" lon="13.9269003">
<ele>1960.73</ele>
<time>2026-08-09T08:33:10.000Z</time>
</trkpt>
<trkpt lat="46.3843862" lon="13.9266920">
<ele>1970.85</ele>
<time>2026-08-09T08:33:39.000Z</time>
</trkpt>
<trkpt lat="46.3845105" lon="13.9264957">
<ele>1978.08</ele>
<time>2026-08-09T08:34:08.000Z</time>
</trkpt>
<trkpt lat="46.3846649" lon="13.9263552">
<ele>1990.75</ele>
<time>2026-08-09T08:34:41.000Z</time>
</trkpt>
<trkpt lat="46.3848172" lon="13.9262077">
<ele>1994.84</ele>
<time>2026-08-09T08:35:02.000Z</time>
</trkpt>
<trkpt lat="46.3849313" lon="13.9259958">
<ele>1999.71</ele>
<time>2026-08-09T08:35:21.000Z</time>
</trkpt>
<trkpt lat="46.3850299" lon="13.9257604">
<ele>2007.40</ele>
<time>2026-08-09T08:35:44.000Z</time>
</trkpt>
<trkpt lat="46.3849886" lon="13.9255046">
<ele>2007.57</ele>
<time>2026-08-09T08:36:11.000Z</time>
</trkpt>
<trkpt lat="46.3849251" lon="13.9252535">
<ele>2000.37</ele>
<time>2026-08-09T08:36:39.000Z</time>
</trkpt>
<trkpt lat="46.3848779" lon="13.9250009">
<ele>1991.79</ele>
<time>2026-08-09T08:36:56.000Z</time>
</trkpt>
<trkpt lat="46.3847173" lon="13.9248802">
<ele>1981.54</ele>
<time>2026-08-09T08:37:15.000Z</time>
</trkpt>
<trkpt lat="46.3846478" lon="13.9246310">
<ele>1973.49</ele>
<time>2026-08-09T08:37:29.000Z</time>
</trkpt>
<trkpt lat="46.3844657" lon="13.9246401">
<ele>1966.72</ele>
<time>2026-08-09T08:37:43.000Z</time>
</trkpt>
<trkpt lat="46.3842987" lon="13.9247552">
<ele>1957.87</ele>
<time>2026-08-09T08:38:01.000Z</time>
</trkpt>
<trkpt lat="46.3841445" lon="13.9249036">
<ele>1946.97</ele>
<time>2026-08-09T08:38:19.000Z</time>
</trkpt>
<trkpt lat="46.3839626" lon="13.9248549">
<ele>1935.54</ele>
<time>2026-08-09T08:38:52.000Z</time>
</trkpt>
<trkpt lat="46.3838012" lon="13.9247194">
<ele>1931.75</ele>
<time>2026-08-09T08:39:15.000Z</time>
</trkpt>
<trkpt lat="46.3836190" lon="13.9246576">
<ele>1926.86</ele>
<time>2026-08-09T08:39:32.000Z</time>
</trkpt>
<trkpt lat="46.3834794" lon="13.9244759">
<ele>1926.30</ele>
<time>2026-08-09T08:39:47.000Z</time>
</trkpt>
<trkpt lat="46.3833391" lon="13.9242843">
<ele>1919.79</ele>
<time>2026-08-09T08:40:06.000Z</time>
</trkpt>
<trkpt lat="46.3831628" lon="13.9241744">
<ele>1916.37</ele>
<time>2026-08-09T08:40:21.000Z</time>
</trkpt>
<trkpt lat="46.3830368" lon="13.9239822">
<ele>1915.41</ele>
<time>2026-08-09T08:40:34.000Z</time>
</trkpt>
<trkpt lat="46.3828830" lon="13.9238371">
<ele>1911.49</ele>
<time>2026-08-09T08:40:46.000Z</time>
</trkpt>
<trkpt lat="46.3827002" lon="13.9237770">
<ele>1908.36</ele>
<time>2026-08-09T08:41:01.000Z</time>
</trkpt>
<trkpt lat="46.3825212" lon="13.9237504">
<ele>1903.69</ele>
<time>2026-08-09T08:41:22.000Z</time>
</trkpt>
<trkpt lat="46.3824089" lon="13.9235447">
<ele>1904.04</ele>
<time>2026-08-09T08:41:39.000Z</time>
</trkpt>
<trkpt lat="46.3822624" lon="13.9233768">
<ele>1903.05</ele>
<time>2026-08-09T08:41:53.000Z</time>
</trkpt>
<trkpt lat="46.3820832" lon="13.9233187">
<ele>1899.80</ele>
<time>2026-08-09T08:42:11.000Z</time>
</trkpt>
<trkpt lat="46.3819023" lon="13.9233136">
<ele>1896.56</ele>
<time>2026-08-09T08:42:30.000Z</time>
</trkpt>
<trkpt lat="46.3817901" lon="13.9230943">
<ele>1900.90</ele>
<time>2026-08-09T08:43:03.000Z</time>
</trkpt>
<trkpt lat="46.3816058" lon="13.9231232">
<ele>1902.28</ele>
<time>2026-08-09T08:43:25.000Z</time>
</trkpt>
<trkpt lat="46.3814218" lon="13.9231186">
<ele>1902.11</ele>
<time>2026-08-09T08:43:49.000Z</time>
</trkpt>
<trkpt lat="46.3812407" lon="13.9230764">
<ele>1902.04</ele>
<time>2026-08-09T08:44:06.000Z</time>
</trkpt>
<trkpt lat="46.3810571" lon="13.9230349">
<ele>1915.14</ele>
<time>2026-08-09T08:44:41.000Z</time>
</trkpt>
<trkpt lat="46.3808785" lon="13.9229570">
<ele>1920.22</ele>
<time>2026-08-09T08:45:08.000Z</time>
</trkpt>
<trkpt lat="46.3807788" lon="13.9227343">
<ele>1929.02</ele>
<time>2026-08-09T08:45:39.000Z</time>
</trkpt>
<trkpt lat="46.3806878" lon="13.9225049">
<ele>1939.37</ele>
<time>2026-08-09T08:46:05.000Z</time>
</trkpt>
<trkpt lat="46.3805181" lon="13.9224001">
<ele>1937.94</ele>
<time>2026-08-09T08:48:14.000Z</time>
</trkpt>
<trkpt lat="46.3803618" lon="13.9222422">
<ele>1920.43</ele>
<time>2026-08-09T08:50:37.000Z</time>
</trkpt>
<trkpt lat="46.3802738" lon="13.9220088">
<ele>1912.44</ele>
<time>2026-08-09T08:50:53.000Z</time>
</trkpt>
<trkpt lat="46.3802014" lon="13.9217674">
<ele>1911.84</ele>
<time>2026-08-09T08:51:04.000Z</time>
</trkpt>
<trkpt lat="46.3800547" lon="13.9216116">
<ele>1908.79</ele>
<time>2026-08-09T08:51:16.000Z</time>
</trkpt>
<trkpt lat="46.3799120" lon="13.9214487">
<ele>1904.56</ele>
<time>2026-08-09T08:51:32.000Z</time>
</trkpt>
<trkpt lat="46.3799207" lon="13.9211830">
<ele>1908.97</ele>
<time>2026-08-09T08:52:46.000Z</time>
</trkpt>
<trkpt lat="46.3798670" lon="13.9209248">
<ele>1917.37</ele>
<time>2026-08-09T08:53:18.000Z</time>
</trkpt>
<trkpt lat="46.3796769" lon="13.9209375">
<ele>1916.60</ele>
<time>2026-08-09T08:53:34.000Z</time>
</trkpt>
<trkpt lat="46.3795032" lon="13.9208591">
<ele>1921.11</ele>
<time>2026-08-09T08:53:52.000Z</time>
</trkpt>
<trkpt lat="46.3793159" lon="13.9208187">
<ele>1924.89</ele>
<time>2026-08-09T08:54:08.000Z</time>
</trkpt>
<trkpt lat="46.3791466" lon="13.9207009">
<ele>1932.86</ele>
<time>2026-08-09T08:54:36.000Z</time>
</trkpt>
<trkpt lat="46.3791889" lon="13.9204452">
<ele>1944.06</ele>
<time>2026-08-09T08:55:21.000Z</time>
</trkpt>
<trkpt lat="46.3790170" lon="13.9203608">
<ele>1952.48</ele>
<time>2026-08-09T08:55:52.000Z</time>
</trkpt>
<trkpt lat="46.3788935" lon="13.9201643">
<ele>1965.50</ele>
<time>2026-08-09T08:56:33.000Z</time>
</trkpt>
<trkpt lat="46.3787176" lon="13.9200627">
<ele>1975.88</ele>
<time>2026-08-09T08:57:10.000Z</time>
</trkpt>
<trkpt lat="46.3785286" lon="13.9200445">
<ele>1973.03</ele>
<time>2026-08-09T08:57:48.000Z</time>
</trkpt>
<trkpt lat="46.3783940" lon="13.9198684">
<ele>1971.84</ele>
<time>2026-08-09T08:58:03.000Z</time>
</trkpt>
<trkpt lat="46.3782142" lon="13.9199202">
<ele>1968.06</ele>
<time>2026-08-09T08:58:45.000Z</time>
</trkpt>
<trkpt lat="46.3780359" lon="13.9198646">
<ele>1960.01</ele>
<time>2026-08-09T08:59:17.000Z</time>
</trkpt>
<trkpt lat="46.3778525" lon="13.9198144">
<ele>1951.36</ele>
<time>2026-08-09T09:00:32.000Z</time>
</trkpt>
<trkpt lat="46.3777135" lon="13.9196428">
<ele>1964.05</ele>
<time>2026-08-09T09:01:12.000Z</time>
</trkpt>
<trkpt lat="46.3776272" lon="13.9194137">
<ele>1964.73</ele>
<time>2026-08-09T09:01:40.000Z</time>
</trkpt>
<trkpt lat="46.3774860" lon="13.9192393">
<ele>1957.92</ele>
<time>2026-08-09T09:03:55.000Z</time>
</trkpt>
<trkpt lat="46.3773072" lon="13.9191437">
<ele>1952.17</ele>
<time>2026-08-09T09:04:08.000Z</time>
</trkpt>
<trkpt lat="46.3771744" lon="13.9189484">
<ele>1947.34</ele>
<time>2026-08-09T09:04:22.000Z</time>
</trkpt>
<trkpt lat="46.3771110" lon="13.9186911">
<ele>1944.44</ele>
<time>2026-08-09T09:04:37.000Z</time>
</trkpt>
<trkpt lat="46.3771146" lon="13.9184275">
<ele>1938.67</ele>
<time>2026-08-09T09:04:51.000Z</time>
</trkpt>
<trkpt lat="46.3770364" lon="13.9181849">
<ele>1930.46</ele>
<time>2026-08-09T09:05:40.000Z</time>
</trkpt>
<trkpt lat="46.3769043" lon="13.9180004">
<ele>1923.76</ele>
<time>2026-08-09T09:05:54.000Z</time>
</trkpt>
<trkpt lat="46.3769736" lon="13.9177542">
<ele>1920.94</ele>
<time>2026-08-09T09:06:08.000Z</time>
</trkpt>
<trkpt lat="46.3770852" lon="13.9175401">
<ele>1916.94</ele>
<time>2026-08-09T09:06:22.000Z</time>
</trkpt>
<trkpt lat="46.3771610" lon="13.9172951">
<ele>1912.55</ele>
<time>2026-08-09T09:06:34.000Z</time>
</trkpt>
<trkpt lat="46.3770543" lon="13.9170783">
<ele>1914.22</ele>
<time>2026-08-09T09:06:48.000Z</time>
</trkpt>
<trkpt lat="46.3769797" lon="13.9168372">
<ele>1905.66</ele>
<time>2026-08-09T09:07:07.000Z</time>
</trkpt>
<trkpt lat="46.3769214" lon="13.9165878">
<ele>1905.01</ele>
<time>2026-08-09T09:07:23.000Z</time>
</trkpt>
<trkpt lat="46.3768359" lon="13.9163545">
<ele>1902.49</ele>
<time>2026-08-09T09:07:41.000Z</time>
</trkpt>
<trkpt lat="46.3766651" lon="13.9162619">
<ele>1892.48</ele>
<time>2026-08-09T09:08:11.000Z</time>
</trkpt>
<trkpt lat="46.3766572" lon="13.9159941">
<ele>1888.01</ele>
<time>2026-08-09T09:08:34.000Z</time>
</trkpt>
<trkpt lat="46.3764973" lon="13.9158727">
<ele>1878.88</ele>
<time>2026-08-09T09:09:13.000Z</time>
</trkpt>
<trkpt lat="46.3763556" lon="13.9156992">
<ele>1873.23</ele>
<time>2026-08-09T09:09:27.000Z</time>
</trkpt>
<trkpt lat="46.3763039" lon="13.9154479">
<ele>1875.30</ele>
<time>2026-08-09T09:09:42.000Z</time>
</trkpt>
<trkpt lat="46.3762269" lon="13.9152109">
<ele>1875.17</ele>
<time>2026-08-09T09:09:59.000Z</time>
</trkpt>
<trkpt lat="46.3762268" lon="13.9149492">
<ele>1873.20</ele>
<time>2026-08-09T09:10:24.000Z</time>
</trkpt>
<trkpt lat="46.3761269" lon="13.9147317">
<ele>1872.53</ele>
<time>2026-08-09T09:10:53.000Z</time>
</trkpt>
<trkpt lat="46.3761147" lon="13.9144648">
<ele>1872.37</ele>
<time>2026-08-09T09:11:08.000Z</time>
</trkpt>
<trkpt lat="46.3759899" lon="13.9142688">
<ele>1870.62</ele>
<time>2026-08-09T09:11:20.000Z</time>
</trkpt>
<trkpt lat="46.3758183" lon="13.9141844">
<ele>1866.69</ele>
<time>2026-08-09T09:11:32.000Z</time>
</trkpt>
<trkpt lat="46.3756516" lon="13.9140824">
<ele>1864.89</ele>
<time>2026-08-09T09:11:42.000Z</time>
</trkpt>
<trkpt lat="46.3755122" lon="13.9139113">
<ele>1861.73</ele>
<time>2026-08-09T09:11:54.000Z</time>
</trkpt>
<trkpt lat="46.3753286" lon="13.9139204">
<ele>1861.61</ele>
<time>2026-08-09T09:13:05.000Z</time>
</trkpt>
<trkpt lat="46.3751488" lon="13.9139915">
<ele>1863.70</ele>
<time>2026-08-09T09:13:23.000Z</time>
</trkpt>
<trkpt lat="46.3749686" lon="13.9139382">
<ele>1861.67</ele>
<time>2026-08-09T09:13:38.000Z</time>
</trkpt>
<trkpt lat="46.3747796" lon="13.9138980">
<ele>1859.53</ele>
<time>2026-08-09T09:13:53.000Z</time>
</trkpt>
<trkpt lat="46.3746125" lon="13.9137664">
<ele>1863.87</ele>
<time>2026-08-09T09:14:11.000Z</time>
</trkpt>
<trkpt lat="46.3744747" lon="13.9135729">
<ele>1865.65</ele>
<time>2026-08-09T09:14:29.000Z</time>
</trkpt>
<trkpt lat="46.3743367" lon="13.9134041">
<ele>1865.28</ele>
<time>2026-08-09T09:14:42.000Z</time>
</trkpt>
<trkpt lat="46.3741686" lon="13.9133012">
<ele>1864.44</ele>
<time>2026-08-09T09:14:58.000Z</time>
</trkpt>
<trkpt lat="46.3740264" lon="13.9131411">
<ele>1864.51</ele>
<time>2026-08-09T09:15:12.000Z</time>
</trkpt>
<trkpt lat="46.3738596" lon="13.9132502">
<ele>1864.39</ele>
<time>2026-08-09T09:15:23.000Z</time>
</trkpt>
<trkpt lat="46.3736914" lon="13.9131216">
<ele>1864.82</ele>
<time>2026-08-09T09:15:36.000Z</time>
</trkpt>
<trkpt lat="46.3735922" lon="13.9128880">
<ele>1870.70</ele>
<time>2026-08-09T09:16:20.000Z</time>
</trkpt>
<trkpt lat="46.3734215" lon="13.9127754">
<ele>1875.17</ele>
<time>2026-08-09T09:16:37.000Z</time>
</trkpt>
<trkpt lat="46.3732469" lon="13.9126790">
<ele>1880.07</ele>
<time>2026-08-09T09:16:58.000Z</time>
</trkpt>
<trkpt lat="46.3730955" lon="13.9125298">
<ele>1884.86</ele>
<time>2026-08-09T09:17:19.000Z</time>
</trkpt>
<trkpt lat="46.3729323" lon="13.9124037">
<ele>1889.95</ele>
<time>2026-08-09T09:17:37.000Z</time>
</trkpt>
<trkpt lat="46.3728154" lon="13.9121851">
<ele>1888.65</ele>
<time>2026-08-09T09:18:05.000Z</time>
</trkpt>
<trkpt lat="46.3727201" lon="13.9119485">
<ele>1893.03</ele>
<time>2026-08-09T09:18:19.000Z</time>
</trkpt>
<trkpt lat="46.3726435" lon="13.9116999">
<ele>1894.09</ele>
<time>2026-08-09T09:18:34.000Z</time>
</trkpt>
<trkpt lat="46.3727004" lon="13.9114429">
<ele>1900.35</ele>
<time>2026-08-09T09:18:53.000Z</time>
</trkpt>
<trkpt lat="46.3727956" lon="13.9112157">
<ele>1910.83</ele>
<time>2026-08-09T09:19:19.000Z</time>
</trkpt>
<trkpt lat="46.3729523" lon="13.9110712">
<ele>1916.38</ele>
<time>2026-08-09T09:19:38.000Z</time>
</trkpt>
<trkpt lat="46.3729771" lon="13.9108106">
<ele>1923.11</ele>
<time>2026-08-09T09:20:00.000Z</time>
</trkpt>
<trkpt lat="46.3729373" lon="13.9105534">
<ele>1926.13</ele>
<time>2026-08-09T09:20:23.000Z</time>
</trkpt>
<trkpt lat="46.3728106" lon="13.9103663">
<ele>1928.32</ele>
<time>2026-08-09T09:20:37.000Z</time>
</trkpt>
<trkpt lat="46.3726932" lon="13.9101554">
<ele>1929.92</ele>
<time>2026-08-09T09:20:53.000Z</time>
</trkpt>
<trkpt lat="46.3726003" lon="13.9099106">
<ele>1937.18</ele>
<time>2026-08-09T09:21:08.000Z</time>
</trkpt>
<trkpt lat="46.3724594" lon="13.9097383">
<ele>1943.19</ele>
<time>2026-08-09T09:21:24.000Z</time>
</trkpt>
<trkpt lat="46.3724341" lon="13.9094718">
<ele>1951.39</ele>
<time>2026-08-09T09:21:53.000Z</time>
</trkpt>
<trkpt lat="46.3724040" lon="13.9092046">
<ele>1954.53</ele>
<time>2026-08-09T09:22:12.000Z</time>
</trkpt>
<trkpt lat="46.3723836" lon="13.9089392">
<ele>1962.37</ele>
<time>2026-08-09T09:24:01.000Z</time>
</trkpt>
<trkpt lat="46.3722022" lon="13.9089120">
<ele>1956.00</ele>
<time>2026-08-09T09:29:29.000Z</time>
</trkpt>
<trkpt lat="46.3720880" lon="13.9091157">
<ele>1948.89</ele>
<time>2026-08-09T09:29:55.000Z</time>
</trkpt>
<trkpt lat="46.3719968" lon="13.9093591">
<ele>1937.38</ele>
<time>2026-08-09T09:31:02.000Z</time>
</trkpt>
<trkpt lat="46.3719582" lon="13.9096238">
<ele>1932.36</ele>
<time>2026-08-09T09:31:25.000Z</time>
</trkpt>
<trkpt lat="46.3720472" lon="13.9098695">
<ele>1929.30</ele>
<time>2026-08-09T09:31:38.000Z</time>
</trkpt>
<trkpt lat="46.3721414" lon="13.9101000">
<ele>1925.95</ele>
<time>2026-08-09T09:32:16.000Z</time>
</trkpt>
<trkpt lat="46.3722408" lon="13.9103336">
<ele>1922.09</ele>
<time>2026-08-09T09:32:29.000Z</time>
</trkpt>
<trkpt lat="46.3723890" lon="13.9104873">
<ele>1920.87</ele>
<time>2026-08-09T09:32:42.000Z</time>
</trkpt>
<trkpt lat="46.3725643" lon="13.9105849">
<ele>1918.38</ele>
<time>2026-08-09T09:33:03.000Z</time>
</trkpt>
<trkpt lat="46.3726818" lon="13.9107942">
<ele>1916.59</ele>
<time>2026-08-09T09:33:16.000Z</time>
</trkpt>
<trkpt lat="46.3727984" lon="13.9110054">
<ele>1914.85</ele>
<time>2026-08-09T09:33:33.000Z</time>
</trkpt>
<trkpt lat="46.3727417" lon="13.9112557">
<ele>1908.97</ele>
<time>2026-08-09T09:34:12.000Z</time>
</trkpt>
<trkpt lat="46.3726582" lon="13.9114879">
<ele>1900.79</ele>
<time>2026-08-09T09:34:32.000Z</time>
</trkpt>
<trkpt lat="46.3726467" lon="13.9117601">
<ele>1894.40</ele>
<time>2026-08-09T09:34:51.000Z</time>
</trkpt>
<trkpt lat="46.3727264" lon="13.9119970">
<ele>1894.06</ele>
<time>2026-08-09T09:35:08.000Z</time>
</trkpt>
<trkpt lat="46.3728302" lon="13.9122295">
<ele>1890.80</ele>
<time>2026-08-09T09:35:24.000Z</time>
</trkpt>
<trkpt lat="46.3729309" lon="13.9124618">
<ele>1888.64</ele>
<time>2026-08-09T09:35:42.000Z</time>
</trkpt>
<trkpt lat="46.3731023" lon="13.9125721">
<ele>1887.17</ele>
<time>2026-08-09T09:36:37.000Z</time>
</trkpt>
<trkpt lat="46.3732679" lon="13.9127146">
<ele>1880.72</ele>
<time>2026-08-09T09:36:53.000Z</time>
</trkpt>
<trkpt lat="46.3734583" lon="13.9127941">
<ele>1875.49</ele>
<time>2026-08-09T09:37:05.000Z</time>
</trkpt>
<trkpt lat="46.3736165" lon="13.9129512">
<ele>1868.16</ele>
<time>2026-08-09T09:37:20.000Z</time>
</trkpt>
<trkpt lat="46.3737308" lon="13.9131726">
<ele>1865.36</ele>
<time>2026-08-09T09:37:34.000Z</time>
</trkpt>
<trkpt lat="46.3739050" lon="13.9132484">
<ele>1867.30</ele>
<time>2026-08-09T09:37:50.000Z</time>
</trkpt>
<trkpt lat="46.3740815" lon="13.9131420">
<ele>1866.92</ele>
<time>2026-08-09T09:38:04.000Z</time>
</trkpt>
<trkpt lat="46.3741927" lon="13.9133577">
<ele>1866.30</ele>
<time>2026-08-09T09:38:37.000Z</time>
</trkpt>
<trkpt lat="46.3743629" lon="13.9134588">
<ele>1865.72</ele>
<time>2026-08-09T09:38:59.000Z</time>
</trkpt>
<trkpt lat="46.3743330" lon="13.9137168">
<ele>1859.34</ele>
<time>2026-08-09T09:40:02.000Z</time>
</trkpt>
<trkpt lat="46.3743746" lon="13.9139766">
<ele>1859.87</ele>
<time>2026-08-09T09:40:23.000Z</time>
</trkpt>
<trkpt lat="46.3745587" lon="13.9140663">
<ele>1857.71</ele>
<time>2026-08-09T09:41:03.000Z</time>
</trkpt>
<trkpt lat="46.3747334" lon="13.9141526">
<ele>1854.73</ele>
<time>2026-08-09T09:41:20.000Z</time>
</trkpt>
<trkpt lat="46.3748849" lon="13.9143223">
<ele>1853.42</ele>
<time>2026-08-09T09:41:42.000Z</time>
</trkpt>
<trkpt lat="46.3750338" lon="13.9144834">
<ele>1848.71</ele>
<time>2026-08-09T09:41:59.000Z</time>
</trkpt>
<trkpt lat="46.3751549" lon="13.9146953">
<ele>1841.80</ele>
<time>2026-08-09T09:42:19.000Z</time>
</trkpt>
<trkpt lat="46.3752670" lon="13.9149161">
<ele>1840.34</ele>
<time>2026-08-09T09:42:35.000Z</time>
</trkpt>
<trkpt lat="46.3754471" lon="13.9149913">
<ele>1842.39</ele>
<time>2026-08-09T09:42:57.000Z</time>
</trkpt>
<trkpt lat="46.3755654" lon="13.9152143">
<ele>1839.61</ele>
<time>2026-08-09T09:43:45.000Z</time>
</trkpt>
<trkpt lat="46.3756710" lon="13.9154449">
<ele>1836.99</ele>
<time>2026-08-09T09:43:58.000Z</time>
</trkpt>
<trkpt lat="46.3757473" lon="13.9156949">
<ele>1838.22</ele>
<time>2026-08-09T09:44:13.000Z</time>
</trkpt>
<trkpt lat="46.3758027" lon="13.9159483">
<ele>1839.67</ele>
<time>2026-08-09T09:44:24.000Z</time>
</trkpt>
<trkpt lat="46.3757537" lon="13.9162101">
<ele>1838.24</ele>
<time>2026-08-09T09:44:37.000Z</time>
</trkpt>
<trkpt lat="46.3755689" lon="13.9161583">
<ele>1832.39</ele>
<time>2026-08-09T09:45:34.000Z</time>
</trkpt>
<trkpt lat="46.3754301" lon="13.9163353">
<ele>1825.25</ele>
<time>2026-08-09T09:46:00.000Z</time>
</trkpt>
<trkpt lat="46.3752531" lon="13.9164163">
<ele>1817.92</ele>
<time>2026-08-09T09:46:17.000Z</time>
</trkpt>
<trkpt lat="46.3750813" lon="13.9165186">
<ele>1810.92</ele>
<time>2026-08-09T09:46:39.000Z</time>
</trkpt>
<trkpt lat="46.3749126" lon="13.9166145">
<ele>1806.92</ele>
<time>2026-08-09T09:46:57.000Z</time>
</trkpt>
<trkpt lat="46.3747459" lon="13.9167214">
<ele>1801.67</ele>
<time>2026-08-09T09:47:29.000Z</time>
</trkpt>
<trkpt lat="46.3746035" lon="13.9168850">
<ele>1798.80</ele>
<time>2026-08-09T09:47:51.000Z</time>
</trkpt>
<trkpt lat="46.3744257" lon="13.9169581">
<ele>1793.66</ele>
<time>2026-08-09T09:48:20.000Z</time>
</trkpt>
<trkpt lat="46.3743231" lon="13.9171792">
<ele>1792.05</ele>
<time>2026-08-09T09:48:47.000Z</time>
</trkpt>
<trkpt lat="46.3742134" lon="13.9173867">
<ele>1789.92</ele>
<time>2026-08-09T09:49:30.000Z</time>
</trkpt>
<trkpt lat="46.3740728" lon="13.9175643">
<ele>1791.03</ele>
<time>2026-08-09T09:49:53.000Z</time>
</trkpt>
<trkpt lat="46.3739115" lon="13.9176940">
<ele>1786.71</ele>
<time>2026-08-09T09:50:14.000Z</time>
</trkpt>
<trkpt lat="46.3737660" lon="13.9178576">
<ele>1779.64</ele>
<time>2026-08-09T09:50:44.000Z</time>
</trkpt>
<trkpt lat="46.3736457" lon="13.9180527">
<ele>1775.14</ele>
<time>2026-08-09T09:51:03.000Z</time>
</trkpt>
<trkpt lat="46.3734962" lon="13.9182094">
<ele>1776.67</ele>
<time>2026-08-09T09:51:19.000Z</time>
</trkpt>
<trkpt lat="46.3733140" lon="13.9182320">
<ele>1769.86</ele>
<time>2026-08-09T09:51:45.000Z</time>
</trkpt>
<trkpt lat="46.3731388" lon="13.9183047">
<ele>1766.46</ele>
<time>2026-08-09T09:52:13.000Z</time>
</trkpt>
<trkpt lat="46.3729582" lon="13.9183795">
<ele>1762.13</ele>
<time>2026-08-09T09:52:27.000Z</time>
</trkpt>
<trkpt lat="46.3727833" lon="13.9184606">
<ele>1758.34</ele>
<time>2026-08-09T09:52:41.000Z</time>
</trkpt>
<trkpt lat="46.3726026" lon="13.9185362">
<ele>1752.62</ele>
<time>2026-08-09T09:53:10.000Z</time>
</trkpt>
<trkpt lat="46.3724610" lon="13.9186977">
<ele>1751.29</ele>
<time>2026-08-09T09:53:26.000Z</time>
</trkpt>
<trkpt lat="46.3722721" lon="13.9187398">
<ele>1745.24</ele>
<time>2026-08-09T09:54:03.000Z</time>
</trkpt>
<trkpt lat="46.3720928" lon="13.9186863">
<ele>1744.87</ele>
<time>2026-08-09T09:54:16.000Z</time>
</trkpt>
<trkpt lat="46.3719074" lon="13.9186207">
<ele>1743.46</ele>
<time>2026-08-09T09:54:36.000Z</time>
</trkpt>
<trkpt lat="46.3717352" lon="13.9185212">
<ele>1739.29</ele>
<time>2026-08-09T09:54:49.000Z</time>
</trkpt>
<trkpt lat="46.3715585" lon="13.9184671">
<ele>1734.93</ele>
<time>2026-08-09T09:55:06.000Z</time>
</trkpt>
<trkpt lat="46.3713721" lon="13.9184349">
<ele>1733.72</ele>
<time>2026-08-09T09:55:22.000Z</time>
</trkpt>
<trkpt lat="46.3712038" lon="13.9185383">
<ele>1731.71</ele>
<time>2026-08-09T09:55:40.000Z</time>
</trkpt>
<trkpt lat="46.3710428" lon="13.9186749">
<ele>1735.27</ele>
<time>2026-08-09T09:55:59.000Z</time>
</trkpt>
<trkpt lat="46.3708702" lon="13.9187741">
<ele>1734.85</ele>
<time>2026-08-09T09:56:21.000Z</time>
</trkpt>
<trkpt lat="46.3706945" lon="13.9188535">
<ele>1741.31</ele>
<time>2026-08-09T09:56:47.000Z</time>
</trkpt>
<trkpt lat="46.3705221" lon="13.9189600">
<ele>1738.34</ele>
<time>2026-08-09T09:57:18.000Z</time>
</trkpt>
<trkpt lat="46.3703392" lon="13.9190125">
<ele>1742.77</ele>
<time>2026-08-09T09:57:33.000Z</time>
</trkpt>
<trkpt lat="46.3701717" lon="13.9191223">
<ele>1744.46</ele>
<time>2026-08-09T09:57:50.000Z</time>
</trkpt>
<trkpt lat="46.3700148" lon="13.9192600">
<ele>1751.36</ele>
<time>2026-08-09T09:58:10.000Z</time>
</trkpt>
<trkpt lat="46.3698424" lon="13.9193604">
<ele>1752.68</ele>
<time>2026-08-09T09:58:26.000Z</time>
</trkpt>
<trkpt lat="46.3697061" lon="13.9195307">
<ele>1756.14</ele>
<time>2026-08-09T09:58:42.000Z</time>
</trkpt>
<trkpt lat="46.3696170" lon="13.9197574">
<ele>1757.12</ele>
<time>2026-08-09T09:58:57.000Z</time>
</trkpt>
<trkpt lat="46.3695910" lon="13.9200268">
<ele>1755.68</ele>
<time>2026-08-09T09:59:13.000Z</time>
</trkpt>
<trkpt lat="46.3696718" lon="13.9202711">
<ele>1754.19</ele>
<time>2026-08-09T09:59:27.000Z</time>
</trkpt>
<trkpt lat="46.3697429" lon="13.9205164">
<ele>1754.37</ele>
<time>2026-08-09T09:59:43.000Z</time>
</trkpt>
<trkpt lat="46.3698992" lon="13.9206736">
<ele>1754.58</ele>
<time>2026-08-09T10:00:00.000Z</time>
</trkpt>
<trkpt lat="46.3700538" lon="13.9208112">
<ele>1752.96</ele>
<time>2026-08-09T10:00:14.000Z</time>
</trkpt>
<trkpt lat="46.3701581" lon="13.9210296">
<ele>1750.41</ele>
<time>2026-08-09T10:00:34.000Z</time>
</trkpt>
<trkpt lat="46.3703017" lon="13.9211977">
<ele>1751.81</ele>
<time>2026-08-09T10:01:13.000Z</time>
</trkpt>
<trkpt lat="46.3704354" lon="13.9213746">
<ele>1751.05</ele>
<time>2026-08-09T10:01:31.000Z</time>
</trkpt>
<trkpt lat="46.3706151" lon="13.9214364">
<ele>1754.47</ele>
<time>2026-08-09T10:01:51.000Z</time>
</trkpt>
<trkpt lat="46.3707919" lon="13.9213796">
<ele>1755.27</ele>
<time>2026-08-09T10:02:11.000Z</time>
</trkpt>
<trkpt lat="46.3709752" lon="13.9213941">
<ele>1765.62</ele>
<time>2026-08-09T10:02:37.000Z</time>
</trkpt>
<trkpt lat="46.3711565" lon="13.9213663">
<ele>1768.66</ele>
<time>2026-08-09T10:03:00.000Z</time>
</trkpt>
<trkpt lat="46.3713137" lon="13.9215066">
<ele>1763.60</ele>
<time>2026-08-09T10:03:23.000Z</time>
</trkpt>
<trkpt lat="46.3713632" lon="13.9217701">
<ele>1760.32</ele>
<time>2026-08-09T10:03:34.000Z</time>
</trkpt>
<trkpt lat="46.3714936" lon="13.9219676">
<ele>1758.67</ele>
<time>2026-08-09T10:03:46.000Z</time>
</trkpt>
<trkpt lat="46.3716421" lon="13.9221308">
<ele>1757.38</ele>
<time>2026-08-09T10:04:01.000Z</time>
</trkpt>
<trkpt lat="46.3718021" lon="13.9222566">
<ele>1755.42</ele>
<time>2026-08-09T10:04:10.000Z</time>
</trkpt>
<trkpt lat="46.3716701" lon="13.9224401">
<ele>1753.86</ele>
<time>2026-08-09T10:04:26.000Z</time>
</trkpt>
<trkpt lat="46.3717144" lon="13.9226933">
<ele>1745.40</ele>
<time>2026-08-09T10:04:41.000Z</time>
</trkpt>
<trkpt lat="46.3716935" lon="13.9229747">
<ele>1745.11</ele>
<time>2026-08-09T10:04:50.000Z</time>
</trkpt>
<trkpt lat="46.3717713" lon="13.9232301">
<ele>1744.09</ele>
<time>2026-08-09T10:05:02.000Z</time>
</trkpt>
<trkpt lat="46.3719156" lon="13.9234220">
<ele>1739.17</ele>
<time>2026-08-09T10:05:16.000Z</time>
</trkpt>
<trkpt lat="46.3720591" lon="13.9235836">
<ele>1734.54</ele>
<time>2026-08-09T10:05:27.000Z</time>
</trkpt>
<trkpt lat="46.3721551" lon="13.9238181">
<ele>1734.13</ele>
<time>2026-08-09T10:05:41.000Z</time>
</trkpt>
<trkpt lat="46.3723286" lon="13.9239299">
<ele>1727.66</ele>
<time>2026-08-09T10:05:55.000Z</time>
</trkpt>
<trkpt lat="46.3724997" lon="13.9240384">
<ele>1724.11</ele>
<time>2026-08-09T10:06:08.000Z</time>
</trkpt>
<trkpt lat="46.3726734" lon="13.9241178">
<ele>1723.67</ele>
<time>2026-08-09T10:06:21.000Z</time>
</trkpt>
<trkpt lat="46.3728553" lon="13.9240875">
<ele>1720.70</ele>
<time>2026-08-09T10:06:34.000Z</time>
</trkpt>
<trkpt lat="46.3730337" lon="13.9240309">
<ele>1718.85</ele>
<time>2026-08-09T10:06:45.000Z</time>
</trkpt>
<trkpt lat="46.3732199" lon="13.9240209">
<ele>1720.19</ele>
<time>2026-08-09T10:07:00.000Z</time>
</trkpt>
<trkpt lat="46.3734052" lon="13.9239978">
<ele>1724.19</ele>
<time>2026-08-09T10:07:16.000Z</time>
</trkpt>
<trkpt lat="46.3735604" lon="13.9241591">
<ele>1726.57</ele>
<time>2026-08-09T10:07:33.000Z</time>
</trkpt>
<trkpt lat="46.3737264" lon="13.9242877">
<ele>1725.27</ele>
<time>2026-08-09T10:07:49.000Z</time>
</trkpt>
<trkpt lat="46.3739101" lon="13.9243379">
<ele>1723.72</ele>
<time>2026-08-09T10:08:18.000Z</time>
</trkpt>
<trkpt lat="46.3740838" lon="13.9244195">
<ele>1719.44</ele>
<time>2026-08-09T10:08:33.000Z</time>
</trkpt>
<trkpt lat="46.3741426" lon="13.9246740">
<ele>1713.91</ele>
<time>2026-08-09T10:08:51.000Z</time>
</trkpt>
<trkpt lat="46.3742611" lon="13.9248793">
<ele>1705.52</ele>
<time>2026-08-09T10:09:09.000Z</time>
</trkpt>
<trkpt lat="46.3743303" lon="13.9251290">
<ele>1698.22</ele>
<time>2026-08-09T10:09:24.000Z</time>
</trkpt>
<trkpt lat="46.3743874" lon="13.9253914">
<ele>1694.04</ele>
<time>2026-08-09T10:09:37.000Z</time>
</trkpt>
<trkpt lat="46.3744572" lon="13.9256322">
<ele>1689.28</ele>
<time>2026-08-09T10:09:49.000Z</time>
</trkpt>
<trkpt lat="46.3745559" lon="13.9258546">
<ele>1684.84</ele>
<time>2026-08-09T10:10:00.000Z</time>
</trkpt>
<trkpt lat="46.3745631" lon="13.9261373">
<ele>1683.37</ele>
<time>2026-08-09T10:10:13.000Z</time>
</trkpt>
<trkpt lat="46.3745862" lon="13.9263975">
<ele>1681.45</ele>
<time>2026-08-09T10:10:27.000Z</time>
</trkpt>
<trkpt lat="46.3745072" lon="13.9266398">
<ele>1678.86</ele>
<time>2026-08-09T10:10:39.000Z</time>
</trkpt>
<trkpt lat="46.3744981" lon="13.9269174">
<ele>1672.93</ele>
<time>2026-08-09T10:10:54.000Z</time>
</trkpt>
<trkpt lat="46.3745132" lon="13.9271785">
<ele>1669.58</ele>
<time>2026-08-09T10:11:05.000Z</time>
</trkpt>
<trkpt lat="46.3744135" lon="13.9274116">
<ele>1668.51</ele>
<time>2026-08-09T10:11:18.000Z</time>
</trkpt>
<trkpt lat="46.3744472" lon="13.9276771">
<ele>1659.33</ele>
<time>2026-08-09T10:11:40.000Z</time>
</trkpt>
<trkpt lat="46.3746210" lon="13.9275848">
<ele>1656.35</ele>
<time>2026-08-09T10:11:54.000Z</time>
</trkpt>
<trkpt lat="46.3747480" lon="13.9273747">
<ele>1652.23</ele>
<time>2026-08-09T10:12:06.000Z</time>
</trkpt>
<trkpt lat="46.3748796" lon="13.9271937">
<ele>1652.07</ele>
<time>2026-08-09T10:12:16.000Z</time>
</trkpt>
<trkpt lat="46.3750297" lon="13.9270128">
<ele>1648.08</ele>
<time>2026-08-09T10:12:28.000Z</time>
</trkpt>
<trkpt lat="46.3751289" lon="13.9272381">
<ele>1639.26</ele>
<time>2026-08-09T10:13:18.000Z</time>
</trkpt>
<trkpt lat="46.3751745" lon="13.9275015">
<ele>1635.78</ele>
<time>2026-08-09T10:13:30.000Z</time>
</trkpt>
<trkpt lat="46.3752813" lon="13.9277337">
<ele>1632.24</ele>
<time>2026-08-09T10:13:44.000Z</time>
</trkpt>
<trkpt lat="46.3753232" lon="13.9279932">
<ele>1628.90</ele>
<time>2026-08-09T10:14:00.000Z</time>
</trkpt>
<trkpt lat="46.3752083" lon="13.9282154">
<ele>1626.15</ele>
<time>2026-08-09T10:14:12.000Z</time>
</trkpt>
<trkpt lat="46.3750883" lon="13.9284159">
<ele>1621.96</ele>
<time>2026-08-09T10:14:37.000Z</time>
</trkpt>
<trkpt lat="46.3749065" lon="13.9284965">
<ele>1619.12</ele>
<time>2026-08-09T10:14:51.000Z</time>
</trkpt>
<trkpt lat="46.3747251" lon="13.9285660">
<ele>1615.95</ele>
<time>2026-08-09T10:15:04.000Z</time>
</trkpt>
<trkpt lat="46.3745596" lon="13.9287045">
<ele>1612.07</ele>
<time>2026-08-09T10:19:50.000Z</time>
</trkpt>
<trkpt lat="46.3743832" lon="13.9288254">
<ele>1609.67</ele>
<time>2026-08-09T10:20:03.000Z</time>
</trkpt>
<trkpt lat="46.3741904" lon="13.9288813">
<ele>1607.55</ele>
<time>2026-08-09T10:20:19.000Z</time>
</trkpt>
<trkpt lat="46.3740139" lon="13.9289743">
<ele>1608.04</ele>
<time>2026-08-09T10:20:32.000Z</time>
</trkpt>
<trkpt lat="46.3741618" lon="13.9291484">
<ele>1603.73</ele>
<time>2026-08-09T10:20:46.000Z</time>
</trkpt>
<trkpt lat="46.3743296" lon="13.9292663">
<ele>1601.13</ele>
<time>2026-08-09T10:20:54.000Z</time>
</trkpt>
<trkpt lat="46.3745049" lon="13.9291806">
<ele>1593.58</ele>
<time>2026-08-09T10:21:23.000Z</time>
</trkpt>
<trkpt lat="46.3747034" lon="13.9292215">
<ele>1591.29</ele>
<time>2026-08-09T10:21:34.000Z</time>
</trkpt>
<trkpt lat="46.3747847" lon="13.9294567">
<ele>1587.78</ele>
<time>2026-08-09T10:21:47.000Z</time>
</trkpt>
<trkpt lat="46.3747936" lon="13.9297310">
<ele>1583.61</ele>
<time>2026-08-09T10:22:00.000Z</time>
</trkpt>
<trkpt lat="46.3748188" lon="13.9299974">
<ele>1581.57</ele>
<time>2026-08-09T10:22:10.000Z</time>
</trkpt>
<trkpt lat="46.3748689" lon="13.9302595">
<ele>1578.73</ele>
<time>2026-08-09T10:22:20.000Z</time>
</trkpt>
<trkpt lat="46.3747952" lon="13.9305018">
<ele>1572.53</ele>
<time>2026-08-09T10:22:33.000Z</time>
</trkpt>
<trkpt lat="46.3746958" lon="13.9307496">
<ele>1570.80</ele>
<time>2026-08-09T10:22:45.000Z</time>
</trkpt>
<trkpt lat="46.3746092" lon="13.9309944">
<ele>1571.95</ele>
<time>2026-08-09T10:22:53.000Z</time>
</trkpt>
<trkpt lat="46.3745057" lon="13.9312374">
<ele>1568.67</ele>
<time>2026-08-09T10:23:02.000Z</time>
</trkpt>
<trkpt lat="46.3743359" lon="13.9313407">
<ele>1567.79</ele>
<time>2026-08-09T10:23:11.000Z</time>
</trkpt>
<trkpt lat="46.3741613" lon="13.9314784">
<ele>1566.74</ele>
<time>2026-08-09T10:23:17.000Z</time>
</trkpt>
<trkpt lat="46.3739837" lon="13.9315761">
<ele>1562.07</ele>
<time>2026-08-09T10:23:27.000Z</time>
</trkpt>
<trkpt lat="46.3738087" lon="13.9316785">
<ele>1556.00</ele>
<time>2026-08-09T10:23:35.000Z</time>
</trkpt>
<trkpt lat="46.3736478" lon="13.9318031">
<ele>1547.43</ele>
<time>2026-08-09T10:23:42.000Z</time>
</trkpt>
<trkpt lat="46.3734779" lon="13.9318889">
<ele>1543.98</ele>
<time>2026-08-09T10:23:51.000Z</time>
</trkpt>
<trkpt lat="46.3733548" lon="13.9320881">
<ele>1546.17</ele>
<time>2026-08-09T10:24:00.000Z</time>
</trkpt>
<trkpt lat="46.3731965" lon="13.9322292">
<ele>1537.64</ele>
<time>2026-08-09T10:24:18.000Z</time>
</trkpt>
<trkpt lat="46.3730752" lon="13.9324499">
<ele>1528.43</ele>
<time>2026-08-09T10:24:40.000Z</time>
</trkpt>
<trkpt lat="46.3730061" lon="13.9327077">
<ele>1515.11</ele>
<time>2026-08-09T10:25:01.000Z</time>
</trkpt>
<trkpt lat="46.3728882" lon="13.9329114">
<ele>1514.22</ele>
<time>2026-08-09T10:25:20.000Z</time>
</trkpt>
<trkpt lat="46.3727425" lon="13.9330899">
<ele>1506.10</ele>
<time>2026-08-09T10:25:38.000Z</time>
</trkpt>
<trkpt lat="46.3726405" lon="13.9333067">
<ele>1496.66</ele>
<time>2026-08-09T10:25:49.000Z</time>
</trkpt>
<trkpt lat="46.3725149" lon="13.9335181">
<ele>1490.21</ele>
<time>2026-08-09T10:26:01.000Z</time>
</trkpt>
<trkpt lat="46.3723319" lon="13.9335769">
<ele>1482.81</ele>
<time>2026-08-09T10:26:17.000Z</time>
</trkpt>
<trkpt lat="46.3721359" lon="13.9335216">
<ele>1475.08</ele>
<time>2026-08-09T10:26:31.000Z</time>
</trkpt>
<trkpt lat="46.3719496" lon="13.9335427">
<ele>1469.10</ele>
<time>2026-08-09T10:26:41.000Z</time>
</trkpt>
<trkpt lat="46.3717586" lon="13.9335799">
<ele>1464.85</ele>
<time>2026-08-09T10:26:52.000Z</time>
</trkpt>
<trkpt lat="46.3715756" lon="13.9335892">
<ele>1462.87</ele>
<time>2026-08-09T10:27:01.000Z</time>
</trkpt>
<trkpt lat="46.3713959" lon="13.9336279">
<ele>1459.79</ele>
<time>2026-08-09T10:27:13.000Z</time>
</trkpt>
<trkpt lat="46.3712781" lon="13.9338250">
<ele>1455.86</ele>
<time>2026-08-09T10:27:26.000Z</time>
</trkpt>
<trkpt lat="46.3710943" lon="13.9338323">
<ele>1454.19</ele>
<time>2026-08-09T10:27:43.000Z</time>
</trkpt>
<trkpt lat="46.3709014" lon="13.9338139">
<ele>1454.73</ele>
<time>2026-08-09T10:27:54.000Z</time>
</trkpt>
<trkpt lat="46.3707095" lon="13.9337933">
<ele>1447.59</ele>
<time>2026-08-09T10:28:07.000Z</time>
</trkpt>
<trkpt lat="46.3705299" lon="13.9338470">
<ele>1444.34</ele>
<time>2026-08-09T10:28:16.000Z</time>
</trkpt>
<trkpt lat="46.3703523" lon="13.9339228">
<ele>1439.01</ele>
<time>2026-08-09T10:28:25.000Z</time>
</trkpt>
<trkpt lat="46.3701582" lon="13.9339042">
<ele>1432.87</ele>
<time>2026-08-09T10:28:36.000Z</time>
</trkpt>
<trkpt lat="46.3699673" lon="13.9340010">
<ele>1429.24</ele>
<time>2026-08-09T10:28:47.000Z</time>
</trkpt>
<trkpt lat="46.3697807" lon="13.9340117">
<ele>1417.09</ele>
<time>2026-08-09T10:29:07.000Z</time>
</trkpt>
<trkpt lat="46.3695943" lon="13.9340261">
<ele>1406.60</ele>
<time>2026-08-09T10:29:28.000Z</time>
</trkpt>
<trkpt lat="46.3694085" lon="13.9339658">
<ele>1410.93</ele>
<time>2026-08-09T10:29:43.000Z</time>
</trkpt>
<trkpt lat="46.3692321" lon="13.9340319">
<ele>1405.56</ele>
<time>2026-08-09T10:29:52.000Z</time>
</trkpt>
<trkpt lat="46.3690524" lon="13.9340464">
<ele>1406.65</ele>
<time>2026-08-09T10:30:03.000Z</time>
</trkpt>
<trkpt lat="46.3688670" lon="13.9340623">
<ele>1399.39</ele>
<time>2026-08-09T10:30:17.000Z</time>
</trkpt>
<trkpt lat="46.3686912" lon="13.9339890">
<ele>1395.89</ele>
<time>2026-08-09T10:30:31.000Z</time>
</trkpt>
<trkpt lat="46.3684979" lon="13.9340040">
<ele>1394.59</ele>
<time>2026-08-09T10:30:43.000Z</time>
</trkpt>
<trkpt lat="46.3683161" lon="13.9339904">
<ele>1390.11</ele>
<time>2026-08-09T10:30:53.000Z</time>
</trkpt>
<trkpt lat="46.3681233" lon="13.9339542">
<ele>1388.49</ele>
<time>2026-08-09T10:31:05.000Z</time>
</trkpt>
<trkpt lat="46.3679276" lon="13.9339688">
<ele>1386.78</ele>
<time>2026-08-09T10:31:17.000Z</time>
</trkpt>
<trkpt lat="46.3677442" lon="13.9339472">
<ele>1380.76</ele>
<time>2026-08-09T10:31:29.000Z</time>
</trkpt>
<trkpt lat="46.3675632" lon="13.9339873">
<ele>1375.65</ele>
<time>2026-08-09T10:31:41.000Z</time>
</trkpt>
<trkpt lat="46.3673806" lon="13.9340253">
<ele>1373.17</ele>
<time>2026-08-09T10:31:49.000Z</time>
</trkpt>
<trkpt lat="46.3671968" lon="13.9340603">
<ele>1357.84</ele>
<time>2026-08-09T10:32:04.000Z</time>
</trkpt>
<trkpt lat="46.3670198" lon="13.9341153">
<ele>1354.24</ele>
<time>2026-08-09T10:32:15.000Z</time>
</trkpt>
<trkpt lat="46.3668323" lon="13.9340969">
<ele>1354.69</ele>
<time>2026-08-09T10:32:25.000Z</time>
</trkpt>
<trkpt lat="46.3666436" lon="13.9340995">
<ele>1358.47</ele>
<time>2026-08-09T10:32:35.000Z</time>
</trkpt>
<trkpt lat="46.3664536" lon="13.9340944">
<ele>1358.09</ele>
<time>2026-08-09T10:32:47.000Z</time>
</trkpt>
<trkpt lat="46.3662712" lon="13.9340892">
<ele>1361.11</ele>
<time>2026-08-09T10:32:58.000Z</time>
</trkpt>
<trkpt lat="46.3660848" lon="13.9341463">
<ele>1356.54</ele>
<time>2026-08-09T10:33:10.000Z</time>
</trkpt>
<trkpt lat="46.3658986" lon="13.9341304">
<ele>1355.54</ele>
<time>2026-08-09T10:33:29.000Z</time>
</trkpt>
<extensions>
<om:oruxmapsextensions>
<om:ext type="NAME" subtype="0"><![CDATA[Segment: 1]]></om:ext>
</om:oruxmapsextensions>
</extensions>
</trkseg>
</trk>
</gpx>
