<?xml version="1.0" encoding="UTF-8" standalone="no" ?>
<gpx xmlns="http://www.topografix.com/GPX/1/1" creator="OruxMaps v.10.7.4 GP" version="1.1" xmlns:gpxtpx="http://www.garmin.com/xmlschemas/TrackPointExtension/v2" xmlns:xsi="http://www.w3.org/2001/XMLSchema-instance" xmlns:om="http://www.oruxmaps.com/oruxmapsextensions/1/0" xsi:schemaLocation="http://www.topografix.com/GPX/1/1 http://www.topografix.com/GPX/1/1/gpx.xsd">
<!-- owner: e57cf051988575 -->
<metadata>
<name><![CDATA[2026-07-19 07:55:29 Palec, Vrtača]]></name>
<link href="https://www.oruxmaps.com">
<text>OruxMaps GP</text>
</link>
<time>2026-07-19T05:55:29.555Z</time><bounds maxlat="46.4431701" maxlon="14.2621032" minlat="46.4284982" minlon="14.2101761"/>
</metadata>
<wpt lat="46.4329617" lon="14.2621032">
<ele>1060.33</ele>
<time>2026-07-19T05:55:29.775Z</time>
<name><![CDATA[]]></name>
<sym>Waypoint</sym>
<type>Starting Point</type>
<extensions>
<om:oruxmapsextensions>
<om:ext type="ICON" subtype="0">38</om:ext>
</om:oruxmapsextensions>
</extensions>
</wpt>
<wpt lat="46.4329531" lon="14.2619561">
<ele>1055.13</ele>
<time>2026-07-19T10:24:43.307Z</time>
<name><![CDATA[]]></name>
<desc><![CDATA[<p><br /><h3>Name: Segment: 1</h3><br />Type: Hiking<br/>Start time: 07:55 19 Jul 2026<br/>Finish time: 12:24 19 Jul 2026<br/>Distance: 11.9km (04:29)<br/>Moving time: 03:35<br/>Average speed: 2.64 km/h<br/>Speed in Movement: 3.30 km/h<br/>Maximum Speed: 10.29 km/h<br/>Minimum altitude: 1052 m<br/>Maximum altitude: 2176 m<br/>Ascent speed: 655.7 m/h<br/>Descent speed: 931.3 m/h<br/>Elevation gain: 1379 m<br/>Elevation loss: 1382 m<br/>Ascent time: 02:06<br/>Descent time: 01:29<br/></p>]]></desc>
<sym>Waypoint</sym>
<type>Finishing Point</type>
<extensions>
<om:oruxmapsextensions>
<om:ext type="ICON" subtype="0">15</om:ext>
</om:oruxmapsextensions>
</extensions>
</wpt>
<trk>
<name><![CDATA[2026-07-19 07:55:29 Palec, Vrtača]]></name>
<desc><![CDATA[<p>Type: Hiking<br/>Start time: 07:55 19 Jul 2026<br/>Finish time: 12:24 19 Jul 2026<br/>Distance: 11.9 km (04:29)<br/>Moving time: 03:35<br/>Average speed: 2.64 km/h<br/>Speed in Movement: 3.30 km/h<br/>Maximum Speed: 10.29 km/h<br/>Minimum altitude: 1052 m<br/>Maximum altitude: 2176 m<br/>Ascent speed: 655.7 m/h<br/>Descent speed: 931.3 m/h<br/>Elevation gain: 1379 m<br/>Elevation loss: 1382 m<br/>Ascent time: 02:06<br/>Descent time: 01:29<br/></p><hr align="center" width="480" style="height: 2px; width: 517px"/>]]></desc>
<type>Hiking</type>
<extensions>
<om:oruxmapsextensions>
<om:ext type="TYPE" subtype="0">5</om:ext>
<om:ext type="DIFFICULTY">0</om:ext>
</om:oruxmapsextensions>
</extensions>
<trkseg>
<trkpt lat="46.4329617" lon="14.2621032">
<ele>1060.33</ele>
<time>2026-07-19T05:55:30.000Z</time>
</trkpt>
<trkpt lat="46.4329752" lon="14.2618426">
<ele>1056.93</ele>
<time>2026-07-19T05:56:15.000Z</time>
</trkpt>
<trkpt lat="46.4329781" lon="14.2615707">
<ele>1054.89</ele>
<time>2026-07-19T05:56:27.000Z</time>
</trkpt>
<trkpt lat="46.4329267" lon="14.2613179">
<ele>1052.37</ele>
<time>2026-07-19T05:56:42.000Z</time>
</trkpt>
<trkpt lat="46.4327572" lon="14.2611982">
<ele>1052.59</ele>
<time>2026-07-19T05:56:53.000Z</time>
</trkpt>
<trkpt lat="46.4326184" lon="14.2610009">
<ele>1052.00</ele>
<time>2026-07-19T05:57:04.000Z</time>
</trkpt>
<trkpt lat="46.4325243" lon="14.2607768">
<ele>1059.06</ele>
<time>2026-07-19T05:57:11.000Z</time>
</trkpt>
<trkpt lat="46.4324337" lon="14.2605428">
<ele>1062.31</ele>
<time>2026-07-19T05:57:20.000Z</time>
</trkpt>
<trkpt lat="46.4323699" lon="14.2602852">
<ele>1062.65</ele>
<time>2026-07-19T05:57:33.000Z</time>
</trkpt>
<trkpt lat="46.4322399" lon="14.2600736">
<ele>1063.59</ele>
<time>2026-07-19T05:57:46.000Z</time>
</trkpt>
<trkpt lat="46.4321419" lon="14.2598539">
<ele>1063.09</ele>
<time>2026-07-19T05:57:56.000Z</time>
</trkpt>
<trkpt lat="46.4320465" lon="14.2596234">
<ele>1065.76</ele>
<time>2026-07-19T05:58:09.000Z</time>
</trkpt>
<trkpt lat="46.4319883" lon="14.2593728">
<ele>1070.21</ele>
<time>2026-07-19T05:58:18.000Z</time>
</trkpt>
<trkpt lat="46.4320004" lon="14.2590940">
<ele>1071.37</ele>
<time>2026-07-19T05:58:36.000Z</time>
</trkpt>
<trkpt lat="46.4320502" lon="14.2588370">
<ele>1074.39</ele>
<time>2026-07-19T05:58:50.000Z</time>
</trkpt>
<trkpt lat="46.4320569" lon="14.2585674">
<ele>1078.67</ele>
<time>2026-07-19T05:59:09.000Z</time>
</trkpt>
<trkpt lat="46.4321078" lon="14.2583113">
<ele>1080.45</ele>
<time>2026-07-19T05:59:29.000Z</time>
</trkpt>
<trkpt lat="46.4320916" lon="14.2580351">
<ele>1085.21</ele>
<time>2026-07-19T05:59:53.000Z</time>
</trkpt>
<trkpt lat="46.4320684" lon="14.2577703">
<ele>1089.19</ele>
<time>2026-07-19T06:00:17.000Z</time>
</trkpt>
<trkpt lat="46.4320363" lon="14.2574967">
<ele>1096.51</ele>
<time>2026-07-19T06:00:36.000Z</time>
</trkpt>
<trkpt lat="46.4319863" lon="14.2572367">
<ele>1104.09</ele>
<time>2026-07-19T06:00:59.000Z</time>
</trkpt>
<trkpt lat="46.4319533" lon="14.2569719">
<ele>1104.92</ele>
<time>2026-07-19T06:01:18.000Z</time>
</trkpt>
<trkpt lat="46.4319590" lon="14.2566909">
<ele>1106.91</ele>
<time>2026-07-19T06:01:38.000Z</time>
</trkpt>
<trkpt lat="46.4319747" lon="14.2564209">
<ele>1114.18</ele>
<time>2026-07-19T06:02:00.000Z</time>
</trkpt>
<trkpt lat="46.4320877" lon="14.2562170">
<ele>1122.67</ele>
<time>2026-07-19T06:02:28.000Z</time>
</trkpt>
<trkpt lat="46.4322133" lon="14.2560219">
<ele>1126.16</ele>
<time>2026-07-19T06:02:50.000Z</time>
</trkpt>
<trkpt lat="46.4323339" lon="14.2558168">
<ele>1134.16</ele>
<time>2026-07-19T06:03:16.000Z</time>
</trkpt>
<trkpt lat="46.4324338" lon="14.2555890">
<ele>1139.74</ele>
<time>2026-07-19T06:03:44.000Z</time>
</trkpt>
<trkpt lat="46.4325496" lon="14.2553864">
<ele>1147.34</ele>
<time>2026-07-19T06:04:08.000Z</time>
</trkpt>
<trkpt lat="46.4325729" lon="14.2551183">
<ele>1158.90</ele>
<time>2026-07-19T06:04:40.000Z</time>
</trkpt>
<trkpt lat="46.4325482" lon="14.2548493">
<ele>1164.45</ele>
<time>2026-07-19T06:04:55.000Z</time>
</trkpt>
<trkpt lat="46.4324798" lon="14.2545902">
<ele>1165.53</ele>
<time>2026-07-19T06:05:16.000Z</time>
</trkpt>
<trkpt lat="46.4324002" lon="14.2543505">
<ele>1162.99</ele>
<time>2026-07-19T06:05:38.000Z</time>
</trkpt>
<trkpt lat="46.4323416" lon="14.2540851">
<ele>1167.84</ele>
<time>2026-07-19T06:06:02.000Z</time>
</trkpt>
<trkpt lat="46.4322946" lon="14.2538277">
<ele>1167.79</ele>
<time>2026-07-19T06:06:18.000Z</time>
</trkpt>
<trkpt lat="46.4322808" lon="14.2535507">
<ele>1170.38</ele>
<time>2026-07-19T06:06:36.000Z</time>
</trkpt>
<trkpt lat="46.4321684" lon="14.2533299">
<ele>1177.59</ele>
<time>2026-07-19T06:06:52.000Z</time>
</trkpt>
<trkpt lat="46.4321338" lon="14.2530732">
<ele>1177.49</ele>
<time>2026-07-19T06:07:10.000Z</time>
</trkpt>
<trkpt lat="46.4321089" lon="14.2527954">
<ele>1185.05</ele>
<time>2026-07-19T06:07:33.000Z</time>
</trkpt>
<trkpt lat="46.4320511" lon="14.2525430">
<ele>1183.13</ele>
<time>2026-07-19T06:07:57.000Z</time>
</trkpt>
<trkpt lat="46.4319911" lon="14.2522946">
<ele>1184.86</ele>
<time>2026-07-19T06:08:10.000Z</time>
</trkpt>
<trkpt lat="46.4319280" lon="14.2520380">
<ele>1191.10</ele>
<time>2026-07-19T06:08:28.000Z</time>
</trkpt>
<trkpt lat="46.4318769" lon="14.2517757">
<ele>1197.42</ele>
<time>2026-07-19T06:08:54.000Z</time>
</trkpt>
<trkpt lat="46.4318209" lon="14.2515147">
<ele>1197.63</ele>
<time>2026-07-19T06:09:10.000Z</time>
</trkpt>
<trkpt lat="46.4317942" lon="14.2512553">
<ele>1205.23</ele>
<time>2026-07-19T06:09:34.000Z</time>
</trkpt>
<trkpt lat="46.4317003" lon="14.2510288">
<ele>1210.63</ele>
<time>2026-07-19T06:09:59.000Z</time>
</trkpt>
<trkpt lat="46.4318403" lon="14.2508543">
<ele>1218.90</ele>
<time>2026-07-19T06:10:30.000Z</time>
</trkpt>
<trkpt lat="46.4318381" lon="14.2505829">
<ele>1224.77</ele>
<time>2026-07-19T06:11:01.000Z</time>
</trkpt>
<trkpt lat="46.4320294" lon="14.2506507">
<ele>1230.54</ele>
<time>2026-07-19T06:11:27.000Z</time>
</trkpt>
<trkpt lat="46.4320120" lon="14.2503910">
<ele>1232.23</ele>
<time>2026-07-19T06:11:45.000Z</time>
</trkpt>
<trkpt lat="46.4319980" lon="14.2501277">
<ele>1232.92</ele>
<time>2026-07-19T06:12:30.000Z</time>
</trkpt>
<trkpt lat="46.4319728" lon="14.2498624">
<ele>1248.11</ele>
<time>2026-07-19T06:13:14.000Z</time>
</trkpt>
<trkpt lat="46.4319471" lon="14.2496006">
<ele>1258.53</ele>
<time>2026-07-19T06:13:37.000Z</time>
</trkpt>
<trkpt lat="46.4319098" lon="14.2493418">
<ele>1262.01</ele>
<time>2026-07-19T06:14:01.000Z</time>
</trkpt>
<trkpt lat="46.4318078" lon="14.2491025">
<ele>1266.52</ele>
<time>2026-07-19T06:14:17.000Z</time>
</trkpt>
<trkpt lat="46.4317335" lon="14.2488531">
<ele>1271.29</ele>
<time>2026-07-19T06:15:16.000Z</time>
</trkpt>
<trkpt lat="46.4316674" lon="14.2486003">
<ele>1276.49</ele>
<time>2026-07-19T06:15:30.000Z</time>
</trkpt>
<trkpt lat="46.4316614" lon="14.2483293">
<ele>1275.40</ele>
<time>2026-07-19T06:15:48.000Z</time>
</trkpt>
<trkpt lat="46.4316107" lon="14.2480767">
<ele>1273.46</ele>
<time>2026-07-19T06:16:07.000Z</time>
</trkpt>
<trkpt lat="46.4315676" lon="14.2478140">
<ele>1280.15</ele>
<time>2026-07-19T06:16:24.000Z</time>
</trkpt>
<trkpt lat="46.4315036" lon="14.2475575">
<ele>1280.20</ele>
<time>2026-07-19T06:16:44.000Z</time>
</trkpt>
<trkpt lat="46.4314526" lon="14.2472999">
<ele>1283.36</ele>
<time>2026-07-19T06:17:07.000Z</time>
</trkpt>
<trkpt lat="46.4313946" lon="14.2470438">
<ele>1280.53</ele>
<time>2026-07-19T06:18:31.000Z</time>
</trkpt>
<trkpt lat="46.4314767" lon="14.2468103">
<ele>1290.84</ele>
<time>2026-07-19T06:18:54.000Z</time>
</trkpt>
<trkpt lat="46.4315013" lon="14.2465515">
<ele>1295.78</ele>
<time>2026-07-19T06:19:23.000Z</time>
</trkpt>
<trkpt lat="46.4314437" lon="14.2462992">
<ele>1294.69</ele>
<time>2026-07-19T06:19:43.000Z</time>
</trkpt>
<trkpt lat="46.4313719" lon="14.2460523">
<ele>1299.82</ele>
<time>2026-07-19T06:20:08.000Z</time>
</trkpt>
<trkpt lat="46.4312927" lon="14.2458041">
<ele>1299.78</ele>
<time>2026-07-19T06:20:25.000Z</time>
</trkpt>
<trkpt lat="46.4313406" lon="14.2455501">
<ele>1311.53</ele>
<time>2026-07-19T06:20:52.000Z</time>
</trkpt>
<trkpt lat="46.4312847" lon="14.2452986">
<ele>1316.68</ele>
<time>2026-07-19T06:23:03.000Z</time>
</trkpt>
<trkpt lat="46.4313417" lon="14.2450413">
<ele>1318.91</ele>
<time>2026-07-19T06:23:27.000Z</time>
</trkpt>
<trkpt lat="46.4313299" lon="14.2447779">
<ele>1325.69</ele>
<time>2026-07-19T06:23:49.000Z</time>
</trkpt>
<trkpt lat="46.4315067" lon="14.2448515">
<ele>1332.59</ele>
<time>2026-07-19T06:24:43.000Z</time>
</trkpt>
<trkpt lat="46.4315550" lon="14.2445918">
<ele>1330.22</ele>
<time>2026-07-19T06:25:12.000Z</time>
</trkpt>
<trkpt lat="46.4315295" lon="14.2443288">
<ele>1339.11</ele>
<time>2026-07-19T06:25:29.000Z</time>
</trkpt>
<trkpt lat="46.4315429" lon="14.2440641">
<ele>1345.15</ele>
<time>2026-07-19T06:25:46.000Z</time>
</trkpt>
<trkpt lat="46.4315272" lon="14.2438038">
<ele>1347.63</ele>
<time>2026-07-19T06:26:04.000Z</time>
</trkpt>
<trkpt lat="46.4314847" lon="14.2435395">
<ele>1356.50</ele>
<time>2026-07-19T06:26:30.000Z</time>
</trkpt>
<trkpt lat="46.4313964" lon="14.2432984">
<ele>1361.09</ele>
<time>2026-07-19T06:26:52.000Z</time>
</trkpt>
<trkpt lat="46.4314189" lon="14.2430344">
<ele>1375.49</ele>
<time>2026-07-19T06:27:57.000Z</time>
</trkpt>
<trkpt lat="46.4313459" lon="14.2427887">
<ele>1382.28</ele>
<time>2026-07-19T06:28:19.000Z</time>
</trkpt>
<trkpt lat="46.4312913" lon="14.2425315">
<ele>1387.73</ele>
<time>2026-07-19T06:28:42.000Z</time>
</trkpt>
<trkpt lat="46.4311942" lon="14.2422933">
<ele>1391.48</ele>
<time>2026-07-19T06:28:58.000Z</time>
</trkpt>
<trkpt lat="46.4310902" lon="14.2420732">
<ele>1390.16</ele>
<time>2026-07-19T06:29:14.000Z</time>
</trkpt>
<trkpt lat="46.4310111" lon="14.2418353">
<ele>1392.67</ele>
<time>2026-07-19T06:29:40.000Z</time>
</trkpt>
<trkpt lat="46.4309261" lon="14.2416025">
<ele>1400.14</ele>
<time>2026-07-19T06:29:58.000Z</time>
</trkpt>
<trkpt lat="46.4308126" lon="14.2413908">
<ele>1402.57</ele>
<time>2026-07-19T06:30:22.000Z</time>
</trkpt>
<trkpt lat="46.4306458" lon="14.2412862">
<ele>1411.93</ele>
<time>2026-07-19T06:30:39.000Z</time>
</trkpt>
<trkpt lat="46.4304851" lon="14.2411641">
<ele>1417.62</ele>
<time>2026-07-19T06:30:55.000Z</time>
</trkpt>
<trkpt lat="46.4303496" lon="14.2409865">
<ele>1418.00</ele>
<time>2026-07-19T06:31:15.000Z</time>
</trkpt>
<trkpt lat="46.4301908" lon="14.2408554">
<ele>1418.15</ele>
<time>2026-07-19T06:31:29.000Z</time>
</trkpt>
<trkpt lat="46.4300357" lon="14.2407131">
<ele>1421.55</ele>
<time>2026-07-19T06:31:46.000Z</time>
</trkpt>
<trkpt lat="46.4298975" lon="14.2405449">
<ele>1423.35</ele>
<time>2026-07-19T06:32:05.000Z</time>
</trkpt>
<trkpt lat="46.4297257" lon="14.2404538">
<ele>1428.05</ele>
<time>2026-07-19T06:32:22.000Z</time>
</trkpt>
<trkpt lat="46.4295511" lon="14.2403533">
<ele>1432.32</ele>
<time>2026-07-19T06:32:43.000Z</time>
</trkpt>
<trkpt lat="46.4294978" lon="14.2400939">
<ele>1433.28</ele>
<time>2026-07-19T06:33:03.000Z</time>
</trkpt>
<trkpt lat="46.4293262" lon="14.2402111">
<ele>1438.44</ele>
<time>2026-07-19T06:33:20.000Z</time>
</trkpt>
<trkpt lat="46.4291399" lon="14.2401677">
<ele>1438.02</ele>
<time>2026-07-19T06:33:46.000Z</time>
</trkpt>
<trkpt lat="46.4289913" lon="14.2400038">
<ele>1443.32</ele>
<time>2026-07-19T06:34:07.000Z</time>
</trkpt>
<trkpt lat="46.4288961" lon="14.2397822">
<ele>1459.96</ele>
<time>2026-07-19T06:34:43.000Z</time>
</trkpt>
<trkpt lat="46.4287439" lon="14.2396187">
<ele>1459.53</ele>
<time>2026-07-19T06:35:02.000Z</time>
</trkpt>
<trkpt lat="46.4286571" lon="14.2393830">
<ele>1466.58</ele>
<time>2026-07-19T06:35:37.000Z</time>
</trkpt>
<trkpt lat="46.4286270" lon="14.2391205">
<ele>1467.42</ele>
<time>2026-07-19T06:35:57.000Z</time>
</trkpt>
<trkpt lat="46.4286890" lon="14.2388541">
<ele>1462.60</ele>
<time>2026-07-19T06:36:21.000Z</time>
</trkpt>
<trkpt lat="46.4287651" lon="14.2386055">
<ele>1474.09</ele>
<time>2026-07-19T06:36:43.000Z</time>
</trkpt>
<trkpt lat="46.4288280" lon="14.2383456">
<ele>1482.29</ele>
<time>2026-07-19T06:37:05.000Z</time>
</trkpt>
<trkpt lat="46.4288465" lon="14.2380750">
<ele>1486.40</ele>
<time>2026-07-19T06:37:29.000Z</time>
</trkpt>
<trkpt lat="46.4288437" lon="14.2377979">
<ele>1490.38</ele>
<time>2026-07-19T06:37:50.000Z</time>
</trkpt>
<trkpt lat="46.4288410" lon="14.2375369">
<ele>1492.76</ele>
<time>2026-07-19T06:37:59.000Z</time>
</trkpt>
<trkpt lat="46.4287706" lon="14.2372766">
<ele>1492.24</ele>
<time>2026-07-19T06:38:15.000Z</time>
</trkpt>
<trkpt lat="46.4286984" lon="14.2370258">
<ele>1496.74</ele>
<time>2026-07-19T06:38:25.000Z</time>
</trkpt>
<trkpt lat="46.4285901" lon="14.2368055">
<ele>1495.12</ele>
<time>2026-07-19T06:38:44.000Z</time>
</trkpt>
<trkpt lat="46.4285986" lon="14.2365379">
<ele>1502.95</ele>
<time>2026-07-19T06:39:07.000Z</time>
</trkpt>
<trkpt lat="46.4286108" lon="14.2362716">
<ele>1502.24</ele>
<time>2026-07-19T06:39:31.000Z</time>
</trkpt>
<trkpt lat="46.4287285" lon="14.2360644">
<ele>1511.33</ele>
<time>2026-07-19T06:39:53.000Z</time>
</trkpt>
<trkpt lat="46.4287961" lon="14.2358154">
<ele>1519.97</ele>
<time>2026-07-19T06:40:17.000Z</time>
</trkpt>
<trkpt lat="46.4287449" lon="14.2355471">
<ele>1523.88</ele>
<time>2026-07-19T06:40:44.000Z</time>
</trkpt>
<trkpt lat="46.4288192" lon="14.2352894">
<ele>1535.39</ele>
<time>2026-07-19T06:41:20.000Z</time>
</trkpt>
<trkpt lat="46.4288344" lon="14.2350189">
<ele>1536.33</ele>
<time>2026-07-19T06:41:43.000Z</time>
</trkpt>
<trkpt lat="46.4290238" lon="14.2350537">
<ele>1545.91</ele>
<time>2026-07-19T06:42:27.000Z</time>
</trkpt>
<trkpt lat="46.4292134" lon="14.2350672">
<ele>1553.27</ele>
<time>2026-07-19T06:42:42.000Z</time>
</trkpt>
<trkpt lat="46.4294014" lon="14.2350077">
<ele>1554.03</ele>
<time>2026-07-19T06:42:57.000Z</time>
</trkpt>
<trkpt lat="46.4295717" lon="14.2349188">
<ele>1558.67</ele>
<time>2026-07-19T06:43:15.000Z</time>
</trkpt>
<trkpt lat="46.4297527" lon="14.2349606">
<ele>1559.79</ele>
<time>2026-07-19T06:43:28.000Z</time>
</trkpt>
<trkpt lat="46.4299494" lon="14.2350360">
<ele>1560.59</ele>
<time>2026-07-19T06:43:38.000Z</time>
</trkpt>
<trkpt lat="46.4301370" lon="14.2350857">
<ele>1560.25</ele>
<time>2026-07-19T06:43:53.000Z</time>
</trkpt>
<trkpt lat="46.4303229" lon="14.2350889">
<ele>1559.89</ele>
<time>2026-07-19T06:44:07.000Z</time>
</trkpt>
<trkpt lat="46.4304786" lon="14.2349377">
<ele>1558.02</ele>
<time>2026-07-19T06:44:21.000Z</time>
</trkpt>
<trkpt lat="46.4305268" lon="14.2346731">
<ele>1555.15</ele>
<time>2026-07-19T06:44:37.000Z</time>
</trkpt>
<trkpt lat="46.4305431" lon="14.2343899">
<ele>1559.49</ele>
<time>2026-07-19T06:44:52.000Z</time>
</trkpt>
<trkpt lat="46.4306064" lon="14.2341143">
<ele>1560.94</ele>
<time>2026-07-19T06:45:06.000Z</time>
</trkpt>
<trkpt lat="46.4306871" lon="14.2338753">
<ele>1562.41</ele>
<time>2026-07-19T06:45:20.000Z</time>
</trkpt>
<trkpt lat="46.4307398" lon="14.2336098">
<ele>1563.15</ele>
<time>2026-07-19T06:45:35.000Z</time>
</trkpt>
<trkpt lat="46.4307499" lon="14.2333443">
<ele>1563.56</ele>
<time>2026-07-19T06:45:50.000Z</time>
</trkpt>
<trkpt lat="46.4307593" lon="14.2330670">
<ele>1566.62</ele>
<time>2026-07-19T06:46:05.000Z</time>
</trkpt>
<trkpt lat="46.4308870" lon="14.2328790">
<ele>1572.72</ele>
<time>2026-07-19T06:46:20.000Z</time>
</trkpt>
<trkpt lat="46.4309326" lon="14.2325997">
<ele>1570.07</ele>
<time>2026-07-19T06:46:31.000Z</time>
</trkpt>
<trkpt lat="46.4309106" lon="14.2323388">
<ele>1567.11</ele>
<time>2026-07-19T06:46:44.000Z</time>
</trkpt>
<trkpt lat="46.4308504" lon="14.2320771">
<ele>1563.47</ele>
<time>2026-07-19T06:47:00.000Z</time>
</trkpt>
<trkpt lat="46.4308941" lon="14.2318213">
<ele>1564.70</ele>
<time>2026-07-19T06:47:14.000Z</time>
</trkpt>
<trkpt lat="46.4309727" lon="14.2315745">
<ele>1567.69</ele>
<time>2026-07-19T06:47:28.000Z</time>
</trkpt>
<trkpt lat="46.4311146" lon="14.2314127">
<ele>1567.11</ele>
<time>2026-07-19T06:47:40.000Z</time>
</trkpt>
<trkpt lat="46.4312372" lon="14.2312090">
<ele>1567.25</ele>
<time>2026-07-19T06:47:55.000Z</time>
</trkpt>
<trkpt lat="46.4313534" lon="14.2309935">
<ele>1566.19</ele>
<time>2026-07-19T06:48:03.000Z</time>
</trkpt>
<trkpt lat="46.4314610" lon="14.2307677">
<ele>1563.18</ele>
<time>2026-07-19T06:48:17.000Z</time>
</trkpt>
<trkpt lat="46.4315691" lon="14.2305563">
<ele>1557.07</ele>
<time>2026-07-19T06:48:28.000Z</time>
</trkpt>
<trkpt lat="46.4316698" lon="14.2303262">
<ele>1555.32</ele>
<time>2026-07-19T06:48:39.000Z</time>
</trkpt>
<trkpt lat="46.4317506" lon="14.2300846">
<ele>1559.63</ele>
<time>2026-07-19T06:48:57.000Z</time>
</trkpt>
<trkpt lat="46.4318662" lon="14.2298792">
<ele>1563.35</ele>
<time>2026-07-19T06:49:06.000Z</time>
</trkpt>
<trkpt lat="46.4320470" lon="14.2297923">
<ele>1559.88</ele>
<time>2026-07-19T06:49:19.000Z</time>
</trkpt>
<trkpt lat="46.4321686" lon="14.2295927">
<ele>1560.32</ele>
<time>2026-07-19T06:49:35.000Z</time>
</trkpt>
<trkpt lat="46.4323000" lon="14.2293969">
<ele>1571.30</ele>
<time>2026-07-19T06:49:53.000Z</time>
</trkpt>
<trkpt lat="46.4324345" lon="14.2291841">
<ele>1573.62</ele>
<time>2026-07-19T06:50:08.000Z</time>
</trkpt>
<trkpt lat="46.4325429" lon="14.2289646">
<ele>1574.62</ele>
<time>2026-07-19T06:50:22.000Z</time>
</trkpt>
<trkpt lat="46.4326838" lon="14.2287887">
<ele>1570.46</ele>
<time>2026-07-19T06:50:41.000Z</time>
</trkpt>
<trkpt lat="46.4327478" lon="14.2285433">
<ele>1573.75</ele>
<time>2026-07-19T06:50:52.000Z</time>
</trkpt>
<trkpt lat="46.4328587" lon="14.2283154">
<ele>1571.89</ele>
<time>2026-07-19T06:51:02.000Z</time>
</trkpt>
<trkpt lat="46.4329848" lon="14.2280944">
<ele>1569.75</ele>
<time>2026-07-19T06:51:14.000Z</time>
</trkpt>
<trkpt lat="46.4330631" lon="14.2278535">
<ele>1567.28</ele>
<time>2026-07-19T06:51:30.000Z</time>
</trkpt>
<trkpt lat="46.4330399" lon="14.2275854">
<ele>1570.19</ele>
<time>2026-07-19T06:51:46.000Z</time>
</trkpt>
<trkpt lat="46.4331035" lon="14.2273383">
<ele>1588.22</ele>
<time>2026-07-19T06:52:13.000Z</time>
</trkpt>
<trkpt lat="46.4332203" lon="14.2271205">
<ele>1590.06</ele>
<time>2026-07-19T06:52:29.000Z</time>
</trkpt>
<trkpt lat="46.4333893" lon="14.2270312">
<ele>1589.71</ele>
<time>2026-07-19T06:52:42.000Z</time>
</trkpt>
<trkpt lat="46.4335047" lon="14.2268215">
<ele>1591.81</ele>
<time>2026-07-19T06:52:57.000Z</time>
</trkpt>
<trkpt lat="46.4335891" lon="14.2265733">
<ele>1596.84</ele>
<time>2026-07-19T06:53:17.000Z</time>
</trkpt>
<trkpt lat="46.4336846" lon="14.2263510">
<ele>1599.93</ele>
<time>2026-07-19T06:53:30.000Z</time>
</trkpt>
<trkpt lat="46.4338525" lon="14.2262360">
<ele>1594.81</ele>
<time>2026-07-19T06:53:42.000Z</time>
</trkpt>
<trkpt lat="46.4339926" lon="14.2260340">
<ele>1602.17</ele>
<time>2026-07-19T06:54:06.000Z</time>
</trkpt>
<trkpt lat="46.4340679" lon="14.2257841">
<ele>1605.07</ele>
<time>2026-07-19T06:54:22.000Z</time>
</trkpt>
<trkpt lat="46.4341955" lon="14.2255743">
<ele>1606.14</ele>
<time>2026-07-19T06:54:38.000Z</time>
</trkpt>
<trkpt lat="46.4343139" lon="14.2253676">
<ele>1608.97</ele>
<time>2026-07-19T06:55:02.000Z</time>
</trkpt>
<trkpt lat="46.4344843" lon="14.2252622">
<ele>1622.25</ele>
<time>2026-07-19T06:55:29.000Z</time>
</trkpt>
<trkpt lat="46.4346659" lon="14.2251890">
<ele>1630.25</ele>
<time>2026-07-19T06:55:50.000Z</time>
</trkpt>
<trkpt lat="46.4348520" lon="14.2251412">
<ele>1629.50</ele>
<time>2026-07-19T06:56:06.000Z</time>
</trkpt>
<trkpt lat="46.4350312" lon="14.2250864">
<ele>1637.12</ele>
<time>2026-07-19T06:56:30.000Z</time>
</trkpt>
<trkpt lat="46.4351946" lon="14.2249667">
<ele>1641.47</ele>
<time>2026-07-19T06:56:48.000Z</time>
</trkpt>
<trkpt lat="46.4353220" lon="14.2247585">
<ele>1659.03</ele>
<time>2026-07-19T06:57:26.000Z</time>
</trkpt>
<trkpt lat="46.4354845" lon="14.2249012">
<ele>1656.43</ele>
<time>2026-07-19T06:58:29.000Z</time>
</trkpt>
<trkpt lat="46.4355125" lon="14.2251705">
<ele>1661.47</ele>
<time>2026-07-19T06:58:59.000Z</time>
</trkpt>
<trkpt lat="46.4354901" lon="14.2254424">
<ele>1657.10</ele>
<time>2026-07-19T06:59:29.000Z</time>
</trkpt>
<trkpt lat="46.4353554" lon="14.2256194">
<ele>1659.49</ele>
<time>2026-07-19T06:59:50.000Z</time>
</trkpt>
<trkpt lat="46.4352737" lon="14.2258591">
<ele>1660.01</ele>
<time>2026-07-19T07:00:09.000Z</time>
</trkpt>
<trkpt lat="46.4353094" lon="14.2261179">
<ele>1671.10</ele>
<time>2026-07-19T07:03:47.000Z</time>
</trkpt>
<trkpt lat="46.4353058" lon="14.2263878">
<ele>1681.20</ele>
<time>2026-07-19T07:04:30.000Z</time>
</trkpt>
<trkpt lat="46.4354059" lon="14.2266127">
<ele>1697.21</ele>
<time>2026-07-19T07:06:01.000Z</time>
</trkpt>
<trkpt lat="46.4354742" lon="14.2268542">
<ele>1707.18</ele>
<time>2026-07-19T07:06:51.000Z</time>
</trkpt>
<trkpt lat="46.4356477" lon="14.2267757">
<ele>1740.44</ele>
<time>2026-07-19T07:09:59.000Z</time>
</trkpt>
<trkpt lat="46.4358245" lon="14.2268345">
<ele>1750.21</ele>
<time>2026-07-19T07:12:40.000Z</time>
</trkpt>
<trkpt lat="46.4360042" lon="14.2267861">
<ele>1770.65</ele>
<time>2026-07-19T07:15:45.000Z</time>
</trkpt>
<trkpt lat="46.4361943" lon="14.2267091">
<ele>1791.89</ele>
<time>2026-07-19T07:19:36.000Z</time>
</trkpt>
<trkpt lat="46.4363454" lon="14.2265448">
<ele>1808.74</ele>
<time>2026-07-19T07:21:43.000Z</time>
</trkpt>
<trkpt lat="46.4364621" lon="14.2263413">
<ele>1806.93</ele>
<time>2026-07-19T07:22:33.000Z</time>
</trkpt>
<trkpt lat="46.4366202" lon="14.2262112">
<ele>1812.75</ele>
<time>2026-07-19T07:23:01.000Z</time>
</trkpt>
<trkpt lat="46.4367878" lon="14.2261009">
<ele>1828.16</ele>
<time>2026-07-19T07:24:08.000Z</time>
</trkpt>
<trkpt lat="46.4369409" lon="14.2259587">
<ele>1831.01</ele>
<time>2026-07-19T07:24:27.000Z</time>
</trkpt>
<trkpt lat="46.4371226" lon="14.2258950">
<ele>1840.01</ele>
<time>2026-07-19T07:25:14.000Z</time>
</trkpt>
<trkpt lat="46.4372877" lon="14.2257594">
<ele>1823.49</ele>
<time>2026-07-19T07:26:21.000Z</time>
</trkpt>
<trkpt lat="46.4374548" lon="14.2258630">
<ele>1830.50</ele>
<time>2026-07-19T07:28:01.000Z</time>
</trkpt>
<trkpt lat="46.4375911" lon="14.2256858">
<ele>1844.21</ele>
<time>2026-07-19T07:29:50.000Z</time>
</trkpt>
<trkpt lat="46.4377408" lon="14.2255288">
<ele>1844.31</ele>
<time>2026-07-19T07:30:25.000Z</time>
</trkpt>
<trkpt lat="46.4378672" lon="14.2253257">
<ele>1850.86</ele>
<time>2026-07-19T07:31:01.000Z</time>
</trkpt>
<trkpt lat="46.4379656" lon="14.2251034">
<ele>1844.18</ele>
<time>2026-07-19T07:31:42.000Z</time>
</trkpt>
<trkpt lat="46.4381369" lon="14.2250194">
<ele>1847.00</ele>
<time>2026-07-19T07:31:59.000Z</time>
</trkpt>
<trkpt lat="46.4383067" lon="14.2249313">
<ele>1850.20</ele>
<time>2026-07-19T07:32:13.000Z</time>
</trkpt>
<trkpt lat="46.4384709" lon="14.2247974">
<ele>1851.48</ele>
<time>2026-07-19T07:32:35.000Z</time>
</trkpt>
<trkpt lat="46.4385739" lon="14.2245768">
<ele>1855.81</ele>
<time>2026-07-19T07:33:00.000Z</time>
</trkpt>
<trkpt lat="46.4387328" lon="14.2244258">
<ele>1862.84</ele>
<time>2026-07-19T07:33:32.000Z</time>
</trkpt>
<trkpt lat="46.4389140" lon="14.2244032">
<ele>1871.48</ele>
<time>2026-07-19T07:34:10.000Z</time>
</trkpt>
<trkpt lat="46.4390976" lon="14.2243650">
<ele>1886.09</ele>
<time>2026-07-19T07:34:59.000Z</time>
</trkpt>
<trkpt lat="46.4392002" lon="14.2241448">
<ele>1892.52</ele>
<time>2026-07-19T07:35:31.000Z</time>
</trkpt>
<trkpt lat="46.4393720" lon="14.2240549">
<ele>1894.02</ele>
<time>2026-07-19T07:36:33.000Z</time>
</trkpt>
<trkpt lat="46.4395567" lon="14.2240084">
<ele>1897.13</ele>
<time>2026-07-19T07:37:12.000Z</time>
</trkpt>
<trkpt lat="46.4397244" lon="14.2239012">
<ele>1913.57</ele>
<time>2026-07-19T07:37:59.000Z</time>
</trkpt>
<trkpt lat="46.4398560" lon="14.2237170">
<ele>1919.55</ele>
<time>2026-07-19T07:38:47.000Z</time>
</trkpt>
<trkpt lat="46.4400249" lon="14.2238091">
<ele>1931.65</ele>
<time>2026-07-19T07:44:02.000Z</time>
</trkpt>
<trkpt lat="46.4401422" lon="14.2240071">
<ele>1944.88</ele>
<time>2026-07-19T07:45:10.000Z</time>
</trkpt>
<trkpt lat="46.4402900" lon="14.2238499">
<ele>1960.59</ele>
<time>2026-07-19T07:46:12.000Z</time>
</trkpt>
<trkpt lat="46.4404608" lon="14.2237534">
<ele>1968.08</ele>
<time>2026-07-19T07:46:49.000Z</time>
</trkpt>
<trkpt lat="46.4405710" lon="14.2235336">
<ele>1961.33</ele>
<time>2026-07-19T07:47:05.000Z</time>
</trkpt>
<trkpt lat="46.4407257" lon="14.2233860">
<ele>1964.71</ele>
<time>2026-07-19T07:47:34.000Z</time>
</trkpt>
<trkpt lat="46.4408725" lon="14.2232104">
<ele>1966.29</ele>
<time>2026-07-19T07:47:50.000Z</time>
</trkpt>
<trkpt lat="46.4409011" lon="14.2229464">
<ele>1959.38</ele>
<time>2026-07-19T07:48:24.000Z</time>
</trkpt>
<trkpt lat="46.4409854" lon="14.2227123">
<ele>1949.44</ele>
<time>2026-07-19T07:49:16.000Z</time>
</trkpt>
<trkpt lat="46.4411223" lon="14.2225385">
<ele>1948.81</ele>
<time>2026-07-19T07:49:58.000Z</time>
</trkpt>
<trkpt lat="46.4412973" lon="14.2224721">
<ele>1951.83</ele>
<time>2026-07-19T07:50:18.000Z</time>
</trkpt>
<trkpt lat="46.4414270" lon="14.2222709">
<ele>1947.11</ele>
<time>2026-07-19T07:50:34.000Z</time>
</trkpt>
<trkpt lat="46.4415119" lon="14.2220322">
<ele>1948.58</ele>
<time>2026-07-19T07:50:57.000Z</time>
</trkpt>
<trkpt lat="46.4416668" lon="14.2218836">
<ele>1957.69</ele>
<time>2026-07-19T07:51:28.000Z</time>
</trkpt>
<trkpt lat="46.4418322" lon="14.2217802">
<ele>1963.61</ele>
<time>2026-07-19T07:52:06.000Z</time>
</trkpt>
<trkpt lat="46.4418907" lon="14.2215284">
<ele>1966.82</ele>
<time>2026-07-19T07:52:44.000Z</time>
</trkpt>
<trkpt lat="46.4419518" lon="14.2212781">
<ele>1958.88</ele>
<time>2026-07-19T07:53:09.000Z</time>
</trkpt>
<trkpt lat="46.4420000" lon="14.2210257">
<ele>1958.36</ele>
<time>2026-07-19T07:53:54.000Z</time>
</trkpt>
<trkpt lat="46.4421266" lon="14.2208365">
<ele>1963.62</ele>
<time>2026-07-19T07:54:26.000Z</time>
</trkpt>
<trkpt lat="46.4422351" lon="14.2206159">
<ele>1968.60</ele>
<time>2026-07-19T07:55:38.000Z</time>
</trkpt>
<trkpt lat="46.4422985" lon="14.2203688">
<ele>1961.81</ele>
<time>2026-07-19T07:55:56.000Z</time>
</trkpt>
<trkpt lat="46.4423401" lon="14.2201067">
<ele>1970.90</ele>
<time>2026-07-19T07:56:16.000Z</time>
</trkpt>
<trkpt lat="46.4424085" lon="14.2198595">
<ele>1968.75</ele>
<time>2026-07-19T07:56:35.000Z</time>
</trkpt>
<trkpt lat="46.4425155" lon="14.2196364">
<ele>1971.49</ele>
<time>2026-07-19T07:56:55.000Z</time>
</trkpt>
<trkpt lat="46.4426974" lon="14.2196436">
<ele>1989.96</ele>
<time>2026-07-19T07:58:56.000Z</time>
</trkpt>
<trkpt lat="46.4428787" lon="14.2196680">
<ele>2001.72</ele>
<time>2026-07-19T07:59:32.000Z</time>
</trkpt>
<trkpt lat="46.4430345" lon="14.2195197">
<ele>2015.01</ele>
<time>2026-07-19T08:00:18.000Z</time>
</trkpt>
<trkpt lat="46.4431701" lon="14.2193438">
<ele>2021.14</ele>
<time>2026-07-19T08:00:51.000Z</time>
</trkpt>
<trkpt lat="46.4430268" lon="14.2195112">
<ele>2017.21</ele>
<time>2026-07-19T08:08:59.000Z</time>
</trkpt>
<trkpt lat="46.4428620" lon="14.2196264">
<ele>2004.70</ele>
<time>2026-07-19T08:15:24.000Z</time>
</trkpt>
<trkpt lat="46.4426822" lon="14.2195989">
<ele>1990.20</ele>
<time>2026-07-19T08:16:09.000Z</time>
</trkpt>
<trkpt lat="46.4425210" lon="14.2194703">
<ele>1971.03</ele>
<time>2026-07-19T08:17:04.000Z</time>
</trkpt>
<trkpt lat="46.4424318" lon="14.2192432">
<ele>1951.08</ele>
<time>2026-07-19T08:17:46.000Z</time>
</trkpt>
<trkpt lat="46.4425224" lon="14.2189852">
<ele>1940.41</ele>
<time>2026-07-19T08:18:26.000Z</time>
</trkpt>
<trkpt lat="46.4425360" lon="14.2187240">
<ele>1945.38</ele>
<time>2026-07-19T08:18:58.000Z</time>
</trkpt>
<trkpt lat="46.4425826" lon="14.2184719">
<ele>1937.81</ele>
<time>2026-07-19T08:19:17.000Z</time>
</trkpt>
<trkpt lat="46.4425997" lon="14.2181994">
<ele>1929.08</ele>
<time>2026-07-19T08:19:44.000Z</time>
</trkpt>
<trkpt lat="46.4425654" lon="14.2179255">
<ele>1922.22</ele>
<time>2026-07-19T08:20:04.000Z</time>
</trkpt>
<trkpt lat="46.4425150" lon="14.2176678">
<ele>1920.58</ele>
<time>2026-07-19T08:20:26.000Z</time>
</trkpt>
<trkpt lat="46.4425460" lon="14.2173998">
<ele>1914.83</ele>
<time>2026-07-19T08:20:56.000Z</time>
</trkpt>
<trkpt lat="46.4425491" lon="14.2171372">
<ele>1907.67</ele>
<time>2026-07-19T08:21:57.000Z</time>
</trkpt>
<trkpt lat="46.4424315" lon="14.2173582">
<ele>1906.45</ele>
<time>2026-07-19T08:22:16.000Z</time>
</trkpt>
<trkpt lat="46.4422670" lon="14.2174973">
<ele>1900.61</ele>
<time>2026-07-19T08:22:29.000Z</time>
</trkpt>
<trkpt lat="46.4421754" lon="14.2177278">
<ele>1892.52</ele>
<time>2026-07-19T08:22:42.000Z</time>
</trkpt>
<trkpt lat="46.4420615" lon="14.2179335">
<ele>1891.87</ele>
<time>2026-07-19T08:22:56.000Z</time>
</trkpt>
<trkpt lat="46.4419606" lon="14.2181829">
<ele>1885.00</ele>
<time>2026-07-19T08:23:10.000Z</time>
</trkpt>
<trkpt lat="46.4419326" lon="14.2184439">
<ele>1880.50</ele>
<time>2026-07-19T08:23:21.000Z</time>
</trkpt>
<trkpt lat="46.4418174" lon="14.2186593">
<ele>1873.25</ele>
<time>2026-07-19T08:23:32.000Z</time>
</trkpt>
<trkpt lat="46.4416502" lon="14.2187762">
<ele>1864.44</ele>
<time>2026-07-19T08:23:53.000Z</time>
</trkpt>
<trkpt lat="46.4415739" lon="14.2190153">
<ele>1853.86</ele>
<time>2026-07-19T08:24:09.000Z</time>
</trkpt>
<trkpt lat="46.4415022" lon="14.2192721">
<ele>1844.58</ele>
<time>2026-07-19T08:24:22.000Z</time>
</trkpt>
<trkpt lat="46.4414125" lon="14.2195056">
<ele>1836.16</ele>
<time>2026-07-19T08:24:33.000Z</time>
</trkpt>
<trkpt lat="46.4412948" lon="14.2197219">
<ele>1831.51</ele>
<time>2026-07-19T08:24:50.000Z</time>
</trkpt>
<trkpt lat="46.4412012" lon="14.2199657">
<ele>1830.63</ele>
<time>2026-07-19T08:24:58.000Z</time>
</trkpt>
<trkpt lat="46.4410890" lon="14.2201864">
<ele>1831.60</ele>
<time>2026-07-19T08:25:07.000Z</time>
</trkpt>
<trkpt lat="46.4409312" lon="14.2203536">
<ele>1827.89</ele>
<time>2026-07-19T08:25:22.000Z</time>
</trkpt>
<trkpt lat="46.4408144" lon="14.2205771">
<ele>1824.83</ele>
<time>2026-07-19T08:25:30.000Z</time>
</trkpt>
<trkpt lat="46.4406736" lon="14.2207647">
<ele>1822.14</ele>
<time>2026-07-19T08:25:43.000Z</time>
</trkpt>
<trkpt lat="46.4404915" lon="14.2207815">
<ele>1819.11</ele>
<time>2026-07-19T08:25:54.000Z</time>
</trkpt>
<trkpt lat="46.4403086" lon="14.2207405">
<ele>1812.36</ele>
<time>2026-07-19T08:26:05.000Z</time>
</trkpt>
<trkpt lat="46.4401187" lon="14.2207499">
<ele>1806.66</ele>
<time>2026-07-19T08:26:20.000Z</time>
</trkpt>
<trkpt lat="46.4399369" lon="14.2207202">
<ele>1802.51</ele>
<time>2026-07-19T08:39:17.000Z</time>
</trkpt>
<trkpt lat="46.4398118" lon="14.2205272">
<ele>1795.52</ele>
<time>2026-07-19T08:40:07.000Z</time>
</trkpt>
<trkpt lat="46.4396745" lon="14.2203470">
<ele>1791.47</ele>
<time>2026-07-19T08:40:20.000Z</time>
</trkpt>
<trkpt lat="46.4395576" lon="14.2201429">
<ele>1794.89</ele>
<time>2026-07-19T08:40:48.000Z</time>
</trkpt>
<trkpt lat="46.4395322" lon="14.2198784">
<ele>1800.89</ele>
<time>2026-07-19T08:41:40.000Z</time>
</trkpt>
<trkpt lat="46.4393945" lon="14.2196957">
<ele>1809.81</ele>
<time>2026-07-19T08:42:16.000Z</time>
</trkpt>
<trkpt lat="46.4392134" lon="14.2196865">
<ele>1807.39</ele>
<time>2026-07-19T08:43:05.000Z</time>
</trkpt>
<trkpt lat="46.4391217" lon="14.2194601">
<ele>1807.41</ele>
<time>2026-07-19T08:43:31.000Z</time>
</trkpt>
<trkpt lat="46.4389680" lon="14.2193188">
<ele>1813.61</ele>
<time>2026-07-19T08:44:00.000Z</time>
</trkpt>
<trkpt lat="46.4388664" lon="14.2190946">
<ele>1820.02</ele>
<time>2026-07-19T08:44:36.000Z</time>
</trkpt>
<trkpt lat="46.4386794" lon="14.2190588">
<ele>1832.73</ele>
<time>2026-07-19T08:45:03.000Z</time>
</trkpt>
<trkpt lat="46.4384985" lon="14.2191075">
<ele>1836.93</ele>
<time>2026-07-19T08:45:31.000Z</time>
</trkpt>
<trkpt lat="46.4383402" lon="14.2189709">
<ele>1844.43</ele>
<time>2026-07-19T08:45:54.000Z</time>
</trkpt>
<trkpt lat="46.4381660" lon="14.2188672">
<ele>1854.00</ele>
<time>2026-07-19T08:46:24.000Z</time>
</trkpt>
<trkpt lat="46.4379859" lon="14.2188337">
<ele>1855.37</ele>
<time>2026-07-19T08:46:44.000Z</time>
</trkpt>
<trkpt lat="46.4379639" lon="14.2185707">
<ele>1874.53</ele>
<time>2026-07-19T08:47:27.000Z</time>
</trkpt>
<trkpt lat="46.4378785" lon="14.2183402">
<ele>1904.00</ele>
<time>2026-07-19T08:48:37.000Z</time>
</trkpt>
<trkpt lat="46.4378510" lon="14.2180695">
<ele>1915.39</ele>
<time>2026-07-19T08:49:19.000Z</time>
</trkpt>
<trkpt lat="46.4378318" lon="14.2178028">
<ele>1922.76</ele>
<time>2026-07-19T08:51:00.000Z</time>
</trkpt>
<trkpt lat="46.4379226" lon="14.2175760">
<ele>1924.77</ele>
<time>2026-07-19T08:51:44.000Z</time>
</trkpt>
<trkpt lat="46.4380717" lon="14.2174246">
<ele>1934.11</ele>
<time>2026-07-19T08:52:26.000Z</time>
</trkpt>
<trkpt lat="46.4382403" lon="14.2173301">
<ele>1963.50</ele>
<time>2026-07-19T08:53:55.000Z</time>
</trkpt>
<trkpt lat="46.4383700" lon="14.2171267">
<ele>1972.74</ele>
<time>2026-07-19T08:54:52.000Z</time>
</trkpt>
<trkpt lat="46.4384544" lon="14.2168915">
<ele>1988.91</ele>
<time>2026-07-19T08:55:53.000Z</time>
</trkpt>
<trkpt lat="46.4385560" lon="14.2166759">
<ele>2003.52</ele>
<time>2026-07-19T08:56:51.000Z</time>
</trkpt>
<trkpt lat="46.4387246" lon="14.2165812">
<ele>2023.75</ele>
<time>2026-07-19T08:57:46.000Z</time>
</trkpt>
<trkpt lat="46.4388966" lon="14.2164757">
<ele>2031.51</ele>
<time>2026-07-19T08:58:04.000Z</time>
</trkpt>
<trkpt lat="46.4390436" lon="14.2163045">
<ele>2033.89</ele>
<time>2026-07-19T08:58:28.000Z</time>
</trkpt>
<trkpt lat="46.4391250" lon="14.2160546">
<ele>2042.99</ele>
<time>2026-07-19T08:58:47.000Z</time>
</trkpt>
<trkpt lat="46.4391072" lon="14.2157886">
<ele>2041.79</ele>
<time>2026-07-19T08:59:02.000Z</time>
</trkpt>
<trkpt lat="46.4391410" lon="14.2155173">
<ele>2054.59</ele>
<time>2026-07-19T08:59:29.000Z</time>
</trkpt>
<trkpt lat="46.4390969" lon="14.2152512">
<ele>2057.22</ele>
<time>2026-07-19T08:59:53.000Z</time>
</trkpt>
<trkpt lat="46.4390221" lon="14.2150068">
<ele>2064.40</ele>
<time>2026-07-19T09:00:22.000Z</time>
</trkpt>
<trkpt lat="46.4389987" lon="14.2147325">
<ele>2062.68</ele>
<time>2026-07-19T09:00:41.000Z</time>
</trkpt>
<trkpt lat="46.4391868" lon="14.2147074">
<ele>2075.70</ele>
<time>2026-07-19T09:01:16.000Z</time>
</trkpt>
<trkpt lat="46.4392803" lon="14.2144838">
<ele>2088.88</ele>
<time>2026-07-19T09:02:05.000Z</time>
</trkpt>
<trkpt lat="46.4392927" lon="14.2142191">
<ele>2116.51</ele>
<time>2026-07-19T09:03:04.000Z</time>
</trkpt>
<trkpt lat="46.4392682" lon="14.2139578">
<ele>2123.34</ele>
<time>2026-07-19T09:03:28.000Z</time>
</trkpt>
<trkpt lat="46.4392232" lon="14.2137024">
<ele>2138.01</ele>
<time>2026-07-19T09:04:17.000Z</time>
</trkpt>
<trkpt lat="46.4393884" lon="14.2135944">
<ele>2159.94</ele>
<time>2026-07-19T09:05:22.000Z</time>
</trkpt>
<trkpt lat="46.4395634" lon="14.2134681">
<ele>2163.02</ele>
<time>2026-07-19T09:05:50.000Z</time>
</trkpt>
<trkpt lat="46.4396503" lon="14.2132318">
<ele>2159.54</ele>
<time>2026-07-19T09:06:07.000Z</time>
</trkpt>
<trkpt lat="46.4396883" lon="14.2129760">
<ele>2179.12</ele>
<time>2026-07-19T09:06:43.000Z</time>
</trkpt>
<trkpt lat="46.4397946" lon="14.2127564">
<ele>2174.34</ele>
<time>2026-07-19T09:07:13.000Z</time>
</trkpt>
<trkpt lat="46.4398429" lon="14.2124912">
<ele>2175.78</ele>
<time>2026-07-19T09:07:29.000Z</time>
</trkpt>
<trkpt lat="46.4399580" lon="14.2122856">
<ele>2178.37</ele>
<time>2026-07-19T09:08:02.000Z</time>
</trkpt>
<trkpt lat="46.4399019" lon="14.2125388">
<ele>2176.49</ele>
<time>2026-07-19T09:11:28.000Z</time>
</trkpt>
<trkpt lat="46.4397653" lon="14.2127175">
<ele>2166.02</ele>
<time>2026-07-19T09:13:18.000Z</time>
</trkpt>
<trkpt lat="46.4395956" lon="14.2126249">
<ele>2158.16</ele>
<time>2026-07-19T09:14:07.000Z</time>
</trkpt>
<trkpt lat="46.4394158" lon="14.2125970">
<ele>2142.34</ele>
<time>2026-07-19T09:15:00.000Z</time>
</trkpt>
<trkpt lat="46.4393254" lon="14.2123678">
<ele>2127.95</ele>
<time>2026-07-19T09:15:57.000Z</time>
</trkpt>
<trkpt lat="46.4391707" lon="14.2122337">
<ele>2114.53</ele>
<time>2026-07-19T09:16:37.000Z</time>
</trkpt>
<trkpt lat="46.4390413" lon="14.2120490">
<ele>2103.24</ele>
<time>2026-07-19T09:17:11.000Z</time>
</trkpt>
<trkpt lat="46.4388966" lon="14.2118876">
<ele>2092.57</ele>
<time>2026-07-19T09:17:38.000Z</time>
</trkpt>
<trkpt lat="46.4387515" lon="14.2117007">
<ele>2075.98</ele>
<time>2026-07-19T09:18:06.000Z</time>
</trkpt>
<trkpt lat="46.4385799" lon="14.2116149">
<ele>2065.35</ele>
<time>2026-07-19T09:18:27.000Z</time>
</trkpt>
<trkpt lat="46.4384517" lon="14.2114232">
<ele>2044.26</ele>
<time>2026-07-19T09:19:05.000Z</time>
</trkpt>
<trkpt lat="46.4382946" lon="14.2112858">
<ele>2028.87</ele>
<time>2026-07-19T09:19:31.000Z</time>
</trkpt>
<trkpt lat="46.4381980" lon="14.2110636">
<ele>2015.40</ele>
<time>2026-07-19T09:20:03.000Z</time>
</trkpt>
<trkpt lat="46.4380198" lon="14.2110040">
<ele>1992.70</ele>
<time>2026-07-19T09:20:58.000Z</time>
</trkpt>
<trkpt lat="46.4379083" lon="14.2107914">
<ele>1977.96</ele>
<time>2026-07-19T09:21:22.000Z</time>
</trkpt>
<trkpt lat="46.4377360" lon="14.2108751">
<ele>1966.20</ele>
<time>2026-07-19T09:21:48.000Z</time>
</trkpt>
<trkpt lat="46.4376077" lon="14.2106916">
<ele>1946.79</ele>
<time>2026-07-19T09:22:55.000Z</time>
</trkpt>
<trkpt lat="46.4374235" lon="14.2106681">
<ele>1940.34</ele>
<time>2026-07-19T09:23:43.000Z</time>
</trkpt>
<trkpt lat="46.4372435" lon="14.2107053">
<ele>1923.51</ele>
<time>2026-07-19T09:24:13.000Z</time>
</trkpt>
<trkpt lat="46.4370731" lon="14.2108165">
<ele>1899.05</ele>
<time>2026-07-19T09:26:07.000Z</time>
</trkpt>
<trkpt lat="46.4369878" lon="14.2105734">
<ele>1898.28</ele>
<time>2026-07-19T09:26:55.000Z</time>
</trkpt>
<trkpt lat="46.4370359" lon="14.2103149">
<ele>1885.18</ele>
<time>2026-07-19T09:28:21.000Z</time>
</trkpt>
<trkpt lat="46.4368822" lon="14.2101761">
<ele>1869.81</ele>
<time>2026-07-19T09:28:58.000Z</time>
</trkpt>
<trkpt lat="46.4366961" lon="14.2102063">
<ele>1861.24</ele>
<time>2026-07-19T09:29:20.000Z</time>
</trkpt>
<trkpt lat="46.4365360" lon="14.2103317">
<ele>1852.51</ele>
<time>2026-07-19T09:29:44.000Z</time>
</trkpt>
<trkpt lat="46.4363636" lon="14.2104180">
<ele>1839.61</ele>
<time>2026-07-19T09:30:28.000Z</time>
</trkpt>
<trkpt lat="46.4362195" lon="14.2105756">
<ele>1829.52</ele>
<time>2026-07-19T09:30:55.000Z</time>
</trkpt>
<trkpt lat="46.4360454" lon="14.2106586">
<ele>1815.08</ele>
<time>2026-07-19T09:31:20.000Z</time>
</trkpt>
<trkpt lat="46.4358884" lon="14.2107879">
<ele>1799.97</ele>
<time>2026-07-19T09:31:42.000Z</time>
</trkpt>
<trkpt lat="46.4357336" lon="14.2109319">
<ele>1788.14</ele>
<time>2026-07-19T09:32:01.000Z</time>
</trkpt>
<trkpt lat="46.4355645" lon="14.2110210">
<ele>1778.41</ele>
<time>2026-07-19T09:32:21.000Z</time>
</trkpt>
<trkpt lat="46.4355006" lon="14.2112868">
<ele>1766.10</ele>
<time>2026-07-19T09:32:53.000Z</time>
</trkpt>
<trkpt lat="46.4354979" lon="14.2115576">
<ele>1759.04</ele>
<time>2026-07-19T09:33:06.000Z</time>
</trkpt>
<trkpt lat="46.4355125" lon="14.2118216">
<ele>1754.99</ele>
<time>2026-07-19T09:33:17.000Z</time>
</trkpt>
<trkpt lat="46.4354329" lon="14.2120569">
<ele>1750.80</ele>
<time>2026-07-19T09:33:32.000Z</time>
</trkpt>
<trkpt lat="46.4354111" lon="14.2123313">
<ele>1743.61</ele>
<time>2026-07-19T09:33:55.000Z</time>
</trkpt>
<trkpt lat="46.4353967" lon="14.2125951">
<ele>1739.62</ele>
<time>2026-07-19T09:34:12.000Z</time>
</trkpt>
<trkpt lat="46.4353422" lon="14.2128475">
<ele>1736.15</ele>
<time>2026-07-19T09:34:43.000Z</time>
</trkpt>
<trkpt lat="46.4352703" lon="14.2130998">
<ele>1729.59</ele>
<time>2026-07-19T09:34:55.000Z</time>
</trkpt>
<trkpt lat="46.4351997" lon="14.2133411">
<ele>1723.03</ele>
<time>2026-07-19T09:36:09.000Z</time>
</trkpt>
<trkpt lat="46.4351428" lon="14.2136146">
<ele>1721.45</ele>
<time>2026-07-19T09:36:21.000Z</time>
</trkpt>
<trkpt lat="46.4351686" lon="14.2138877">
<ele>1718.79</ele>
<time>2026-07-19T09:36:32.000Z</time>
</trkpt>
<trkpt lat="46.4351268" lon="14.2141443">
<ele>1712.52</ele>
<time>2026-07-19T09:36:58.000Z</time>
</trkpt>
<trkpt lat="46.4351136" lon="14.2144107">
<ele>1708.02</ele>
<time>2026-07-19T09:37:11.000Z</time>
</trkpt>
<trkpt lat="46.4350609" lon="14.2146712">
<ele>1708.41</ele>
<time>2026-07-19T09:37:18.000Z</time>
</trkpt>
<trkpt lat="46.4350075" lon="14.2149482">
<ele>1706.64</ele>
<time>2026-07-19T09:37:26.000Z</time>
</trkpt>
<trkpt lat="46.4349398" lon="14.2152117">
<ele>1712.33</ele>
<time>2026-07-19T09:37:37.000Z</time>
</trkpt>
<trkpt lat="46.4348764" lon="14.2154648">
<ele>1712.43</ele>
<time>2026-07-19T09:37:48.000Z</time>
</trkpt>
<trkpt lat="46.4348328" lon="14.2157186">
<ele>1703.59</ele>
<time>2026-07-19T09:38:02.000Z</time>
</trkpt>
<trkpt lat="46.4347559" lon="14.2159546">
<ele>1702.55</ele>
<time>2026-07-19T09:38:13.000Z</time>
</trkpt>
<trkpt lat="46.4346316" lon="14.2161565">
<ele>1698.66</ele>
<time>2026-07-19T09:38:28.000Z</time>
</trkpt>
<trkpt lat="46.4346041" lon="14.2164186">
<ele>1694.36</ele>
<time>2026-07-19T09:38:40.000Z</time>
</trkpt>
<trkpt lat="46.4346237" lon="14.2166939">
<ele>1688.84</ele>
<time>2026-07-19T09:38:53.000Z</time>
</trkpt>
<trkpt lat="46.4347081" lon="14.2169500">
<ele>1687.21</ele>
<time>2026-07-19T09:39:03.000Z</time>
</trkpt>
<trkpt lat="46.4347686" lon="14.2172037">
<ele>1682.65</ele>
<time>2026-07-19T09:39:14.000Z</time>
</trkpt>
<trkpt lat="46.4346638" lon="14.2174219">
<ele>1681.98</ele>
<time>2026-07-19T09:39:28.000Z</time>
</trkpt>
<trkpt lat="46.4346471" lon="14.2176839">
<ele>1677.41</ele>
<time>2026-07-19T09:39:41.000Z</time>
</trkpt>
<trkpt lat="46.4346552" lon="14.2179581">
<ele>1677.37</ele>
<time>2026-07-19T09:39:52.000Z</time>
</trkpt>
<trkpt lat="46.4347333" lon="14.2182100">
<ele>1676.55</ele>
<time>2026-07-19T09:40:09.000Z</time>
</trkpt>
<trkpt lat="46.4348007" lon="14.2184627">
<ele>1668.94</ele>
<time>2026-07-19T09:40:23.000Z</time>
</trkpt>
<trkpt lat="46.4348913" lon="14.2186892">
<ele>1669.29</ele>
<time>2026-07-19T09:40:32.000Z</time>
</trkpt>
<trkpt lat="46.4348258" lon="14.2189536">
<ele>1665.08</ele>
<time>2026-07-19T09:40:47.000Z</time>
</trkpt>
<trkpt lat="46.4348149" lon="14.2192255">
<ele>1663.46</ele>
<time>2026-07-19T09:40:57.000Z</time>
</trkpt>
<trkpt lat="46.4348572" lon="14.2194948">
<ele>1665.46</ele>
<time>2026-07-19T09:41:06.000Z</time>
</trkpt>
<trkpt lat="46.4349084" lon="14.2197501">
<ele>1660.82</ele>
<time>2026-07-19T09:41:20.000Z</time>
</trkpt>
<trkpt lat="46.4349150" lon="14.2200190">
<ele>1662.59</ele>
<time>2026-07-19T09:41:34.000Z</time>
</trkpt>
<trkpt lat="46.4348156" lon="14.2202382">
<ele>1655.98</ele>
<time>2026-07-19T09:41:49.000Z</time>
</trkpt>
<trkpt lat="46.4347656" lon="14.2204909">
<ele>1656.90</ele>
<time>2026-07-19T09:42:03.000Z</time>
</trkpt>
<trkpt lat="46.4348066" lon="14.2207594">
<ele>1648.52</ele>
<time>2026-07-19T09:42:15.000Z</time>
</trkpt>
<trkpt lat="46.4348038" lon="14.2210205">
<ele>1645.57</ele>
<time>2026-07-19T09:42:28.000Z</time>
</trkpt>
<trkpt lat="46.4347234" lon="14.2212764">
<ele>1641.40</ele>
<time>2026-07-19T09:42:40.000Z</time>
</trkpt>
<trkpt lat="46.4347678" lon="14.2215646">
<ele>1632.96</ele>
<time>2026-07-19T09:42:50.000Z</time>
</trkpt>
<trkpt lat="46.4347525" lon="14.2218276">
<ele>1637.48</ele>
<time>2026-07-19T09:42:59.000Z</time>
</trkpt>
<trkpt lat="46.4347933" lon="14.2220858">
<ele>1636.57</ele>
<time>2026-07-19T09:43:11.000Z</time>
</trkpt>
<trkpt lat="46.4348100" lon="14.2223519">
<ele>1634.24</ele>
<time>2026-07-19T09:43:27.000Z</time>
</trkpt>
<trkpt lat="46.4348243" lon="14.2226259">
<ele>1630.81</ele>
<time>2026-07-19T09:43:36.000Z</time>
</trkpt>
<trkpt lat="46.4348237" lon="14.2229070">
<ele>1632.66</ele>
<time>2026-07-19T09:43:45.000Z</time>
</trkpt>
<trkpt lat="46.4347584" lon="14.2231522">
<ele>1631.29</ele>
<time>2026-07-19T09:43:57.000Z</time>
</trkpt>
<trkpt lat="46.4347057" lon="14.2234128">
<ele>1632.06</ele>
<time>2026-07-19T09:44:08.000Z</time>
</trkpt>
<trkpt lat="46.4346599" lon="14.2236788">
<ele>1634.43</ele>
<time>2026-07-19T09:44:18.000Z</time>
</trkpt>
<trkpt lat="46.4345821" lon="14.2239367">
<ele>1628.49</ele>
<time>2026-07-19T09:44:36.000Z</time>
</trkpt>
<trkpt lat="46.4344871" lon="14.2241626">
<ele>1630.25</ele>
<time>2026-07-19T09:44:48.000Z</time>
</trkpt>
<trkpt lat="46.4343643" lon="14.2243704">
<ele>1626.69</ele>
<time>2026-07-19T09:44:59.000Z</time>
</trkpt>
<trkpt lat="46.4342652" lon="14.2245925">
<ele>1628.93</ele>
<time>2026-07-19T09:45:08.000Z</time>
</trkpt>
<trkpt lat="46.4341998" lon="14.2248505">
<ele>1619.46</ele>
<time>2026-07-19T09:45:20.000Z</time>
</trkpt>
<trkpt lat="46.4341407" lon="14.2251137">
<ele>1619.09</ele>
<time>2026-07-19T09:45:30.000Z</time>
</trkpt>
<trkpt lat="46.4342069" lon="14.2253666">
<ele>1612.20</ele>
<time>2026-07-19T09:45:41.000Z</time>
</trkpt>
<trkpt lat="46.4341329" lon="14.2256153">
<ele>1607.99</ele>
<time>2026-07-19T09:45:56.000Z</time>
</trkpt>
<trkpt lat="46.4340152" lon="14.2258132">
<ele>1608.64</ele>
<time>2026-07-19T09:46:07.000Z</time>
</trkpt>
<trkpt lat="46.4338784" lon="14.2259908">
<ele>1604.04</ele>
<time>2026-07-19T09:46:19.000Z</time>
</trkpt>
<trkpt lat="46.4337410" lon="14.2261952">
<ele>1600.94</ele>
<time>2026-07-19T09:46:28.000Z</time>
</trkpt>
<trkpt lat="46.4336077" lon="14.2263938">
<ele>1592.20</ele>
<time>2026-07-19T09:46:40.000Z</time>
</trkpt>
<trkpt lat="46.4335372" lon="14.2266355">
<ele>1591.32</ele>
<time>2026-07-19T09:46:52.000Z</time>
</trkpt>
<trkpt lat="46.4334382" lon="14.2268575">
<ele>1591.19</ele>
<time>2026-07-19T09:47:00.000Z</time>
</trkpt>
<trkpt lat="46.4332590" lon="14.2269401">
<ele>1588.41</ele>
<time>2026-07-19T09:47:15.000Z</time>
</trkpt>
<trkpt lat="46.4331379" lon="14.2271329">
<ele>1588.07</ele>
<time>2026-07-19T09:47:21.000Z</time>
</trkpt>
<trkpt lat="46.4329873" lon="14.2273090">
<ele>1587.54</ele>
<time>2026-07-19T09:47:33.000Z</time>
</trkpt>
<trkpt lat="46.4329676" lon="14.2275850">
<ele>1581.73</ele>
<time>2026-07-19T09:47:51.000Z</time>
</trkpt>
<trkpt lat="46.4330083" lon="14.2278447">
<ele>1577.04</ele>
<time>2026-07-19T09:48:03.000Z</time>
</trkpt>
<trkpt lat="46.4328881" lon="14.2280605">
<ele>1579.03</ele>
<time>2026-07-19T09:48:12.000Z</time>
</trkpt>
<trkpt lat="46.4327834" lon="14.2282898">
<ele>1584.36</ele>
<time>2026-07-19T09:48:23.000Z</time>
</trkpt>
<trkpt lat="46.4327201" lon="14.2285353">
<ele>1581.25</ele>
<time>2026-07-19T09:48:34.000Z</time>
</trkpt>
<trkpt lat="46.4326327" lon="14.2287724">
<ele>1580.70</ele>
<time>2026-07-19T09:48:47.000Z</time>
</trkpt>
<trkpt lat="46.4325061" lon="14.2289727">
<ele>1572.74</ele>
<time>2026-07-19T09:48:56.000Z</time>
</trkpt>
<trkpt lat="46.4323765" lon="14.2291660">
<ele>1573.08</ele>
<time>2026-07-19T09:49:09.000Z</time>
</trkpt>
<trkpt lat="46.4322475" lon="14.2293642">
<ele>1575.75</ele>
<time>2026-07-19T09:49:17.000Z</time>
</trkpt>
<trkpt lat="46.4321170" lon="14.2295440">
<ele>1569.19</ele>
<time>2026-07-19T09:49:28.000Z</time>
</trkpt>
<trkpt lat="46.4319850" lon="14.2297543">
<ele>1563.74</ele>
<time>2026-07-19T09:49:38.000Z</time>
</trkpt>
<trkpt lat="46.4318185" lon="14.2298617">
<ele>1558.00</ele>
<time>2026-07-19T09:49:49.000Z</time>
</trkpt>
<trkpt lat="46.4316988" lon="14.2300733">
<ele>1555.45</ele>
<time>2026-07-19T09:50:00.000Z</time>
</trkpt>
<trkpt lat="46.4315826" lon="14.2303139">
<ele>1557.44</ele>
<time>2026-07-19T09:50:20.000Z</time>
</trkpt>
<trkpt lat="46.4314531" lon="14.2305123">
<ele>1564.85</ele>
<time>2026-07-19T09:50:31.000Z</time>
</trkpt>
<trkpt lat="46.4313669" lon="14.2307624">
<ele>1561.99</ele>
<time>2026-07-19T09:50:38.000Z</time>
</trkpt>
<trkpt lat="46.4312988" lon="14.2310333">
<ele>1562.62</ele>
<time>2026-07-19T09:50:51.000Z</time>
</trkpt>
<trkpt lat="46.4311767" lon="14.2312286">
<ele>1563.08</ele>
<time>2026-07-19T09:50:58.000Z</time>
</trkpt>
<trkpt lat="46.4310454" lon="14.2314273">
<ele>1566.34</ele>
<time>2026-07-19T09:51:08.000Z</time>
</trkpt>
<trkpt lat="46.4309258" lon="14.2316266">
<ele>1565.77</ele>
<time>2026-07-19T09:51:23.000Z</time>
</trkpt>
<trkpt lat="46.4308453" lon="14.2318674">
<ele>1567.52</ele>
<time>2026-07-19T09:51:56.000Z</time>
</trkpt>
<trkpt lat="46.4306972" lon="14.2320535">
<ele>1570.53</ele>
<time>2026-07-19T09:52:13.000Z</time>
</trkpt>
<trkpt lat="46.4305544" lon="14.2322295">
<ele>1568.65</ele>
<time>2026-07-19T09:52:29.000Z</time>
</trkpt>
<trkpt lat="46.4304150" lon="14.2324453">
<ele>1568.22</ele>
<time>2026-07-19T09:52:44.000Z</time>
</trkpt>
<trkpt lat="46.4302794" lon="14.2326342">
<ele>1568.60</ele>
<time>2026-07-19T09:52:53.000Z</time>
</trkpt>
<trkpt lat="46.4301000" lon="14.2327501">
<ele>1565.22</ele>
<time>2026-07-19T09:53:09.000Z</time>
</trkpt>
<trkpt lat="46.4299417" lon="14.2328901">
<ele>1562.52</ele>
<time>2026-07-19T09:53:21.000Z</time>
</trkpt>
<trkpt lat="46.4297577" lon="14.2328071">
<ele>1557.08</ele>
<time>2026-07-19T09:53:50.000Z</time>
</trkpt>
<trkpt lat="46.4295714" lon="14.2328588">
<ele>1549.94</ele>
<time>2026-07-19T09:53:59.000Z</time>
</trkpt>
<trkpt lat="46.4294285" lon="14.2330323">
<ele>1546.62</ele>
<time>2026-07-19T09:54:10.000Z</time>
</trkpt>
<trkpt lat="46.4293220" lon="14.2332609">
<ele>1543.38</ele>
<time>2026-07-19T09:54:19.000Z</time>
</trkpt>
<trkpt lat="46.4292057" lon="14.2334774">
<ele>1533.42</ele>
<time>2026-07-19T09:54:32.000Z</time>
</trkpt>
<trkpt lat="46.4291018" lon="14.2337013">
<ele>1537.04</ele>
<time>2026-07-19T09:54:42.000Z</time>
</trkpt>
<trkpt lat="46.4290077" lon="14.2339328">
<ele>1538.89</ele>
<time>2026-07-19T09:54:53.000Z</time>
</trkpt>
<trkpt lat="46.4289531" lon="14.2341920">
<ele>1531.62</ele>
<time>2026-07-19T09:55:10.000Z</time>
</trkpt>
<trkpt lat="46.4290078" lon="14.2344471">
<ele>1535.64</ele>
<time>2026-07-19T09:55:21.000Z</time>
</trkpt>
<trkpt lat="46.4289993" lon="14.2347097">
<ele>1534.95</ele>
<time>2026-07-19T09:55:43.000Z</time>
</trkpt>
<trkpt lat="46.4288577" lon="14.2348803">
<ele>1541.34</ele>
<time>2026-07-19T09:56:08.000Z</time>
</trkpt>
<trkpt lat="46.4288399" lon="14.2351505">
<ele>1535.24</ele>
<time>2026-07-19T09:56:24.000Z</time>
</trkpt>
<trkpt lat="46.4287513" lon="14.2353868">
<ele>1527.09</ele>
<time>2026-07-19T09:56:37.000Z</time>
</trkpt>
<trkpt lat="46.4287560" lon="14.2356581">
<ele>1520.68</ele>
<time>2026-07-19T09:56:50.000Z</time>
</trkpt>
<trkpt lat="46.4287194" lon="14.2359239">
<ele>1510.48</ele>
<time>2026-07-19T09:57:01.000Z</time>
</trkpt>
<trkpt lat="46.4286280" lon="14.2361670">
<ele>1504.78</ele>
<time>2026-07-19T09:57:11.000Z</time>
</trkpt>
<trkpt lat="46.4284982" lon="14.2363630">
<ele>1503.67</ele>
<time>2026-07-19T09:57:23.000Z</time>
</trkpt>
<trkpt lat="46.4285511" lon="14.2366326">
<ele>1499.21</ele>
<time>2026-07-19T09:57:35.000Z</time>
</trkpt>
<trkpt lat="46.4286119" lon="14.2369132">
<ele>1492.65</ele>
<time>2026-07-19T09:57:49.000Z</time>
</trkpt>
<trkpt lat="46.4286588" lon="14.2371679">
<ele>1492.60</ele>
<time>2026-07-19T09:58:00.000Z</time>
</trkpt>
<trkpt lat="46.4287247" lon="14.2374385">
<ele>1493.75</ele>
<time>2026-07-19T09:58:09.000Z</time>
</trkpt>
<trkpt lat="46.4287697" lon="14.2377144">
<ele>1486.64</ele>
<time>2026-07-19T09:58:23.000Z</time>
</trkpt>
<trkpt lat="46.4287797" lon="14.2379939">
<ele>1480.88</ele>
<time>2026-07-19T09:58:35.000Z</time>
</trkpt>
<trkpt lat="46.4287389" lon="14.2382661">
<ele>1478.20</ele>
<time>2026-07-19T09:58:59.000Z</time>
</trkpt>
<trkpt lat="46.4286225" lon="14.2384765">
<ele>1482.04</ele>
<time>2026-07-19T09:59:05.000Z</time>
</trkpt>
<trkpt lat="46.4285853" lon="14.2387610">
<ele>1477.37</ele>
<time>2026-07-19T09:59:14.000Z</time>
</trkpt>
<trkpt lat="46.4285772" lon="14.2390498">
<ele>1470.39</ele>
<time>2026-07-19T09:59:23.000Z</time>
</trkpt>
<trkpt lat="46.4285666" lon="14.2393137">
<ele>1466.08</ele>
<time>2026-07-19T09:59:36.000Z</time>
</trkpt>
<trkpt lat="46.4286046" lon="14.2395834">
<ele>1462.31</ele>
<time>2026-07-19T09:59:45.000Z</time>
</trkpt>
<trkpt lat="46.4287519" lon="14.2397417">
<ele>1452.74</ele>
<time>2026-07-19T09:59:56.000Z</time>
</trkpt>
<trkpt lat="46.4288858" lon="14.2399286">
<ele>1443.68</ele>
<time>2026-07-19T10:00:08.000Z</time>
</trkpt>
<trkpt lat="46.4290150" lon="14.2401207">
<ele>1434.27</ele>
<time>2026-07-19T10:00:19.000Z</time>
</trkpt>
<trkpt lat="46.4291551" lon="14.2402959">
<ele>1432.66</ele>
<time>2026-07-19T10:00:27.000Z</time>
</trkpt>
<trkpt lat="46.4293060" lon="14.2401351">
<ele>1428.08</ele>
<time>2026-07-19T10:00:45.000Z</time>
</trkpt>
<trkpt lat="46.4294924" lon="14.2401069">
<ele>1424.59</ele>
<time>2026-07-19T10:00:55.000Z</time>
</trkpt>
<trkpt lat="46.4295744" lon="14.2403670">
<ele>1421.70</ele>
<time>2026-07-19T10:01:06.000Z</time>
</trkpt>
<trkpt lat="46.4297635" lon="14.2404097">
<ele>1413.30</ele>
<time>2026-07-19T10:01:21.000Z</time>
</trkpt>
<trkpt lat="46.4299388" lon="14.2405198">
<ele>1407.92</ele>
<time>2026-07-19T10:01:31.000Z</time>
</trkpt>
<trkpt lat="46.4300620" lon="14.2407540">
<ele>1408.27</ele>
<time>2026-07-19T10:01:42.000Z</time>
</trkpt>
<trkpt lat="46.4302293" lon="14.2409051">
<ele>1409.72</ele>
<time>2026-07-19T10:01:51.000Z</time>
</trkpt>
<trkpt lat="46.4303721" lon="14.2410956">
<ele>1407.73</ele>
<time>2026-07-19T10:02:02.000Z</time>
</trkpt>
<trkpt lat="46.4305294" lon="14.2412853">
<ele>1406.35</ele>
<time>2026-07-19T10:02:12.000Z</time>
</trkpt>
<trkpt lat="46.4306928" lon="14.2414224">
<ele>1403.58</ele>
<time>2026-07-19T10:02:20.000Z</time>
</trkpt>
<trkpt lat="46.4307969" lon="14.2416366">
<ele>1398.87</ele>
<time>2026-07-19T10:02:33.000Z</time>
</trkpt>
<trkpt lat="46.4308872" lon="14.2418735">
<ele>1391.34</ele>
<time>2026-07-19T10:02:44.000Z</time>
</trkpt>
<trkpt lat="46.4309943" lon="14.2420901">
<ele>1389.38</ele>
<time>2026-07-19T10:02:53.000Z</time>
</trkpt>
<trkpt lat="46.4310927" lon="14.2423347">
<ele>1383.08</ele>
<time>2026-07-19T10:03:05.000Z</time>
</trkpt>
<trkpt lat="46.4312261" lon="14.2425130">
<ele>1373.90</ele>
<time>2026-07-19T10:03:18.000Z</time>
</trkpt>
<trkpt lat="46.4313147" lon="14.2427586">
<ele>1374.41</ele>
<time>2026-07-19T10:03:27.000Z</time>
</trkpt>
<trkpt lat="46.4313554" lon="14.2430137">
<ele>1368.60</ele>
<time>2026-07-19T10:03:37.000Z</time>
</trkpt>
<trkpt lat="46.4312423" lon="14.2432331">
<ele>1355.62</ele>
<time>2026-07-19T10:04:00.000Z</time>
</trkpt>
<trkpt lat="46.4313695" lon="14.2434315">
<ele>1348.32</ele>
<time>2026-07-19T10:04:11.000Z</time>
</trkpt>
<trkpt lat="46.4314544" lon="14.2436638">
<ele>1339.61</ele>
<time>2026-07-19T10:04:21.000Z</time>
</trkpt>
<trkpt lat="46.4314507" lon="14.2439390">
<ele>1338.84</ele>
<time>2026-07-19T10:04:31.000Z</time>
</trkpt>
<trkpt lat="46.4314860" lon="14.2442050">
<ele>1333.72</ele>
<time>2026-07-19T10:04:42.000Z</time>
</trkpt>
<trkpt lat="46.4314862" lon="14.2444786">
<ele>1332.83</ele>
<time>2026-07-19T10:04:51.000Z</time>
</trkpt>
<trkpt lat="46.4315723" lon="14.2447116">
<ele>1320.90</ele>
<time>2026-07-19T10:05:00.000Z</time>
</trkpt>
<trkpt lat="46.4313961" lon="14.2446078">
<ele>1322.72</ele>
<time>2026-07-19T10:05:15.000Z</time>
</trkpt>
<trkpt lat="46.4313057" lon="14.2448348">
<ele>1310.22</ele>
<time>2026-07-19T10:05:36.000Z</time>
</trkpt>
<trkpt lat="46.4312571" lon="14.2450940">
<ele>1308.68</ele>
<time>2026-07-19T10:05:45.000Z</time>
</trkpt>
<trkpt lat="46.4312548" lon="14.2453565">
<ele>1306.07</ele>
<time>2026-07-19T10:05:54.000Z</time>
</trkpt>
<trkpt lat="46.4312865" lon="14.2456246">
<ele>1303.47</ele>
<time>2026-07-19T10:06:03.000Z</time>
</trkpt>
<trkpt lat="46.4312569" lon="14.2458941">
<ele>1294.58</ele>
<time>2026-07-19T10:06:31.000Z</time>
</trkpt>
<trkpt lat="46.4313721" lon="14.2461058">
<ele>1289.81</ele>
<time>2026-07-19T10:06:41.000Z</time>
</trkpt>
<trkpt lat="46.4314448" lon="14.2463655">
<ele>1285.77</ele>
<time>2026-07-19T10:06:56.000Z</time>
</trkpt>
<trkpt lat="46.4314821" lon="14.2466229">
<ele>1284.61</ele>
<time>2026-07-19T10:07:13.000Z</time>
</trkpt>
<trkpt lat="46.4313886" lon="14.2468599">
<ele>1283.82</ele>
<time>2026-07-19T10:07:31.000Z</time>
</trkpt>
<trkpt lat="46.4313545" lon="14.2471281">
<ele>1278.16</ele>
<time>2026-07-19T10:07:53.000Z</time>
</trkpt>
<trkpt lat="46.4313526" lon="14.2474062">
<ele>1268.37</ele>
<time>2026-07-19T10:08:07.000Z</time>
</trkpt>
<trkpt lat="46.4314097" lon="14.2476701">
<ele>1264.35</ele>
<time>2026-07-19T10:08:16.000Z</time>
</trkpt>
<trkpt lat="46.4314875" lon="14.2479360">
<ele>1264.82</ele>
<time>2026-07-19T10:08:26.000Z</time>
</trkpt>
<trkpt lat="46.4315340" lon="14.2481892">
<ele>1258.95</ele>
<time>2026-07-19T10:08:36.000Z</time>
</trkpt>
<trkpt lat="46.4316014" lon="14.2484374">
<ele>1255.99</ele>
<time>2026-07-19T10:08:48.000Z</time>
</trkpt>
<trkpt lat="46.4317177" lon="14.2486409">
<ele>1253.24</ele>
<time>2026-07-19T10:08:58.000Z</time>
</trkpt>
<trkpt lat="46.4318290" lon="14.2488468">
<ele>1265.15</ele>
<time>2026-07-19T10:09:20.000Z</time>
</trkpt>
<trkpt lat="46.4318321" lon="14.2491148">
<ele>1253.19</ele>
<time>2026-07-19T10:09:41.000Z</time>
</trkpt>
<trkpt lat="46.4318867" lon="14.2493772">
<ele>1255.99</ele>
<time>2026-07-19T10:09:51.000Z</time>
</trkpt>
<trkpt lat="46.4319170" lon="14.2496511">
<ele>1250.00</ele>
<time>2026-07-19T10:10:05.000Z</time>
</trkpt>
<trkpt lat="46.4319237" lon="14.2499156">
<ele>1250.97</ele>
<time>2026-07-19T10:10:17.000Z</time>
</trkpt>
<trkpt lat="46.4319891" lon="14.2501806">
<ele>1241.09</ele>
<time>2026-07-19T10:10:46.000Z</time>
</trkpt>
<trkpt lat="46.4319554" lon="14.2504409">
<ele>1235.61</ele>
<time>2026-07-19T10:11:04.000Z</time>
</trkpt>
<trkpt lat="46.4318430" lon="14.2506534">
<ele>1224.02</ele>
<time>2026-07-19T10:11:43.000Z</time>
</trkpt>
<trkpt lat="46.4317573" lon="14.2508863">
<ele>1216.21</ele>
<time>2026-07-19T10:12:13.000Z</time>
</trkpt>
<trkpt lat="46.4317505" lon="14.2511572">
<ele>1207.56</ele>
<time>2026-07-19T10:12:39.000Z</time>
</trkpt>
<trkpt lat="46.4317351" lon="14.2514253">
<ele>1203.84</ele>
<time>2026-07-19T10:12:55.000Z</time>
</trkpt>
<trkpt lat="46.4318431" lon="14.2516588">
<ele>1194.47</ele>
<time>2026-07-19T10:13:12.000Z</time>
</trkpt>
<trkpt lat="46.4318825" lon="14.2519225">
<ele>1185.79</ele>
<time>2026-07-19T10:13:29.000Z</time>
</trkpt>
<trkpt lat="46.4318870" lon="14.2521941">
<ele>1173.56</ele>
<time>2026-07-19T10:13:47.000Z</time>
</trkpt>
<trkpt lat="46.4319624" lon="14.2524510">
<ele>1171.50</ele>
<time>2026-07-19T10:13:56.000Z</time>
</trkpt>
<trkpt lat="46.4320352" lon="14.2527061">
<ele>1172.57</ele>
<time>2026-07-19T10:14:09.000Z</time>
</trkpt>
<trkpt lat="46.4320747" lon="14.2529675">
<ele>1170.92</ele>
<time>2026-07-19T10:14:29.000Z</time>
</trkpt>
<trkpt lat="46.4321068" lon="14.2532268">
<ele>1167.40</ele>
<time>2026-07-19T10:14:42.000Z</time>
</trkpt>
<trkpt lat="46.4322505" lon="14.2534171">
<ele>1157.58</ele>
<time>2026-07-19T10:14:55.000Z</time>
</trkpt>
<trkpt lat="46.4322820" lon="14.2536823">
<ele>1157.06</ele>
<time>2026-07-19T10:15:08.000Z</time>
</trkpt>
<trkpt lat="46.4323007" lon="14.2539432">
<ele>1154.73</ele>
<time>2026-07-19T10:15:23.000Z</time>
</trkpt>
<trkpt lat="46.4323605" lon="14.2541932">
<ele>1150.14</ele>
<time>2026-07-19T10:15:45.000Z</time>
</trkpt>
<trkpt lat="46.4324162" lon="14.2544562">
<ele>1154.58</ele>
<time>2026-07-19T10:15:59.000Z</time>
</trkpt>
<trkpt lat="46.4325075" lon="14.2546825">
<ele>1154.23</ele>
<time>2026-07-19T10:16:11.000Z</time>
</trkpt>
<trkpt lat="46.4325295" lon="14.2549481">
<ele>1152.77</ele>
<time>2026-07-19T10:16:26.000Z</time>
</trkpt>
<trkpt lat="46.4324593" lon="14.2552011">
<ele>1151.74</ele>
<time>2026-07-19T10:16:45.000Z</time>
</trkpt>
<trkpt lat="46.4323711" lon="14.2554368">
<ele>1146.06</ele>
<time>2026-07-19T10:17:02.000Z</time>
</trkpt>
<trkpt lat="46.4323131" lon="14.2556917">
<ele>1136.79</ele>
<time>2026-07-19T10:17:26.000Z</time>
</trkpt>
<trkpt lat="46.4322135" lon="14.2559142">
<ele>1131.69</ele>
<time>2026-07-19T10:17:50.000Z</time>
</trkpt>
<trkpt lat="46.4320905" lon="14.2561108">
<ele>1119.14</ele>
<time>2026-07-19T10:18:11.000Z</time>
</trkpt>
<trkpt lat="46.4319736" lon="14.2563260">
<ele>1112.98</ele>
<time>2026-07-19T10:18:30.000Z</time>
</trkpt>
<trkpt lat="46.4318887" lon="14.2565719">
<ele>1102.76</ele>
<time>2026-07-19T10:18:48.000Z</time>
</trkpt>
<trkpt lat="46.4318417" lon="14.2568478">
<ele>1097.30</ele>
<time>2026-07-19T10:19:02.000Z</time>
</trkpt>
<trkpt lat="46.4318789" lon="14.2571073">
<ele>1089.86</ele>
<time>2026-07-19T10:19:11.000Z</time>
</trkpt>
<trkpt lat="46.4318661" lon="14.2573801">
<ele>1091.63</ele>
<time>2026-07-19T10:19:20.000Z</time>
</trkpt>
<trkpt lat="46.4318904" lon="14.2576448">
<ele>1087.32</ele>
<time>2026-07-19T10:19:33.000Z</time>
</trkpt>
<trkpt lat="46.4318724" lon="14.2579089">
<ele>1086.22</ele>
<time>2026-07-19T10:19:44.000Z</time>
</trkpt>
<trkpt lat="46.4318963" lon="14.2581728">
<ele>1077.58</ele>
<time>2026-07-19T10:19:57.000Z</time>
</trkpt>
<trkpt lat="46.4319059" lon="14.2584549">
<ele>1076.15</ele>
<time>2026-07-19T10:20:07.000Z</time>
</trkpt>
<trkpt lat="46.4319329" lon="14.2587142">
<ele>1074.90</ele>
<time>2026-07-19T10:20:15.000Z</time>
</trkpt>
<trkpt lat="46.4319321" lon="14.2589858">
<ele>1069.55</ele>
<time>2026-07-19T10:20:26.000Z</time>
</trkpt>
<trkpt lat="46.4319519" lon="14.2592469">
<ele>1067.29</ele>
<time>2026-07-19T10:20:35.000Z</time>
</trkpt>
<trkpt lat="46.4319585" lon="14.2595206">
<ele>1060.05</ele>
<time>2026-07-19T10:20:54.000Z</time>
</trkpt>
<trkpt lat="46.4320309" lon="14.2597650">
<ele>1054.59</ele>
<time>2026-07-19T10:21:05.000Z</time>
</trkpt>
<trkpt lat="46.4321427" lon="14.2599831">
<ele>1059.79</ele>
<time>2026-07-19T10:22:34.000Z</time>
</trkpt>
<trkpt lat="46.4322697" lon="14.2601701">
<ele>1052.79</ele>
<time>2026-07-19T10:22:51.000Z</time>
</trkpt>
<trkpt lat="46.4323531" lon="14.2604234">
<ele>1050.80</ele>
<time>2026-07-19T10:23:02.000Z</time>
</trkpt>
<trkpt lat="46.4324487" lon="14.2606723">
<ele>1056.09</ele>
<time>2026-07-19T10:23:14.000Z</time>
</trkpt>
<trkpt lat="46.4324857" lon="14.2609534">
<ele>1052.43</ele>
<time>2026-07-19T10:23:24.000Z</time>
</trkpt>
<trkpt lat="46.4326353" lon="14.2611005">
<ele>1053.85</ele>
<time>2026-07-19T10:23:41.000Z</time>
</trkpt>
<trkpt lat="46.4328083" lon="14.2612024">
<ele>1056.61</ele>
<time>2026-07-19T10:23:58.000Z</time>
</trkpt>
<trkpt lat="46.4329091" lon="14.2614208">
<ele>1058.14</ele>
<time>2026-07-19T10:24:08.000Z</time>
</trkpt>
<trkpt lat="46.4329156" lon="14.2616872">
<ele>1057.91</ele>
<time>2026-07-19T10:24:26.000Z</time>
</trkpt>
<trkpt lat="46.4329531" lon="14.2619561">
<ele>1055.13</ele>
<time>2026-07-19T10:24:37.000Z</time>
</trkpt>
<extensions>
<om:oruxmapsextensions>
<om:ext type="NAME" subtype="0"><![CDATA[Segment: 1]]></om:ext>
</om:oruxmapsextensions>
</extensions>
</trkseg>
</trk>
</gpx>
