<?xml version="1.0" encoding="UTF-8" standalone="no" ?>
<gpx xmlns="http://www.topografix.com/GPX/1/1" creator="OruxMaps v.10.7.4 GP" version="1.1" xmlns:gpxtpx="http://www.garmin.com/xmlschemas/TrackPointExtension/v2" xmlns:xsi="http://www.w3.org/2001/XMLSchema-instance" xmlns:om="http://www.oruxmaps.com/oruxmapsextensions/1/0" xsi:schemaLocation="http://www.topografix.com/GPX/1/1 http://www.topografix.com/GPX/1/1/gpx.xsd">
<!-- owner: e57cf051988575 -->
<metadata>
<name><![CDATA[2026-08-01 05:28:12 Hochobir / Ojstrc]]></name>
<link href="https://www.oruxmaps.com">
<text>OruxMaps GP</text>
</link>
<time>2026-08-01T03:28:12.752Z</time><bounds maxlat="46.5390461" maxlon="14.5091966" minlat="46.5011908" minlon="14.4818486"/>
</metadata>
<wpt lat="46.5390461" lon="14.5085550">
<ele>510.76</ele>
<time>2026-08-01T03:28:13.317Z</time>
<name><![CDATA[]]></name>
<sym>Waypoint</sym>
<type>Starting Point</type>
<extensions>
<om:oruxmapsextensions>
<om:ext type="ICON" subtype="0">38</om:ext>
</om:oruxmapsextensions>
</extensions>
</wpt>
<wpt lat="46.5390291" lon="14.5087296">
<ele>515.30</ele>
<time>2026-08-01T08:00:25.123Z</time>
<name><![CDATA[]]></name>
<desc><![CDATA[<p><br /><h3>Name: Segment: 1</h3><br />Type: Hiking<br/>Start time: 05:28 1 Aug 2026<br/>Finish time: 10:00 1 Aug 2026<br/>Distance: 14.7km (04:32)<br/>Moving time: 04:01<br/>Average speed: 3.23 km/h<br/>Speed in Movement: 3.64 km/h<br/>Maximum Speed: 11.14 km/h<br/>Minimum altitude: 510 m<br/>Maximum altitude: 2140 m<br/>Ascent speed: 727.0 m/h<br/>Descent speed: 916.4 m/h<br/>Elevation gain: 1629 m<br/>Elevation loss: 1601 m<br/>Ascent time: 02:14<br/>Descent time: 01:44<br/></p>]]></desc>
<sym>Waypoint</sym>
<type>Finishing Point</type>
<extensions>
<om:oruxmapsextensions>
<om:ext type="ICON" subtype="0">15</om:ext>
</om:oruxmapsextensions>
</extensions>
</wpt>
<trk>
<name><![CDATA[2026-08-01 05:28:12 Hochobir / Ojstrc]]></name>
<desc><![CDATA[<p>Type: Hiking<br/>Start time: 05:28 1 Aug 2026<br/>Finish time: 10:00 1 Aug 2026<br/>Distance: 14.7 km (04:32)<br/>Moving time: 04:01<br/>Average speed: 3.23 km/h<br/>Speed in Movement: 3.64 km/h<br/>Maximum Speed: 11.14 km/h<br/>Minimum altitude: 510 m<br/>Maximum altitude: 2140 m<br/>Ascent speed: 727.0 m/h<br/>Descent speed: 916.4 m/h<br/>Elevation gain: 1629 m<br/>Elevation loss: 1601 m<br/>Ascent time: 02:14<br/>Descent time: 01:44<br/></p><hr align="center" width="480" style="height: 2px; width: 517px"/>]]></desc>
<type>Hiking</type>
<extensions>
<om:oruxmapsextensions>
<om:ext type="TYPE" subtype="0">5</om:ext>
<om:ext type="DIFFICULTY">0</om:ext>
</om:oruxmapsextensions>
</extensions>
<trkseg>
<trkpt lat="46.5390461" lon="14.5085550">
<ele>510.76</ele>
<time>2026-08-01T03:28:14.000Z</time>
</trkpt>
<trkpt lat="46.5389816" lon="14.5088042">
<ele>516.33</ele>
<time>2026-08-01T03:28:37.000Z</time>
</trkpt>
<trkpt lat="46.5388690" lon="14.5090092">
<ele>516.07</ele>
<time>2026-08-01T03:28:50.000Z</time>
</trkpt>
<trkpt lat="46.5387218" lon="14.5088585">
<ele>520.37</ele>
<time>2026-08-01T03:29:17.000Z</time>
</trkpt>
<trkpt lat="46.5387484" lon="14.5085962">
<ele>520.34</ele>
<time>2026-08-01T03:29:26.000Z</time>
</trkpt>
<trkpt lat="46.5385673" lon="14.5085901">
<ele>527.38</ele>
<time>2026-08-01T03:29:54.000Z</time>
</trkpt>
<trkpt lat="46.5384325" lon="14.5087726">
<ele>532.33</ele>
<time>2026-08-01T03:30:10.000Z</time>
</trkpt>
<trkpt lat="46.5382599" lon="14.5088728">
<ele>537.24</ele>
<time>2026-08-01T03:30:25.000Z</time>
</trkpt>
<trkpt lat="46.5380805" lon="14.5089008">
<ele>539.21</ele>
<time>2026-08-01T03:30:38.000Z</time>
</trkpt>
<trkpt lat="46.5378973" lon="14.5089661">
<ele>542.55</ele>
<time>2026-08-01T03:30:52.000Z</time>
</trkpt>
<trkpt lat="46.5377380" lon="14.5090887">
<ele>549.63</ele>
<time>2026-08-01T03:31:01.000Z</time>
</trkpt>
<trkpt lat="46.5377114" lon="14.5088299">
<ele>543.39</ele>
<time>2026-08-01T03:31:15.000Z</time>
</trkpt>
<trkpt lat="46.5375219" lon="14.5088432">
<ele>551.06</ele>
<time>2026-08-01T03:31:47.000Z</time>
</trkpt>
<trkpt lat="46.5373684" lon="14.5086978">
<ele>560.52</ele>
<time>2026-08-01T03:32:09.000Z</time>
</trkpt>
<trkpt lat="46.5373070" lon="14.5084381">
<ele>571.17</ele>
<time>2026-08-01T03:32:43.000Z</time>
</trkpt>
<trkpt lat="46.5371317" lon="14.5083434">
<ele>570.42</ele>
<time>2026-08-01T03:32:56.000Z</time>
</trkpt>
<trkpt lat="46.5369443" lon="14.5083122">
<ele>572.50</ele>
<time>2026-08-01T03:33:09.000Z</time>
</trkpt>
<trkpt lat="46.5367537" lon="14.5083216">
<ele>578.29</ele>
<time>2026-08-01T03:33:24.000Z</time>
</trkpt>
<trkpt lat="46.5365664" lon="14.5083063">
<ele>585.36</ele>
<time>2026-08-01T03:33:36.000Z</time>
</trkpt>
<trkpt lat="46.5363848" lon="14.5082819">
<ele>584.06</ele>
<time>2026-08-01T03:33:52.000Z</time>
</trkpt>
<trkpt lat="46.5362379" lon="14.5081170">
<ele>587.58</ele>
<time>2026-08-01T03:34:31.000Z</time>
</trkpt>
<trkpt lat="46.5360557" lon="14.5081567">
<ele>595.80</ele>
<time>2026-08-01T03:34:44.000Z</time>
</trkpt>
<trkpt lat="46.5358774" lon="14.5081935">
<ele>604.27</ele>
<time>2026-08-01T03:35:07.000Z</time>
</trkpt>
<trkpt lat="46.5356842" lon="14.5082546">
<ele>603.89</ele>
<time>2026-08-01T03:35:21.000Z</time>
</trkpt>
<trkpt lat="46.5355146" lon="14.5083866">
<ele>609.52</ele>
<time>2026-08-01T03:35:36.000Z</time>
</trkpt>
<trkpt lat="46.5353492" lon="14.5085143">
<ele>607.59</ele>
<time>2026-08-01T03:35:49.000Z</time>
</trkpt>
<trkpt lat="46.5351679" lon="14.5085425">
<ele>613.70</ele>
<time>2026-08-01T03:36:39.000Z</time>
</trkpt>
<trkpt lat="46.5349928" lon="14.5084787">
<ele>623.68</ele>
<time>2026-08-01T03:37:22.000Z</time>
</trkpt>
<trkpt lat="46.5348195" lon="14.5085507">
<ele>629.38</ele>
<time>2026-08-01T03:37:39.000Z</time>
</trkpt>
<trkpt lat="46.5348651" lon="14.5082783">
<ele>640.34</ele>
<time>2026-08-01T03:38:31.000Z</time>
</trkpt>
<trkpt lat="46.5350055" lon="14.5080918">
<ele>644.92</ele>
<time>2026-08-01T03:38:46.000Z</time>
</trkpt>
<trkpt lat="46.5350725" lon="14.5078481">
<ele>657.14</ele>
<time>2026-08-01T03:39:30.000Z</time>
</trkpt>
<trkpt lat="46.5348993" lon="14.5077335">
<ele>673.82</ele>
<time>2026-08-01T03:40:46.000Z</time>
</trkpt>
<trkpt lat="46.5347159" lon="14.5077522">
<ele>680.56</ele>
<time>2026-08-01T03:41:01.000Z</time>
</trkpt>
<trkpt lat="46.5345419" lon="14.5076661">
<ele>688.06</ele>
<time>2026-08-01T03:41:17.000Z</time>
</trkpt>
<trkpt lat="46.5343709" lon="14.5075691">
<ele>702.52</ele>
<time>2026-08-01T03:41:54.000Z</time>
</trkpt>
<trkpt lat="46.5345320" lon="14.5074463">
<ele>705.16</ele>
<time>2026-08-01T03:42:18.000Z</time>
</trkpt>
<trkpt lat="46.5346612" lon="14.5072442">
<ele>708.83</ele>
<time>2026-08-01T03:42:36.000Z</time>
</trkpt>
<trkpt lat="46.5348002" lon="14.5070765">
<ele>718.35</ele>
<time>2026-08-01T03:42:50.000Z</time>
</trkpt>
<trkpt lat="46.5346269" lon="14.5069754">
<ele>722.63</ele>
<time>2026-08-01T03:43:18.000Z</time>
</trkpt>
<trkpt lat="46.5344498" lon="14.5070559">
<ele>724.34</ele>
<time>2026-08-01T03:43:31.000Z</time>
</trkpt>
<trkpt lat="46.5342708" lon="14.5071257">
<ele>724.06</ele>
<time>2026-08-01T03:43:46.000Z</time>
</trkpt>
<trkpt lat="46.5340740" lon="14.5071735">
<ele>728.52</ele>
<time>2026-08-01T03:43:56.000Z</time>
</trkpt>
<trkpt lat="46.5338931" lon="14.5070562">
<ele>727.38</ele>
<time>2026-08-01T03:44:08.000Z</time>
</trkpt>
<trkpt lat="46.5337253" lon="14.5069350">
<ele>726.52</ele>
<time>2026-08-01T03:44:22.000Z</time>
</trkpt>
<trkpt lat="46.5335434" lon="14.5069015">
<ele>729.53</ele>
<time>2026-08-01T03:44:34.000Z</time>
</trkpt>
<trkpt lat="46.5333622" lon="14.5067956">
<ele>735.22</ele>
<time>2026-08-01T03:44:45.000Z</time>
</trkpt>
<trkpt lat="46.5331831" lon="14.5067617">
<ele>740.13</ele>
<time>2026-08-01T03:45:05.000Z</time>
</trkpt>
<trkpt lat="46.5330157" lon="14.5066657">
<ele>743.01</ele>
<time>2026-08-01T03:45:46.000Z</time>
</trkpt>
<trkpt lat="46.5328521" lon="14.5065309">
<ele>745.08</ele>
<time>2026-08-01T03:45:59.000Z</time>
</trkpt>
<trkpt lat="46.5326710" lon="14.5064107">
<ele>752.53</ele>
<time>2026-08-01T03:46:15.000Z</time>
</trkpt>
<trkpt lat="46.5325097" lon="14.5062793">
<ele>754.36</ele>
<time>2026-08-01T03:46:28.000Z</time>
</trkpt>
<trkpt lat="46.5323917" lon="14.5060664">
<ele>754.47</ele>
<time>2026-08-01T03:46:43.000Z</time>
</trkpt>
<trkpt lat="46.5323121" lon="14.5058229">
<ele>767.41</ele>
<time>2026-08-01T03:47:03.000Z</time>
</trkpt>
<trkpt lat="46.5324437" lon="14.5056261">
<ele>771.98</ele>
<time>2026-08-01T03:47:42.000Z</time>
</trkpt>
<trkpt lat="46.5323791" lon="14.5053749">
<ele>778.00</ele>
<time>2026-08-01T03:47:54.000Z</time>
</trkpt>
<trkpt lat="46.5322019" lon="14.5053251">
<ele>779.54</ele>
<time>2026-08-01T03:48:04.000Z</time>
</trkpt>
<trkpt lat="46.5320151" lon="14.5053000">
<ele>776.73</ele>
<time>2026-08-01T03:48:17.000Z</time>
</trkpt>
<trkpt lat="46.5318071" lon="14.5052642">
<ele>777.17</ele>
<time>2026-08-01T03:48:27.000Z</time>
</trkpt>
<trkpt lat="46.5316229" lon="14.5052004">
<ele>777.31</ele>
<time>2026-08-01T03:48:36.000Z</time>
</trkpt>
<trkpt lat="46.5314194" lon="14.5052228">
<ele>779.35</ele>
<time>2026-08-01T03:48:48.000Z</time>
</trkpt>
<trkpt lat="46.5312270" lon="14.5052135">
<ele>781.28</ele>
<time>2026-08-01T03:48:59.000Z</time>
</trkpt>
<trkpt lat="46.5310352" lon="14.5051522">
<ele>785.03</ele>
<time>2026-08-01T03:49:09.000Z</time>
</trkpt>
<trkpt lat="46.5308564" lon="14.5050470">
<ele>788.13</ele>
<time>2026-08-01T03:49:20.000Z</time>
</trkpt>
<trkpt lat="46.5306692" lon="14.5050287">
<ele>781.64</ele>
<time>2026-08-01T03:49:32.000Z</time>
</trkpt>
<trkpt lat="46.5304731" lon="14.5050002">
<ele>785.21</ele>
<time>2026-08-01T03:49:48.000Z</time>
</trkpt>
<trkpt lat="46.5302870" lon="14.5049444">
<ele>786.53</ele>
<time>2026-08-01T03:49:58.000Z</time>
</trkpt>
<trkpt lat="46.5300968" lon="14.5048819">
<ele>788.15</ele>
<time>2026-08-01T03:50:10.000Z</time>
</trkpt>
<trkpt lat="46.5299158" lon="14.5047866">
<ele>789.52</ele>
<time>2026-08-01T03:50:20.000Z</time>
</trkpt>
<trkpt lat="46.5297265" lon="14.5047530">
<ele>794.40</ele>
<time>2026-08-01T03:50:34.000Z</time>
</trkpt>
<trkpt lat="46.5295487" lon="14.5046638">
<ele>794.33</ele>
<time>2026-08-01T03:50:48.000Z</time>
</trkpt>
<trkpt lat="46.5293979" lon="14.5044902">
<ele>790.18</ele>
<time>2026-08-01T03:51:00.000Z</time>
</trkpt>
<trkpt lat="46.5292220" lon="14.5043620">
<ele>784.73</ele>
<time>2026-08-01T03:51:10.000Z</time>
</trkpt>
<trkpt lat="46.5290460" lon="14.5042792">
<ele>783.42</ele>
<time>2026-08-01T03:51:21.000Z</time>
</trkpt>
<trkpt lat="46.5288569" lon="14.5042753">
<ele>790.76</ele>
<time>2026-08-01T03:51:34.000Z</time>
</trkpt>
<trkpt lat="46.5286756" lon="14.5042580">
<ele>796.14</ele>
<time>2026-08-01T03:51:48.000Z</time>
</trkpt>
<trkpt lat="46.5284916" lon="14.5041812">
<ele>797.24</ele>
<time>2026-08-01T03:51:58.000Z</time>
</trkpt>
<trkpt lat="46.5283018" lon="14.5041502">
<ele>802.26</ele>
<time>2026-08-01T03:52:10.000Z</time>
</trkpt>
<trkpt lat="46.5281050" lon="14.5041253">
<ele>800.54</ele>
<time>2026-08-01T03:52:21.000Z</time>
</trkpt>
<trkpt lat="46.5279295" lon="14.5042302">
<ele>800.43</ele>
<time>2026-08-01T03:52:32.000Z</time>
</trkpt>
<trkpt lat="46.5277392" lon="14.5042749">
<ele>806.97</ele>
<time>2026-08-01T03:52:45.000Z</time>
</trkpt>
<trkpt lat="46.5275626" lon="14.5042197">
<ele>806.54</ele>
<time>2026-08-01T03:52:59.000Z</time>
</trkpt>
<trkpt lat="46.5273791" lon="14.5041628">
<ele>802.89</ele>
<time>2026-08-01T03:53:11.000Z</time>
</trkpt>
<trkpt lat="46.5271981" lon="14.5041245">
<ele>803.85</ele>
<time>2026-08-01T03:53:24.000Z</time>
</trkpt>
<trkpt lat="46.5270197" lon="14.5040269">
<ele>805.43</ele>
<time>2026-08-01T03:53:35.000Z</time>
</trkpt>
<trkpt lat="46.5268550" lon="14.5039108">
<ele>808.23</ele>
<time>2026-08-01T03:53:43.000Z</time>
</trkpt>
<trkpt lat="46.5266995" lon="14.5037788">
<ele>805.83</ele>
<time>2026-08-01T03:53:56.000Z</time>
</trkpt>
<trkpt lat="46.5265120" lon="14.5037245">
<ele>811.45</ele>
<time>2026-08-01T03:54:07.000Z</time>
</trkpt>
<trkpt lat="46.5263109" lon="14.5037188">
<ele>812.77</ele>
<time>2026-08-01T03:54:21.000Z</time>
</trkpt>
<trkpt lat="46.5261109" lon="14.5036658">
<ele>812.65</ele>
<time>2026-08-01T03:54:37.000Z</time>
</trkpt>
<trkpt lat="46.5259283" lon="14.5036367">
<ele>809.77</ele>
<time>2026-08-01T03:54:50.000Z</time>
</trkpt>
<trkpt lat="46.5257352" lon="14.5037015">
<ele>819.71</ele>
<time>2026-08-01T03:55:03.000Z</time>
</trkpt>
<trkpt lat="46.5255789" lon="14.5038370">
<ele>820.44</ele>
<time>2026-08-01T03:55:12.000Z</time>
</trkpt>
<trkpt lat="46.5253793" lon="14.5038031">
<ele>827.10</ele>
<time>2026-08-01T03:55:34.000Z</time>
</trkpt>
<trkpt lat="46.5251856" lon="14.5038058">
<ele>826.65</ele>
<time>2026-08-01T03:55:42.000Z</time>
</trkpt>
<trkpt lat="46.5249993" lon="14.5038541">
<ele>829.23</ele>
<time>2026-08-01T03:55:52.000Z</time>
</trkpt>
<trkpt lat="46.5248208" lon="14.5039118">
<ele>832.44</ele>
<time>2026-08-01T03:56:15.000Z</time>
</trkpt>
<trkpt lat="46.5246376" lon="14.5038436">
<ele>834.60</ele>
<time>2026-08-01T03:56:34.000Z</time>
</trkpt>
<trkpt lat="46.5244490" lon="14.5038224">
<ele>845.44</ele>
<time>2026-08-01T03:56:48.000Z</time>
</trkpt>
<trkpt lat="46.5242683" lon="14.5037866">
<ele>854.58</ele>
<time>2026-08-01T03:57:04.000Z</time>
</trkpt>
<trkpt lat="46.5241073" lon="14.5036385">
<ele>865.75</ele>
<time>2026-08-01T03:57:22.000Z</time>
</trkpt>
<trkpt lat="46.5239224" lon="14.5036451">
<ele>867.42</ele>
<time>2026-08-01T03:57:47.000Z</time>
</trkpt>
<trkpt lat="46.5237434" lon="14.5037210">
<ele>864.52</ele>
<time>2026-08-01T03:58:10.000Z</time>
</trkpt>
<trkpt lat="46.5235615" lon="14.5037046">
<ele>876.75</ele>
<time>2026-08-01T03:58:39.000Z</time>
</trkpt>
<trkpt lat="46.5234493" lon="14.5034860">
<ele>886.13</ele>
<time>2026-08-01T03:59:08.000Z</time>
</trkpt>
<trkpt lat="46.5233439" lon="14.5032439">
<ele>887.10</ele>
<time>2026-08-01T03:59:20.000Z</time>
</trkpt>
<trkpt lat="46.5232017" lon="14.5030741">
<ele>896.67</ele>
<time>2026-08-01T03:59:37.000Z</time>
</trkpt>
<trkpt lat="46.5230278" lon="14.5030053">
<ele>898.28</ele>
<time>2026-08-01T03:59:50.000Z</time>
</trkpt>
<trkpt lat="46.5228520" lon="14.5029135">
<ele>895.92</ele>
<time>2026-08-01T04:00:00.000Z</time>
</trkpt>
<trkpt lat="46.5226751" lon="14.5029893">
<ele>902.58</ele>
<time>2026-08-01T04:00:18.000Z</time>
</trkpt>
<trkpt lat="46.5224919" lon="14.5030427">
<ele>897.74</ele>
<time>2026-08-01T04:00:32.000Z</time>
</trkpt>
<trkpt lat="46.5223095" lon="14.5030561">
<ele>883.57</ele>
<time>2026-08-01T04:00:47.000Z</time>
</trkpt>
<trkpt lat="46.5221234" lon="14.5031312">
<ele>899.45</ele>
<time>2026-08-01T04:01:03.000Z</time>
</trkpt>
<trkpt lat="46.5219333" lon="14.5030618">
<ele>914.08</ele>
<time>2026-08-01T04:01:27.000Z</time>
</trkpt>
<trkpt lat="46.5217622" lon="14.5029680">
<ele>917.37</ele>
<time>2026-08-01T04:01:41.000Z</time>
</trkpt>
<trkpt lat="46.5215842" lon="14.5030717">
<ele>904.55</ele>
<time>2026-08-01T04:02:00.000Z</time>
</trkpt>
<trkpt lat="46.5215150" lon="14.5033142">
<ele>903.92</ele>
<time>2026-08-01T04:02:13.000Z</time>
</trkpt>
<trkpt lat="46.5213296" lon="14.5033259">
<ele>923.67</ele>
<time>2026-08-01T04:02:36.000Z</time>
</trkpt>
<trkpt lat="46.5211455" lon="14.5032976">
<ele>935.39</ele>
<time>2026-08-01T04:02:49.000Z</time>
</trkpt>
<trkpt lat="46.5209702" lon="14.5031759">
<ele>934.37</ele>
<time>2026-08-01T04:03:13.000Z</time>
</trkpt>
<trkpt lat="46.5208152" lon="14.5030314">
<ele>934.79</ele>
<time>2026-08-01T04:03:31.000Z</time>
</trkpt>
<trkpt lat="46.5206549" lon="14.5028730">
<ele>947.10</ele>
<time>2026-08-01T04:03:43.000Z</time>
</trkpt>
<trkpt lat="46.5205152" lon="14.5026951">
<ele>949.04</ele>
<time>2026-08-01T04:03:56.000Z</time>
</trkpt>
<trkpt lat="46.5203760" lon="14.5025245">
<ele>954.07</ele>
<time>2026-08-01T04:04:09.000Z</time>
</trkpt>
<trkpt lat="46.5202246" lon="14.5023627">
<ele>957.98</ele>
<time>2026-08-01T04:04:29.000Z</time>
</trkpt>
<trkpt lat="46.5200507" lon="14.5022561">
<ele>957.26</ele>
<time>2026-08-01T04:04:41.000Z</time>
</trkpt>
<trkpt lat="46.5198664" lon="14.5022291">
<ele>953.80</ele>
<time>2026-08-01T04:04:57.000Z</time>
</trkpt>
<trkpt lat="46.5197269" lon="14.5020495">
<ele>951.39</ele>
<time>2026-08-01T04:05:12.000Z</time>
</trkpt>
<trkpt lat="46.5195409" lon="14.5020653">
<ele>963.39</ele>
<time>2026-08-01T04:05:27.000Z</time>
</trkpt>
<trkpt lat="46.5193812" lon="14.5019388">
<ele>971.52</ele>
<time>2026-08-01T04:05:40.000Z</time>
</trkpt>
<trkpt lat="46.5191940" lon="14.5019278">
<ele>976.11</ele>
<time>2026-08-01T04:05:52.000Z</time>
</trkpt>
<trkpt lat="46.5190161" lon="14.5019817">
<ele>986.14</ele>
<time>2026-08-01T04:06:08.000Z</time>
</trkpt>
<trkpt lat="46.5189612" lon="14.5022330">
<ele>988.04</ele>
<time>2026-08-01T04:06:26.000Z</time>
</trkpt>
<trkpt lat="46.5191277" lon="14.5023492">
<ele>989.59</ele>
<time>2026-08-01T04:06:40.000Z</time>
</trkpt>
<trkpt lat="46.5189388" lon="14.5023972">
<ele>1002.26</ele>
<time>2026-08-01T04:07:14.000Z</time>
</trkpt>
<trkpt lat="46.5187701" lon="14.5022651">
<ele>1008.79</ele>
<time>2026-08-01T04:07:27.000Z</time>
</trkpt>
<trkpt lat="46.5185843" lon="14.5021644">
<ele>1010.41</ele>
<time>2026-08-01T04:07:38.000Z</time>
</trkpt>
<trkpt lat="46.5184088" lon="14.5020753">
<ele>1011.56</ele>
<time>2026-08-01T04:07:54.000Z</time>
</trkpt>
<trkpt lat="46.5182899" lon="14.5018705">
<ele>1014.50</ele>
<time>2026-08-01T04:08:09.000Z</time>
</trkpt>
<trkpt lat="46.5181110" lon="14.5018017">
<ele>1022.74</ele>
<time>2026-08-01T04:08:31.000Z</time>
</trkpt>
<trkpt lat="46.5179314" lon="14.5018529">
<ele>1039.79</ele>
<time>2026-08-01T04:09:17.000Z</time>
</trkpt>
<trkpt lat="46.5177468" lon="14.5018946">
<ele>1051.43</ele>
<time>2026-08-01T04:09:47.000Z</time>
</trkpt>
<trkpt lat="46.5175861" lon="14.5017614">
<ele>1058.03</ele>
<time>2026-08-01T04:10:17.000Z</time>
</trkpt>
<trkpt lat="46.5174315" lon="14.5016112">
<ele>1066.15</ele>
<time>2026-08-01T04:10:44.000Z</time>
</trkpt>
<trkpt lat="46.5172801" lon="14.5017585">
<ele>1073.97</ele>
<time>2026-08-01T04:11:21.000Z</time>
</trkpt>
<trkpt lat="46.5171216" lon="14.5016333">
<ele>1075.39</ele>
<time>2026-08-01T04:11:41.000Z</time>
</trkpt>
<trkpt lat="46.5170513" lon="14.5013926">
<ele>1077.20</ele>
<time>2026-08-01T04:11:57.000Z</time>
</trkpt>
<trkpt lat="46.5169493" lon="14.5011672">
<ele>1083.08</ele>
<time>2026-08-01T04:12:10.000Z</time>
</trkpt>
<trkpt lat="46.5168439" lon="14.5009493">
<ele>1086.23</ele>
<time>2026-08-01T04:12:23.000Z</time>
</trkpt>
<trkpt lat="46.5166605" lon="14.5008640">
<ele>1100.97</ele>
<time>2026-08-01T04:13:09.000Z</time>
</trkpt>
<trkpt lat="46.5164805" lon="14.5008186">
<ele>1099.86</ele>
<time>2026-08-01T04:13:31.000Z</time>
</trkpt>
<trkpt lat="46.5163137" lon="14.5006970">
<ele>1108.21</ele>
<time>2026-08-01T04:13:54.000Z</time>
</trkpt>
<trkpt lat="46.5162935" lon="14.5009656">
<ele>1114.95</ele>
<time>2026-08-01T04:14:13.000Z</time>
</trkpt>
<trkpt lat="46.5163362" lon="14.5012300">
<ele>1116.21</ele>
<time>2026-08-01T04:14:28.000Z</time>
</trkpt>
<trkpt lat="46.5161994" lon="14.5010307">
<ele>1133.44</ele>
<time>2026-08-01T04:15:15.000Z</time>
</trkpt>
<trkpt lat="46.5160729" lon="14.5008442">
<ele>1138.05</ele>
<time>2026-08-01T04:15:29.000Z</time>
</trkpt>
<trkpt lat="46.5159179" lon="14.5007043">
<ele>1142.40</ele>
<time>2026-08-01T04:15:41.000Z</time>
</trkpt>
<trkpt lat="46.5157975" lon="14.5004902">
<ele>1142.98</ele>
<time>2026-08-01T04:15:55.000Z</time>
</trkpt>
<trkpt lat="46.5157705" lon="14.5002252">
<ele>1149.75</ele>
<time>2026-08-01T04:16:10.000Z</time>
</trkpt>
<trkpt lat="46.5156731" lon="14.4999964">
<ele>1156.71</ele>
<time>2026-08-01T04:16:35.000Z</time>
</trkpt>
<trkpt lat="46.5155969" lon="14.4997498">
<ele>1173.45</ele>
<time>2026-08-01T04:17:03.000Z</time>
</trkpt>
<trkpt lat="46.5155124" lon="14.4995124">
<ele>1177.54</ele>
<time>2026-08-01T04:17:23.000Z</time>
</trkpt>
<trkpt lat="46.5154204" lon="14.4992747">
<ele>1183.49</ele>
<time>2026-08-01T04:17:46.000Z</time>
</trkpt>
<trkpt lat="46.5152968" lon="14.4990835">
<ele>1191.44</ele>
<time>2026-08-01T04:18:05.000Z</time>
</trkpt>
<trkpt lat="46.5151692" lon="14.4988990">
<ele>1199.35</ele>
<time>2026-08-01T04:18:26.000Z</time>
</trkpt>
<trkpt lat="46.5150024" lon="14.4987951">
<ele>1200.82</ele>
<time>2026-08-01T04:18:39.000Z</time>
</trkpt>
<trkpt lat="46.5148330" lon="14.4986963">
<ele>1205.40</ele>
<time>2026-08-01T04:19:05.000Z</time>
</trkpt>
<trkpt lat="46.5146534" lon="14.4986542">
<ele>1210.92</ele>
<time>2026-08-01T04:19:28.000Z</time>
</trkpt>
<trkpt lat="46.5144647" lon="14.4986107">
<ele>1220.31</ele>
<time>2026-08-01T04:20:01.000Z</time>
</trkpt>
<trkpt lat="46.5142833" lon="14.4986102">
<ele>1226.81</ele>
<time>2026-08-01T04:20:20.000Z</time>
</trkpt>
<trkpt lat="46.5141150" lon="14.4984958">
<ele>1237.26</ele>
<time>2026-08-01T04:20:40.000Z</time>
</trkpt>
<trkpt lat="46.5139429" lon="14.4985718">
<ele>1243.35</ele>
<time>2026-08-01T04:20:58.000Z</time>
</trkpt>
<trkpt lat="46.5137661" lon="14.4986472">
<ele>1240.72</ele>
<time>2026-08-01T04:21:14.000Z</time>
</trkpt>
<trkpt lat="46.5135954" lon="14.4987332">
<ele>1240.00</ele>
<time>2026-08-01T04:21:26.000Z</time>
</trkpt>
<trkpt lat="46.5134023" lon="14.4988283">
<ele>1243.73</ele>
<time>2026-08-01T04:21:44.000Z</time>
</trkpt>
<trkpt lat="46.5132206" lon="14.4988030">
<ele>1244.66</ele>
<time>2026-08-01T04:21:53.000Z</time>
</trkpt>
<trkpt lat="46.5130422" lon="14.4988599">
<ele>1252.35</ele>
<time>2026-08-01T04:22:10.000Z</time>
</trkpt>
<trkpt lat="46.5128727" lon="14.4989631">
<ele>1268.27</ele>
<time>2026-08-01T04:22:29.000Z</time>
</trkpt>
<trkpt lat="46.5127472" lon="14.4991511">
<ele>1268.04</ele>
<time>2026-08-01T04:22:40.000Z</time>
</trkpt>
<trkpt lat="46.5129135" lon="14.4990353">
<ele>1269.53</ele>
<time>2026-08-01T04:23:20.000Z</time>
</trkpt>
<trkpt lat="46.5127827" lon="14.4988225">
<ele>1267.05</ele>
<time>2026-08-01T04:23:56.000Z</time>
</trkpt>
<trkpt lat="46.5128471" lon="14.4985737">
<ele>1272.42</ele>
<time>2026-08-01T04:28:21.000Z</time>
</trkpt>
<trkpt lat="46.5128135" lon="14.4983104">
<ele>1274.40</ele>
<time>2026-08-01T04:28:37.000Z</time>
</trkpt>
<trkpt lat="46.5129306" lon="14.4980979">
<ele>1268.82</ele>
<time>2026-08-01T04:29:04.000Z</time>
</trkpt>
<trkpt lat="46.5129441" lon="14.4978240">
<ele>1265.08</ele>
<time>2026-08-01T04:29:15.000Z</time>
</trkpt>
<trkpt lat="46.5129650" lon="14.4975390">
<ele>1263.46</ele>
<time>2026-08-01T04:29:29.000Z</time>
</trkpt>
<trkpt lat="46.5129762" lon="14.4972633">
<ele>1260.07</ele>
<time>2026-08-01T04:29:45.000Z</time>
</trkpt>
<trkpt lat="46.5128862" lon="14.4970272">
<ele>1273.86</ele>
<time>2026-08-01T04:30:07.000Z</time>
</trkpt>
<trkpt lat="46.5127487" lon="14.4968477">
<ele>1267.00</ele>
<time>2026-08-01T04:30:24.000Z</time>
</trkpt>
<trkpt lat="46.5126094" lon="14.4966572">
<ele>1272.07</ele>
<time>2026-08-01T04:30:40.000Z</time>
</trkpt>
<trkpt lat="46.5124774" lon="14.4964685">
<ele>1281.79</ele>
<time>2026-08-01T04:32:15.000Z</time>
</trkpt>
<trkpt lat="46.5123888" lon="14.4962392">
<ele>1276.99</ele>
<time>2026-08-01T04:32:30.000Z</time>
</trkpt>
<trkpt lat="46.5122676" lon="14.4960429">
<ele>1281.81</ele>
<time>2026-08-01T04:32:42.000Z</time>
</trkpt>
<trkpt lat="46.5120865" lon="14.4960525">
<ele>1286.28</ele>
<time>2026-08-01T04:33:06.000Z</time>
</trkpt>
<trkpt lat="46.5119004" lon="14.4960636">
<ele>1289.53</ele>
<time>2026-08-01T04:33:25.000Z</time>
</trkpt>
<trkpt lat="46.5117335" lon="14.4959409">
<ele>1301.32</ele>
<time>2026-08-01T04:33:48.000Z</time>
</trkpt>
<trkpt lat="46.5117028" lon="14.4956720">
<ele>1301.28</ele>
<time>2026-08-01T04:34:14.000Z</time>
</trkpt>
<trkpt lat="46.5118240" lon="14.4954743">
<ele>1306.86</ele>
<time>2026-08-01T04:34:30.000Z</time>
</trkpt>
<trkpt lat="46.5118842" lon="14.4952113">
<ele>1304.64</ele>
<time>2026-08-01T04:34:43.000Z</time>
</trkpt>
<trkpt lat="46.5119522" lon="14.4949660">
<ele>1300.74</ele>
<time>2026-08-01T04:34:54.000Z</time>
</trkpt>
<trkpt lat="46.5121443" lon="14.4949492">
<ele>1306.12</ele>
<time>2026-08-01T04:35:11.000Z</time>
</trkpt>
<trkpt lat="46.5123195" lon="14.4950504">
<ele>1311.14</ele>
<time>2026-08-01T04:35:23.000Z</time>
</trkpt>
<trkpt lat="46.5125059" lon="14.4950561">
<ele>1318.27</ele>
<time>2026-08-01T04:35:33.000Z</time>
</trkpt>
<trkpt lat="46.5126805" lon="14.4951763">
<ele>1316.05</ele>
<time>2026-08-01T04:35:49.000Z</time>
</trkpt>
<trkpt lat="46.5128278" lon="14.4953379">
<ele>1318.36</ele>
<time>2026-08-01T04:36:05.000Z</time>
</trkpt>
<trkpt lat="46.5129580" lon="14.4955419">
<ele>1317.06</ele>
<time>2026-08-01T04:36:51.000Z</time>
</trkpt>
<trkpt lat="46.5129439" lon="14.4952801">
<ele>1325.43</ele>
<time>2026-08-01T04:37:22.000Z</time>
</trkpt>
<trkpt lat="46.5128974" lon="14.4950208">
<ele>1332.19</ele>
<time>2026-08-01T04:37:36.000Z</time>
</trkpt>
<trkpt lat="46.5128728" lon="14.4947578">
<ele>1334.17</ele>
<time>2026-08-01T04:37:49.000Z</time>
</trkpt>
<trkpt lat="46.5127288" lon="14.4945971">
<ele>1336.95</ele>
<time>2026-08-01T04:38:00.000Z</time>
</trkpt>
<trkpt lat="46.5125961" lon="14.4943998">
<ele>1341.09</ele>
<time>2026-08-01T04:38:25.000Z</time>
</trkpt>
<trkpt lat="46.5125754" lon="14.4941363">
<ele>1351.95</ele>
<time>2026-08-01T04:38:39.000Z</time>
</trkpt>
<trkpt lat="46.5125910" lon="14.4938658">
<ele>1359.17</ele>
<time>2026-08-01T04:38:57.000Z</time>
</trkpt>
<trkpt lat="46.5125481" lon="14.4935975">
<ele>1360.99</ele>
<time>2026-08-01T04:39:09.000Z</time>
</trkpt>
<trkpt lat="46.5124965" lon="14.4933380">
<ele>1358.85</ele>
<time>2026-08-01T04:39:21.000Z</time>
</trkpt>
<trkpt lat="46.5123995" lon="14.4930909">
<ele>1361.90</ele>
<time>2026-08-01T04:39:38.000Z</time>
</trkpt>
<trkpt lat="46.5123263" lon="14.4928375">
<ele>1357.88</ele>
<time>2026-08-01T04:39:55.000Z</time>
</trkpt>
<trkpt lat="46.5122106" lon="14.4926293">
<ele>1363.01</ele>
<time>2026-08-01T04:40:09.000Z</time>
</trkpt>
<trkpt lat="46.5124042" lon="14.4926271">
<ele>1371.28</ele>
<time>2026-08-01T04:40:26.000Z</time>
</trkpt>
<trkpt lat="46.5125796" lon="14.4927026">
<ele>1378.08</ele>
<time>2026-08-01T04:40:48.000Z</time>
</trkpt>
<trkpt lat="46.5127442" lon="14.4928136">
<ele>1380.88</ele>
<time>2026-08-01T04:40:59.000Z</time>
</trkpt>
<trkpt lat="46.5127562" lon="14.4925517">
<ele>1389.35</ele>
<time>2026-08-01T04:41:44.000Z</time>
</trkpt>
<trkpt lat="46.5126940" lon="14.4922859">
<ele>1388.42</ele>
<time>2026-08-01T04:41:57.000Z</time>
</trkpt>
<trkpt lat="46.5125678" lon="14.4920928">
<ele>1394.55</ele>
<time>2026-08-01T04:42:12.000Z</time>
</trkpt>
<trkpt lat="46.5124145" lon="14.4919323">
<ele>1404.07</ele>
<time>2026-08-01T04:42:30.000Z</time>
</trkpt>
<trkpt lat="46.5123138" lon="14.4917031">
<ele>1406.17</ele>
<time>2026-08-01T04:42:43.000Z</time>
</trkpt>
<trkpt lat="46.5122380" lon="14.4914644">
<ele>1410.47</ele>
<time>2026-08-01T04:42:57.000Z</time>
</trkpt>
<trkpt lat="46.5121854" lon="14.4912089">
<ele>1417.04</ele>
<time>2026-08-01T04:43:16.000Z</time>
</trkpt>
<trkpt lat="46.5122937" lon="14.4909968">
<ele>1420.15</ele>
<time>2026-08-01T04:43:27.000Z</time>
</trkpt>
<trkpt lat="46.5122372" lon="14.4907437">
<ele>1428.91</ele>
<time>2026-08-01T04:43:43.000Z</time>
</trkpt>
<trkpt lat="46.5122392" lon="14.4904712">
<ele>1437.81</ele>
<time>2026-08-01T04:44:04.000Z</time>
</trkpt>
<trkpt lat="46.5122885" lon="14.4902131">
<ele>1444.75</ele>
<time>2026-08-01T04:44:23.000Z</time>
</trkpt>
<trkpt lat="46.5122646" lon="14.4899526">
<ele>1450.54</ele>
<time>2026-08-01T04:44:36.000Z</time>
</trkpt>
<trkpt lat="46.5122354" lon="14.4896944">
<ele>1451.36</ele>
<time>2026-08-01T04:44:51.000Z</time>
</trkpt>
<trkpt lat="46.5122165" lon="14.4894169">
<ele>1458.80</ele>
<time>2026-08-01T04:45:22.000Z</time>
</trkpt>
<trkpt lat="46.5120801" lon="14.4892403">
<ele>1463.80</ele>
<time>2026-08-01T04:45:40.000Z</time>
</trkpt>
<trkpt lat="46.5119359" lon="14.4890790">
<ele>1468.12</ele>
<time>2026-08-01T04:45:55.000Z</time>
</trkpt>
<trkpt lat="46.5118346" lon="14.4888544">
<ele>1469.84</ele>
<time>2026-08-01T04:46:14.000Z</time>
</trkpt>
<trkpt lat="46.5117866" lon="14.4885974">
<ele>1477.21</ele>
<time>2026-08-01T04:47:25.000Z</time>
</trkpt>
<trkpt lat="46.5118227" lon="14.4883337">
<ele>1488.12</ele>
<time>2026-08-01T04:47:46.000Z</time>
</trkpt>
<trkpt lat="46.5119869" lon="14.4881870">
<ele>1493.54</ele>
<time>2026-08-01T04:48:19.000Z</time>
</trkpt>
<trkpt lat="46.5120181" lon="14.4879158">
<ele>1500.81</ele>
<time>2026-08-01T04:48:40.000Z</time>
</trkpt>
<trkpt lat="46.5118668" lon="14.4877719">
<ele>1508.30</ele>
<time>2026-08-01T04:49:00.000Z</time>
</trkpt>
<trkpt lat="46.5118738" lon="14.4875100">
<ele>1508.82</ele>
<time>2026-08-01T04:49:22.000Z</time>
</trkpt>
<trkpt lat="46.5118042" lon="14.4872689">
<ele>1513.89</ele>
<time>2026-08-01T04:49:37.000Z</time>
</trkpt>
<trkpt lat="46.5118287" lon="14.4869944">
<ele>1518.44</ele>
<time>2026-08-01T04:49:55.000Z</time>
</trkpt>
<trkpt lat="46.5117859" lon="14.4867379">
<ele>1528.54</ele>
<time>2026-08-01T04:50:15.000Z</time>
</trkpt>
<trkpt lat="46.5117156" lon="14.4864931">
<ele>1534.79</ele>
<time>2026-08-01T04:50:30.000Z</time>
</trkpt>
<trkpt lat="46.5115789" lon="14.4863087">
<ele>1532.43</ele>
<time>2026-08-01T04:50:51.000Z</time>
</trkpt>
<trkpt lat="46.5115212" lon="14.4860605">
<ele>1544.44</ele>
<time>2026-08-01T04:51:16.000Z</time>
</trkpt>
<trkpt lat="46.5114612" lon="14.4858104">
<ele>1545.28</ele>
<time>2026-08-01T04:51:37.000Z</time>
</trkpt>
<trkpt lat="46.5114818" lon="14.4855474">
<ele>1555.07</ele>
<time>2026-08-01T04:51:56.000Z</time>
</trkpt>
<trkpt lat="46.5113733" lon="14.4853383">
<ele>1562.57</ele>
<time>2026-08-01T04:52:30.000Z</time>
</trkpt>
<trkpt lat="46.5112849" lon="14.4850976">
<ele>1567.95</ele>
<time>2026-08-01T04:52:53.000Z</time>
</trkpt>
<trkpt lat="46.5113211" lon="14.4848297">
<ele>1573.93</ele>
<time>2026-08-01T04:53:10.000Z</time>
</trkpt>
<trkpt lat="46.5112433" lon="14.4845882">
<ele>1579.83</ele>
<time>2026-08-01T04:53:36.000Z</time>
</trkpt>
<trkpt lat="46.5112322" lon="14.4843184">
<ele>1587.42</ele>
<time>2026-08-01T04:54:02.000Z</time>
</trkpt>
<trkpt lat="46.5112300" lon="14.4840550">
<ele>1595.85</ele>
<time>2026-08-01T04:54:22.000Z</time>
</trkpt>
<trkpt lat="46.5111358" lon="14.4838208">
<ele>1601.84</ele>
<time>2026-08-01T04:54:42.000Z</time>
</trkpt>
<trkpt lat="46.5109664" lon="14.4837176">
<ele>1617.99</ele>
<time>2026-08-01T04:55:02.000Z</time>
</trkpt>
<trkpt lat="46.5108468" lon="14.4835198">
<ele>1622.00</ele>
<time>2026-08-01T04:55:28.000Z</time>
</trkpt>
<trkpt lat="46.5107834" lon="14.4832668">
<ele>1631.12</ele>
<time>2026-08-01T04:55:49.000Z</time>
</trkpt>
<trkpt lat="46.5106613" lon="14.4830710">
<ele>1636.97</ele>
<time>2026-08-01T04:56:14.000Z</time>
</trkpt>
<trkpt lat="46.5106193" lon="14.4827921">
<ele>1656.10</ele>
<time>2026-08-01T04:56:51.000Z</time>
</trkpt>
<trkpt lat="46.5105084" lon="14.4825772">
<ele>1657.82</ele>
<time>2026-08-01T04:57:15.000Z</time>
</trkpt>
<trkpt lat="46.5106587" lon="14.4824237">
<ele>1668.16</ele>
<time>2026-08-01T04:57:51.000Z</time>
</trkpt>
<trkpt lat="46.5108332" lon="14.4823577">
<ele>1680.40</ele>
<time>2026-08-01T04:58:19.000Z</time>
</trkpt>
<trkpt lat="46.5109543" lon="14.4821628">
<ele>1680.60</ele>
<time>2026-08-01T04:58:36.000Z</time>
</trkpt>
<trkpt lat="46.5108101" lon="14.4820004">
<ele>1693.08</ele>
<time>2026-08-01T04:59:14.000Z</time>
</trkpt>
<trkpt lat="46.5106280" lon="14.4820050">
<ele>1691.95</ele>
<time>2026-08-01T05:07:41.000Z</time>
</trkpt>
<trkpt lat="46.5104671" lon="14.4818601">
<ele>1690.87</ele>
<time>2026-08-01T05:08:00.000Z</time>
</trkpt>
<trkpt lat="46.5102770" lon="14.4818486">
<ele>1689.06</ele>
<time>2026-08-01T05:08:17.000Z</time>
</trkpt>
<trkpt lat="46.5100991" lon="14.4819423">
<ele>1701.59</ele>
<time>2026-08-01T05:08:55.000Z</time>
</trkpt>
<trkpt lat="46.5099411" lon="14.4820816">
<ele>1703.34</ele>
<time>2026-08-01T05:10:45.000Z</time>
</trkpt>
<trkpt lat="46.5097521" lon="14.4820637">
<ele>1701.82</ele>
<time>2026-08-01T05:11:19.000Z</time>
</trkpt>
<trkpt lat="46.5096020" lon="14.4819180">
<ele>1705.76</ele>
<time>2026-08-01T05:11:43.000Z</time>
</trkpt>
<trkpt lat="46.5094243" lon="14.4819735">
<ele>1721.16</ele>
<time>2026-08-01T05:12:34.000Z</time>
</trkpt>
<trkpt lat="46.5093671" lon="14.4822227">
<ele>1749.55</ele>
<time>2026-08-01T05:14:39.000Z</time>
</trkpt>
<trkpt lat="46.5092415" lon="14.4824203">
<ele>1763.58</ele>
<time>2026-08-01T05:15:53.000Z</time>
</trkpt>
<trkpt lat="46.5091724" lon="14.4826700">
<ele>1778.86</ele>
<time>2026-08-01T05:16:25.000Z</time>
</trkpt>
<trkpt lat="46.5091099" lon="14.4829179">
<ele>1799.48</ele>
<time>2026-08-01T05:17:20.000Z</time>
</trkpt>
<trkpt lat="46.5089836" lon="14.4831108">
<ele>1814.73</ele>
<time>2026-08-01T05:18:56.000Z</time>
</trkpt>
<trkpt lat="46.5089033" lon="14.4833459">
<ele>1823.75</ele>
<time>2026-08-01T05:19:41.000Z</time>
</trkpt>
<trkpt lat="46.5087283" lon="14.4834427">
<ele>1839.85</ele>
<time>2026-08-01T05:20:23.000Z</time>
</trkpt>
<trkpt lat="46.5085746" lon="14.4835812">
<ele>1851.37</ele>
<time>2026-08-01T05:21:27.000Z</time>
</trkpt>
<trkpt lat="46.5084495" lon="14.4837797">
<ele>1872.06</ele>
<time>2026-08-01T05:22:48.000Z</time>
</trkpt>
<trkpt lat="46.5083510" lon="14.4840044">
<ele>1887.61</ele>
<time>2026-08-01T05:23:43.000Z</time>
</trkpt>
<trkpt lat="46.5082153" lon="14.4841812">
<ele>1905.51</ele>
<time>2026-08-01T05:24:58.000Z</time>
</trkpt>
<trkpt lat="46.5081349" lon="14.4844163">
<ele>1921.37</ele>
<time>2026-08-01T05:26:02.000Z</time>
</trkpt>
<trkpt lat="46.5079532" lon="14.4844582">
<ele>1934.23</ele>
<time>2026-08-01T05:26:47.000Z</time>
</trkpt>
<trkpt lat="46.5077774" lon="14.4845401">
<ele>1947.63</ele>
<time>2026-08-01T05:27:31.000Z</time>
</trkpt>
<trkpt lat="46.5077365" lon="14.4847973">
<ele>1959.96</ele>
<time>2026-08-01T05:28:20.000Z</time>
</trkpt>
<trkpt lat="46.5076232" lon="14.4850066">
<ele>1975.15</ele>
<time>2026-08-01T05:29:04.000Z</time>
</trkpt>
<trkpt lat="46.5075728" lon="14.4852617">
<ele>1984.04</ele>
<time>2026-08-01T05:30:11.000Z</time>
</trkpt>
<trkpt lat="46.5074146" lon="14.4853969">
<ele>2001.69</ele>
<time>2026-08-01T05:31:08.000Z</time>
</trkpt>
<trkpt lat="46.5073351" lon="14.4856340">
<ele>2014.52</ele>
<time>2026-08-01T05:31:47.000Z</time>
</trkpt>
<trkpt lat="46.5073699" lon="14.4858905">
<ele>2021.11</ele>
<time>2026-08-01T05:32:16.000Z</time>
</trkpt>
<trkpt lat="46.5071893" lon="14.4858418">
<ele>2034.62</ele>
<time>2026-08-01T05:33:36.000Z</time>
</trkpt>
<trkpt lat="46.5070675" lon="14.4860362">
<ele>2057.40</ele>
<time>2026-08-01T05:34:30.000Z</time>
</trkpt>
<trkpt lat="46.5070517" lon="14.4862967">
<ele>2067.65</ele>
<time>2026-08-01T05:35:42.000Z</time>
</trkpt>
<trkpt lat="46.5069879" lon="14.4865441">
<ele>2080.61</ele>
<time>2026-08-01T05:36:32.000Z</time>
</trkpt>
<trkpt lat="46.5068829" lon="14.4867642">
<ele>2093.22</ele>
<time>2026-08-01T05:37:27.000Z</time>
</trkpt>
<trkpt lat="46.5067148" lon="14.4868770">
<ele>2106.73</ele>
<time>2026-08-01T05:37:56.000Z</time>
</trkpt>
<trkpt lat="46.5065461" lon="14.4869749">
<ele>2115.11</ele>
<time>2026-08-01T05:38:23.000Z</time>
</trkpt>
<trkpt lat="46.5063846" lon="14.4870926">
<ele>2127.47</ele>
<time>2026-08-01T05:39:08.000Z</time>
</trkpt>
<trkpt lat="46.5062091" lon="14.4871876">
<ele>2137.12</ele>
<time>2026-08-01T05:39:31.000Z</time>
</trkpt>
<trkpt lat="46.5060190" lon="14.4871656">
<ele>2139.29</ele>
<time>2026-08-01T05:39:45.000Z</time>
</trkpt>
<trkpt lat="46.5061670" lon="14.4869901">
<ele>2142.68</ele>
<time>2026-08-01T05:40:55.000Z</time>
</trkpt>
<trkpt lat="46.5063265" lon="14.4871129">
<ele>2135.37</ele>
<time>2026-08-01T05:41:57.000Z</time>
</trkpt>
<trkpt lat="46.5061839" lon="14.4872786">
<ele>2139.88</ele>
<time>2026-08-01T05:43:45.000Z</time>
</trkpt>
<trkpt lat="46.5060678" lon="14.4870657">
<ele>2143.10</ele>
<time>2026-08-01T05:44:25.000Z</time>
</trkpt>
<trkpt lat="46.5059655" lon="14.4872812">
<ele>2138.50</ele>
<time>2026-08-01T06:10:52.000Z</time>
</trkpt>
<trkpt lat="46.5057688" lon="14.4872781">
<ele>2129.99</ele>
<time>2026-08-01T06:11:07.000Z</time>
</trkpt>
<trkpt lat="46.5056002" lon="14.4871796">
<ele>2124.37</ele>
<time>2026-08-01T06:11:17.000Z</time>
</trkpt>
<trkpt lat="46.5054385" lon="14.4870491">
<ele>2119.70</ele>
<time>2026-08-01T06:11:33.000Z</time>
</trkpt>
<trkpt lat="46.5052466" lon="14.4870649">
<ele>2115.70</ele>
<time>2026-08-01T06:11:46.000Z</time>
</trkpt>
<trkpt lat="46.5050609" lon="14.4870479">
<ele>2113.43</ele>
<time>2026-08-01T06:11:58.000Z</time>
</trkpt>
<trkpt lat="46.5048963" lon="14.4869097">
<ele>2106.23</ele>
<time>2026-08-01T06:12:13.000Z</time>
</trkpt>
<trkpt lat="46.5047650" lon="14.4867300">
<ele>2103.97</ele>
<time>2026-08-01T06:12:24.000Z</time>
</trkpt>
<trkpt lat="46.5046681" lon="14.4864984">
<ele>2099.38</ele>
<time>2026-08-01T06:13:09.000Z</time>
</trkpt>
<trkpt lat="46.5046301" lon="14.4862371">
<ele>2093.84</ele>
<time>2026-08-01T06:13:35.000Z</time>
</trkpt>
<trkpt lat="46.5045588" lon="14.4859970">
<ele>2085.80</ele>
<time>2026-08-01T06:13:51.000Z</time>
</trkpt>
<trkpt lat="46.5043967" lon="14.4861429">
<ele>2081.44</ele>
<time>2026-08-01T06:14:33.000Z</time>
</trkpt>
<trkpt lat="46.5042050" lon="14.4862062">
<ele>2074.06</ele>
<time>2026-08-01T06:14:45.000Z</time>
</trkpt>
<trkpt lat="46.5040563" lon="14.4863548">
<ele>2070.70</ele>
<time>2026-08-01T06:15:00.000Z</time>
</trkpt>
<trkpt lat="46.5038867" lon="14.4864503">
<ele>2064.45</ele>
<time>2026-08-01T06:15:11.000Z</time>
</trkpt>
<trkpt lat="46.5037506" lon="14.4866432">
<ele>2060.54</ele>
<time>2026-08-01T06:15:22.000Z</time>
</trkpt>
<trkpt lat="46.5035965" lon="14.4868195">
<ele>2053.21</ele>
<time>2026-08-01T06:15:33.000Z</time>
</trkpt>
<trkpt lat="46.5034298" lon="14.4869200">
<ele>2048.18</ele>
<time>2026-08-01T06:15:47.000Z</time>
</trkpt>
<trkpt lat="46.5032441" lon="14.4869280">
<ele>2043.34</ele>
<time>2026-08-01T06:16:11.000Z</time>
</trkpt>
<trkpt lat="46.5030650" lon="14.4870401">
<ele>2042.21</ele>
<time>2026-08-01T06:16:24.000Z</time>
</trkpt>
<trkpt lat="46.5028937" lon="14.4871615">
<ele>2038.94</ele>
<time>2026-08-01T06:16:34.000Z</time>
</trkpt>
<trkpt lat="46.5027265" lon="14.4873127">
<ele>2036.32</ele>
<time>2026-08-01T06:16:45.000Z</time>
</trkpt>
<trkpt lat="46.5025823" lon="14.4874844">
<ele>2034.21</ele>
<time>2026-08-01T06:16:56.000Z</time>
</trkpt>
<trkpt lat="46.5024361" lon="14.4876785">
<ele>2030.89</ele>
<time>2026-08-01T06:17:09.000Z</time>
</trkpt>
<trkpt lat="46.5023010" lon="14.4878574">
<ele>2029.47</ele>
<time>2026-08-01T06:17:19.000Z</time>
</trkpt>
<trkpt lat="46.5022008" lon="14.4880765">
<ele>2028.40</ele>
<time>2026-08-01T06:17:28.000Z</time>
</trkpt>
<trkpt lat="46.5021184" lon="14.4883250">
<ele>2024.38</ele>
<time>2026-08-01T06:18:22.000Z</time>
</trkpt>
<trkpt lat="46.5020061" lon="14.4885455">
<ele>2024.59</ele>
<time>2026-08-01T06:18:35.000Z</time>
</trkpt>
<trkpt lat="46.5020261" lon="14.4888060">
<ele>2022.11</ele>
<time>2026-08-01T06:18:48.000Z</time>
</trkpt>
<trkpt lat="46.5020704" lon="14.4890673">
<ele>2016.94</ele>
<time>2026-08-01T06:19:00.000Z</time>
</trkpt>
<trkpt lat="46.5021226" lon="14.4893398">
<ele>2016.24</ele>
<time>2026-08-01T06:19:11.000Z</time>
</trkpt>
<trkpt lat="46.5021821" lon="14.4896015">
<ele>2010.93</ele>
<time>2026-08-01T06:19:23.000Z</time>
</trkpt>
<trkpt lat="46.5022704" lon="14.4898334">
<ele>2006.17</ele>
<time>2026-08-01T06:19:36.000Z</time>
</trkpt>
<trkpt lat="46.5022172" lon="14.4901027">
<ele>2000.40</ele>
<time>2026-08-01T06:19:49.000Z</time>
</trkpt>
<trkpt lat="46.5020809" lon="14.4902781">
<ele>1998.54</ele>
<time>2026-08-01T06:20:00.000Z</time>
</trkpt>
<trkpt lat="46.5018927" lon="14.4903259">
<ele>1995.50</ele>
<time>2026-08-01T06:20:13.000Z</time>
</trkpt>
<trkpt lat="46.5017079" lon="14.4903599">
<ele>1993.28</ele>
<time>2026-08-01T06:20:25.000Z</time>
</trkpt>
<trkpt lat="46.5015278" lon="14.4904415">
<ele>1988.27</ele>
<time>2026-08-01T06:20:39.000Z</time>
</trkpt>
<trkpt lat="46.5013798" lon="14.4906130">
<ele>1985.51</ele>
<time>2026-08-01T06:20:50.000Z</time>
</trkpt>
<trkpt lat="46.5012766" lon="14.4908316">
<ele>1980.32</ele>
<time>2026-08-01T06:21:02.000Z</time>
</trkpt>
<trkpt lat="46.5011908" lon="14.4910704">
<ele>1973.63</ele>
<time>2026-08-01T06:21:14.000Z</time>
</trkpt>
<trkpt lat="46.5012043" lon="14.4913422">
<ele>1971.33</ele>
<time>2026-08-01T06:21:25.000Z</time>
</trkpt>
<trkpt lat="46.5011963" lon="14.4916170">
<ele>1965.69</ele>
<time>2026-08-01T06:21:42.000Z</time>
</trkpt>
<trkpt lat="46.5012390" lon="14.4918850">
<ele>1972.34</ele>
<time>2026-08-01T06:21:52.000Z</time>
</trkpt>
<trkpt lat="46.5013120" lon="14.4921250">
<ele>1968.45</ele>
<time>2026-08-01T06:22:04.000Z</time>
</trkpt>
<trkpt lat="46.5013605" lon="14.4924019">
<ele>1961.15</ele>
<time>2026-08-01T06:22:15.000Z</time>
</trkpt>
<trkpt lat="46.5014166" lon="14.4926527">
<ele>1955.58</ele>
<time>2026-08-01T06:22:31.000Z</time>
</trkpt>
<trkpt lat="46.5014704" lon="14.4929320">
<ele>1956.03</ele>
<time>2026-08-01T06:22:41.000Z</time>
</trkpt>
<trkpt lat="46.5014857" lon="14.4932193">
<ele>1948.82</ele>
<time>2026-08-01T06:22:54.000Z</time>
</trkpt>
<trkpt lat="46.5014960" lon="14.4934813">
<ele>1943.84</ele>
<time>2026-08-01T06:23:07.000Z</time>
</trkpt>
<trkpt lat="46.5014815" lon="14.4937448">
<ele>1936.30</ele>
<time>2026-08-01T06:23:18.000Z</time>
</trkpt>
<trkpt lat="46.5015345" lon="14.4939945">
<ele>1931.33</ele>
<time>2026-08-01T06:23:29.000Z</time>
</trkpt>
<trkpt lat="46.5016455" lon="14.4942256">
<ele>1925.50</ele>
<time>2026-08-01T06:23:43.000Z</time>
</trkpt>
<trkpt lat="46.5017198" lon="14.4944777">
<ele>1921.32</ele>
<time>2026-08-01T06:23:55.000Z</time>
</trkpt>
<trkpt lat="46.5018398" lon="14.4946928">
<ele>1914.94</ele>
<time>2026-08-01T06:24:10.000Z</time>
</trkpt>
<trkpt lat="46.5019530" lon="14.4949259">
<ele>1911.99</ele>
<time>2026-08-01T06:24:26.000Z</time>
</trkpt>
<trkpt lat="46.5020279" lon="14.4951752">
<ele>1907.76</ele>
<time>2026-08-01T06:24:40.000Z</time>
</trkpt>
<trkpt lat="46.5020101" lon="14.4954565">
<ele>1904.20</ele>
<time>2026-08-01T06:24:51.000Z</time>
</trkpt>
<trkpt lat="46.5019523" lon="14.4957104">
<ele>1912.43</ele>
<time>2026-08-01T06:25:01.000Z</time>
</trkpt>
<trkpt lat="46.5019536" lon="14.4959780">
<ele>1911.12</ele>
<time>2026-08-01T06:25:12.000Z</time>
</trkpt>
<trkpt lat="46.5020164" lon="14.4962439">
<ele>1898.87</ele>
<time>2026-08-01T06:25:33.000Z</time>
</trkpt>
<trkpt lat="46.5020947" lon="14.4965040">
<ele>1892.95</ele>
<time>2026-08-01T06:25:42.000Z</time>
</trkpt>
<trkpt lat="46.5021994" lon="14.4967337">
<ele>1890.81</ele>
<time>2026-08-01T06:25:52.000Z</time>
</trkpt>
<trkpt lat="46.5022984" lon="14.4969593">
<ele>1890.33</ele>
<time>2026-08-01T06:26:08.000Z</time>
</trkpt>
<trkpt lat="46.5024442" lon="14.4971235">
<ele>1887.54</ele>
<time>2026-08-01T06:26:21.000Z</time>
</trkpt>
<trkpt lat="46.5026035" lon="14.4972792">
<ele>1887.06</ele>
<time>2026-08-01T06:26:29.000Z</time>
</trkpt>
<trkpt lat="46.5027493" lon="14.4974726">
<ele>1882.40</ele>
<time>2026-08-01T06:26:42.000Z</time>
</trkpt>
<trkpt lat="46.5028704" lon="14.4976795">
<ele>1879.55</ele>
<time>2026-08-01T06:26:53.000Z</time>
</trkpt>
<trkpt lat="46.5029015" lon="14.4979410">
<ele>1879.91</ele>
<time>2026-08-01T06:27:11.000Z</time>
</trkpt>
<trkpt lat="46.5030043" lon="14.4981579">
<ele>1879.52</ele>
<time>2026-08-01T06:27:21.000Z</time>
</trkpt>
<trkpt lat="46.5031162" lon="14.4983726">
<ele>1877.90</ele>
<time>2026-08-01T06:27:32.000Z</time>
</trkpt>
<trkpt lat="46.5032293" lon="14.4985781">
<ele>1874.07</ele>
<time>2026-08-01T06:27:48.000Z</time>
</trkpt>
<trkpt lat="46.5033633" lon="14.4987824">
<ele>1870.80</ele>
<time>2026-08-01T06:28:00.000Z</time>
</trkpt>
<trkpt lat="46.5035041" lon="14.4989725">
<ele>1866.46</ele>
<time>2026-08-01T06:28:13.000Z</time>
</trkpt>
<trkpt lat="46.5036400" lon="14.4991663">
<ele>1868.38</ele>
<time>2026-08-01T06:28:22.000Z</time>
</trkpt>
<trkpt lat="46.5037186" lon="14.4994122">
<ele>1861.73</ele>
<time>2026-08-01T06:28:36.000Z</time>
</trkpt>
<trkpt lat="46.5038346" lon="14.4996126">
<ele>1853.74</ele>
<time>2026-08-01T06:28:51.000Z</time>
</trkpt>
<trkpt lat="46.5039048" lon="14.4998695">
<ele>1844.76</ele>
<time>2026-08-01T06:29:02.000Z</time>
</trkpt>
<trkpt lat="46.5039541" lon="14.5001325">
<ele>1843.71</ele>
<time>2026-08-01T06:29:12.000Z</time>
</trkpt>
<trkpt lat="46.5040403" lon="14.5003734">
<ele>1841.56</ele>
<time>2026-08-01T06:29:27.000Z</time>
</trkpt>
<trkpt lat="46.5041606" lon="14.5005902">
<ele>1837.07</ele>
<time>2026-08-01T06:29:39.000Z</time>
</trkpt>
<trkpt lat="46.5042794" lon="14.5007967">
<ele>1834.62</ele>
<time>2026-08-01T06:29:51.000Z</time>
</trkpt>
<trkpt lat="46.5042534" lon="14.5010842">
<ele>1828.40</ele>
<time>2026-08-01T06:30:04.000Z</time>
</trkpt>
<trkpt lat="46.5042113" lon="14.5013499">
<ele>1828.96</ele>
<time>2026-08-01T06:30:21.000Z</time>
</trkpt>
<trkpt lat="46.5041291" lon="14.5015917">
<ele>1829.32</ele>
<time>2026-08-01T06:30:34.000Z</time>
</trkpt>
<trkpt lat="46.5039904" lon="14.5017976">
<ele>1831.44</ele>
<time>2026-08-01T06:30:47.000Z</time>
</trkpt>
<trkpt lat="46.5038540" lon="14.5019694">
<ele>1827.99</ele>
<time>2026-08-01T06:31:25.000Z</time>
</trkpt>
<trkpt lat="46.5037328" lon="14.5021703">
<ele>1828.30</ele>
<time>2026-08-01T06:31:36.000Z</time>
</trkpt>
<trkpt lat="46.5035381" lon="14.5022292">
<ele>1824.21</ele>
<time>2026-08-01T06:31:48.000Z</time>
</trkpt>
<trkpt lat="46.5033592" lon="14.5022985">
<ele>1820.64</ele>
<time>2026-08-01T06:31:58.000Z</time>
</trkpt>
<trkpt lat="46.5031762" lon="14.5023348">
<ele>1813.76</ele>
<time>2026-08-01T06:32:12.000Z</time>
</trkpt>
<trkpt lat="46.5030187" lon="14.5025078">
<ele>1811.55</ele>
<time>2026-08-01T06:32:26.000Z</time>
</trkpt>
<trkpt lat="46.5028731" lon="14.5026804">
<ele>1807.31</ele>
<time>2026-08-01T06:32:39.000Z</time>
</trkpt>
<trkpt lat="46.5027829" lon="14.5029115">
<ele>1803.74</ele>
<time>2026-08-01T06:32:51.000Z</time>
</trkpt>
<trkpt lat="46.5027442" lon="14.5031668">
<ele>1799.13</ele>
<time>2026-08-01T06:33:01.000Z</time>
</trkpt>
<trkpt lat="46.5027268" lon="14.5034450">
<ele>1798.89</ele>
<time>2026-08-01T06:33:18.000Z</time>
</trkpt>
<trkpt lat="46.5026325" lon="14.5036751">
<ele>1792.92</ele>
<time>2026-08-01T06:33:54.000Z</time>
</trkpt>
<trkpt lat="46.5027021" lon="14.5039259">
<ele>1789.56</ele>
<time>2026-08-01T06:34:05.000Z</time>
</trkpt>
<trkpt lat="46.5028027" lon="14.5041452">
<ele>1787.31</ele>
<time>2026-08-01T06:34:25.000Z</time>
</trkpt>
<trkpt lat="46.5028027" lon="14.5044122">
<ele>1774.78</ele>
<time>2026-08-01T06:35:03.000Z</time>
</trkpt>
<trkpt lat="46.5028853" lon="14.5046714">
<ele>1769.90</ele>
<time>2026-08-01T06:35:17.000Z</time>
</trkpt>
<trkpt lat="46.5029814" lon="14.5048924">
<ele>1767.19</ele>
<time>2026-08-01T06:35:28.000Z</time>
</trkpt>
<trkpt lat="46.5030909" lon="14.5051052">
<ele>1764.25</ele>
<time>2026-08-01T06:35:39.000Z</time>
</trkpt>
<trkpt lat="46.5029964" lon="14.5053276">
<ele>1750.72</ele>
<time>2026-08-01T06:36:20.000Z</time>
</trkpt>
<trkpt lat="46.5030507" lon="14.5055896">
<ele>1750.46</ele>
<time>2026-08-01T06:36:36.000Z</time>
</trkpt>
<trkpt lat="46.5028730" lon="14.5056694">
<ele>1735.15</ele>
<time>2026-08-01T06:37:32.000Z</time>
</trkpt>
<trkpt lat="46.5027018" lon="14.5055857">
<ele>1726.61</ele>
<time>2026-08-01T06:37:44.000Z</time>
</trkpt>
<trkpt lat="46.5027043" lon="14.5058632">
<ele>1722.25</ele>
<time>2026-08-01T06:38:02.000Z</time>
</trkpt>
<trkpt lat="46.5026972" lon="14.5061277">
<ele>1722.34</ele>
<time>2026-08-01T06:38:20.000Z</time>
</trkpt>
<trkpt lat="46.5028640" lon="14.5062259">
<ele>1723.62</ele>
<time>2026-08-01T06:38:40.000Z</time>
</trkpt>
<trkpt lat="46.5030443" lon="14.5063289">
<ele>1717.56</ele>
<time>2026-08-01T06:38:54.000Z</time>
</trkpt>
<trkpt lat="46.5032165" lon="14.5064347">
<ele>1718.18</ele>
<time>2026-08-01T06:39:31.000Z</time>
</trkpt>
<trkpt lat="46.5033760" lon="14.5065948">
<ele>1717.50</ele>
<time>2026-08-01T06:39:45.000Z</time>
</trkpt>
<trkpt lat="46.5035540" lon="14.5066394">
<ele>1715.95</ele>
<time>2026-08-01T06:39:56.000Z</time>
</trkpt>
<trkpt lat="46.5037330" lon="14.5067381">
<ele>1713.96</ele>
<time>2026-08-01T06:40:12.000Z</time>
</trkpt>
<trkpt lat="46.5038932" lon="14.5068591">
<ele>1715.23</ele>
<time>2026-08-01T06:40:29.000Z</time>
</trkpt>
<trkpt lat="46.5040635" lon="14.5069741">
<ele>1714.03</ele>
<time>2026-08-01T06:40:42.000Z</time>
</trkpt>
<trkpt lat="46.5042460" lon="14.5070329">
<ele>1716.85</ele>
<time>2026-08-01T06:41:02.000Z</time>
</trkpt>
<trkpt lat="46.5043756" lon="14.5072264">
<ele>1715.96</ele>
<time>2026-08-01T06:41:17.000Z</time>
</trkpt>
<trkpt lat="46.5045424" lon="14.5073570">
<ele>1717.45</ele>
<time>2026-08-01T06:41:31.000Z</time>
</trkpt>
<trkpt lat="46.5047243" lon="14.5073497">
<ele>1715.47</ele>
<time>2026-08-01T06:41:42.000Z</time>
</trkpt>
<trkpt lat="46.5049011" lon="14.5074557">
<ele>1712.35</ele>
<time>2026-08-01T06:41:59.000Z</time>
</trkpt>
<trkpt lat="46.5050840" lon="14.5075015">
<ele>1710.69</ele>
<time>2026-08-01T06:42:17.000Z</time>
</trkpt>
<trkpt lat="46.5052610" lon="14.5075988">
<ele>1707.15</ele>
<time>2026-08-01T06:42:30.000Z</time>
</trkpt>
<trkpt lat="46.5054471" lon="14.5076557">
<ele>1710.95</ele>
<time>2026-08-01T06:42:41.000Z</time>
</trkpt>
<trkpt lat="46.5056386" lon="14.5077070">
<ele>1713.16</ele>
<time>2026-08-01T06:42:50.000Z</time>
</trkpt>
<trkpt lat="46.5058046" lon="14.5078520">
<ele>1704.06</ele>
<time>2026-08-01T06:43:04.000Z</time>
</trkpt>
<trkpt lat="46.5059819" lon="14.5079633">
<ele>1699.83</ele>
<time>2026-08-01T06:43:18.000Z</time>
</trkpt>
<trkpt lat="46.5061685" lon="14.5079336">
<ele>1694.92</ele>
<time>2026-08-01T06:43:29.000Z</time>
</trkpt>
<trkpt lat="46.5063274" lon="14.5078077">
<ele>1691.94</ele>
<time>2026-08-01T06:43:54.000Z</time>
</trkpt>
<trkpt lat="46.5065103" lon="14.5077569">
<ele>1687.99</ele>
<time>2026-08-01T06:44:06.000Z</time>
</trkpt>
<trkpt lat="46.5066486" lon="14.5075696">
<ele>1681.84</ele>
<time>2026-08-01T06:44:18.000Z</time>
</trkpt>
<trkpt lat="46.5067784" lon="14.5073869">
<ele>1677.71</ele>
<time>2026-08-01T06:44:32.000Z</time>
</trkpt>
<trkpt lat="46.5069280" lon="14.5072342">
<ele>1678.35</ele>
<time>2026-08-01T06:44:45.000Z</time>
</trkpt>
<trkpt lat="46.5071061" lon="14.5071651">
<ele>1670.80</ele>
<time>2026-08-01T06:46:13.000Z</time>
</trkpt>
<trkpt lat="46.5071876" lon="14.5069209">
<ele>1661.52</ele>
<time>2026-08-01T06:46:46.000Z</time>
</trkpt>
<trkpt lat="46.5072457" lon="14.5066726">
<ele>1654.04</ele>
<time>2026-08-01T06:47:17.000Z</time>
</trkpt>
<trkpt lat="46.5072717" lon="14.5064077">
<ele>1636.27</ele>
<time>2026-08-01T06:47:46.000Z</time>
</trkpt>
<trkpt lat="46.5071903" lon="14.5061667">
<ele>1636.39</ele>
<time>2026-08-01T06:48:01.000Z</time>
</trkpt>
<trkpt lat="46.5071500" lon="14.5059039">
<ele>1625.61</ele>
<time>2026-08-01T06:48:19.000Z</time>
</trkpt>
<trkpt lat="46.5070466" lon="14.5056712">
<ele>1619.61</ele>
<time>2026-08-01T06:48:34.000Z</time>
</trkpt>
<trkpt lat="46.5071894" lon="14.5054946">
<ele>1602.24</ele>
<time>2026-08-01T06:49:10.000Z</time>
</trkpt>
<trkpt lat="46.5073232" lon="14.5053179">
<ele>1589.33</ele>
<time>2026-08-01T06:49:32.000Z</time>
</trkpt>
<trkpt lat="46.5073958" lon="14.5050684">
<ele>1573.64</ele>
<time>2026-08-01T06:49:58.000Z</time>
</trkpt>
<trkpt lat="46.5075780" lon="14.5051572">
<ele>1570.86</ele>
<time>2026-08-01T06:50:17.000Z</time>
</trkpt>
<trkpt lat="46.5077556" lon="14.5052152">
<ele>1564.96</ele>
<time>2026-08-01T06:50:43.000Z</time>
</trkpt>
<trkpt lat="46.5079299" lon="14.5051392">
<ele>1551.99</ele>
<time>2026-08-01T06:51:08.000Z</time>
</trkpt>
<trkpt lat="46.5081099" lon="14.5050697">
<ele>1542.91</ele>
<time>2026-08-01T06:51:35.000Z</time>
</trkpt>
<trkpt lat="46.5082964" lon="14.5050555">
<ele>1537.29</ele>
<time>2026-08-01T06:51:52.000Z</time>
</trkpt>
<trkpt lat="46.5084626" lon="14.5051559">
<ele>1526.74</ele>
<time>2026-08-01T06:52:12.000Z</time>
</trkpt>
<trkpt lat="46.5085337" lon="14.5049105">
<ele>1512.96</ele>
<time>2026-08-01T06:52:27.000Z</time>
</trkpt>
<trkpt lat="46.5087228" lon="14.5049301">
<ele>1503.18</ele>
<time>2026-08-01T06:52:40.000Z</time>
</trkpt>
<trkpt lat="46.5088423" lon="14.5051414">
<ele>1501.36</ele>
<time>2026-08-01T06:52:54.000Z</time>
</trkpt>
<trkpt lat="46.5089848" lon="14.5053291">
<ele>1501.48</ele>
<time>2026-08-01T06:53:15.000Z</time>
</trkpt>
<trkpt lat="46.5090837" lon="14.5055673">
<ele>1497.58</ele>
<time>2026-08-01T06:53:33.000Z</time>
</trkpt>
<trkpt lat="46.5092064" lon="14.5057820">
<ele>1492.02</ele>
<time>2026-08-01T06:53:44.000Z</time>
</trkpt>
<trkpt lat="46.5093346" lon="14.5059880">
<ele>1484.11</ele>
<time>2026-08-01T06:54:04.000Z</time>
</trkpt>
<trkpt lat="46.5094748" lon="14.5061599">
<ele>1479.59</ele>
<time>2026-08-01T06:54:19.000Z</time>
</trkpt>
<trkpt lat="46.5096561" lon="14.5061885">
<ele>1475.32</ele>
<time>2026-08-01T06:54:32.000Z</time>
</trkpt>
<trkpt lat="46.5097932" lon="14.5063617">
<ele>1470.84</ele>
<time>2026-08-01T06:54:50.000Z</time>
</trkpt>
<trkpt lat="46.5099731" lon="14.5063768">
<ele>1461.35</ele>
<time>2026-08-01T06:55:17.000Z</time>
</trkpt>
<trkpt lat="46.5101619" lon="14.5064215">
<ele>1459.13</ele>
<time>2026-08-01T06:55:37.000Z</time>
</trkpt>
<trkpt lat="46.5103250" lon="14.5065742">
<ele>1452.52</ele>
<time>2026-08-01T06:55:55.000Z</time>
</trkpt>
<trkpt lat="46.5105073" lon="14.5066566">
<ele>1449.57</ele>
<time>2026-08-01T06:56:06.000Z</time>
</trkpt>
<trkpt lat="46.5106924" lon="14.5067076">
<ele>1442.76</ele>
<time>2026-08-01T06:56:35.000Z</time>
</trkpt>
<trkpt lat="46.5108335" lon="14.5065228">
<ele>1437.54</ele>
<time>2026-08-01T06:56:49.000Z</time>
</trkpt>
<trkpt lat="46.5108104" lon="14.5062472">
<ele>1435.60</ele>
<time>2026-08-01T06:57:00.000Z</time>
</trkpt>
<trkpt lat="46.5109215" lon="14.5060251">
<ele>1422.80</ele>
<time>2026-08-01T06:57:20.000Z</time>
</trkpt>
<trkpt lat="46.5110735" lon="14.5058728">
<ele>1414.67</ele>
<time>2026-08-01T06:57:35.000Z</time>
</trkpt>
<trkpt lat="46.5112280" lon="14.5057090">
<ele>1405.10</ele>
<time>2026-08-01T06:58:32.000Z</time>
</trkpt>
<trkpt lat="46.5112995" lon="14.5054684">
<ele>1393.69</ele>
<time>2026-08-01T06:58:47.000Z</time>
</trkpt>
<trkpt lat="46.5114637" lon="14.5053496">
<ele>1390.44</ele>
<time>2026-08-01T06:59:07.000Z</time>
</trkpt>
<trkpt lat="46.5116432" lon="14.5053920">
<ele>1390.91</ele>
<time>2026-08-01T06:59:19.000Z</time>
</trkpt>
<trkpt lat="46.5117988" lon="14.5052549">
<ele>1381.64</ele>
<time>2026-08-01T06:59:30.000Z</time>
</trkpt>
<trkpt lat="46.5119330" lon="14.5050692">
<ele>1375.95</ele>
<time>2026-08-01T06:59:40.000Z</time>
</trkpt>
<trkpt lat="46.5120826" lon="14.5049104">
<ele>1375.19</ele>
<time>2026-08-01T06:59:52.000Z</time>
</trkpt>
<trkpt lat="46.5121152" lon="14.5046424">
<ele>1363.34</ele>
<time>2026-08-01T07:00:10.000Z</time>
</trkpt>
<trkpt lat="46.5121974" lon="14.5043836">
<ele>1356.58</ele>
<time>2026-08-01T07:00:22.000Z</time>
</trkpt>
<trkpt lat="46.5122313" lon="14.5041207">
<ele>1358.59</ele>
<time>2026-08-01T07:00:34.000Z</time>
</trkpt>
<trkpt lat="46.5123391" lon="14.5039105">
<ele>1353.80</ele>
<time>2026-08-01T07:00:44.000Z</time>
</trkpt>
<trkpt lat="46.5124574" lon="14.5037125">
<ele>1352.11</ele>
<time>2026-08-01T07:00:54.000Z</time>
</trkpt>
<trkpt lat="46.5126211" lon="14.5035828">
<ele>1346.85</ele>
<time>2026-08-01T07:01:14.000Z</time>
</trkpt>
<trkpt lat="46.5127753" lon="14.5034038">
<ele>1340.97</ele>
<time>2026-08-01T07:01:25.000Z</time>
</trkpt>
<trkpt lat="46.5129153" lon="14.5031945">
<ele>1335.67</ele>
<time>2026-08-01T07:01:34.000Z</time>
</trkpt>
<trkpt lat="46.5130215" lon="14.5029626">
<ele>1329.99</ele>
<time>2026-08-01T07:01:49.000Z</time>
</trkpt>
<trkpt lat="46.5130246" lon="14.5026861">
<ele>1335.08</ele>
<time>2026-08-01T07:02:00.000Z</time>
</trkpt>
<trkpt lat="46.5128769" lon="14.5025081">
<ele>1336.29</ele>
<time>2026-08-01T07:02:11.000Z</time>
</trkpt>
<trkpt lat="46.5127268" lon="14.5023525">
<ele>1337.28</ele>
<time>2026-08-01T07:02:21.000Z</time>
</trkpt>
<trkpt lat="46.5125685" lon="14.5022117">
<ele>1322.65</ele>
<time>2026-08-01T07:02:36.000Z</time>
</trkpt>
<trkpt lat="46.5124203" lon="14.5020429">
<ele>1326.72</ele>
<time>2026-08-01T07:02:48.000Z</time>
</trkpt>
<trkpt lat="46.5123463" lon="14.5017993">
<ele>1322.92</ele>
<time>2026-08-01T07:02:59.000Z</time>
</trkpt>
<trkpt lat="46.5123454" lon="14.5015376">
<ele>1321.36</ele>
<time>2026-08-01T07:03:11.000Z</time>
</trkpt>
<trkpt lat="46.5123337" lon="14.5012621">
<ele>1315.68</ele>
<time>2026-08-01T07:03:28.000Z</time>
</trkpt>
<trkpt lat="46.5123636" lon="14.5009955">
<ele>1309.86</ele>
<time>2026-08-01T07:03:53.000Z</time>
</trkpt>
<trkpt lat="46.5123842" lon="14.5007321">
<ele>1305.72</ele>
<time>2026-08-01T07:04:11.000Z</time>
</trkpt>
<trkpt lat="46.5124297" lon="14.5004726">
<ele>1304.88</ele>
<time>2026-08-01T07:04:24.000Z</time>
</trkpt>
<trkpt lat="46.5125279" lon="14.5002450">
<ele>1293.04</ele>
<time>2026-08-01T07:04:57.000Z</time>
</trkpt>
<trkpt lat="46.5125700" lon="14.4999868">
<ele>1284.93</ele>
<time>2026-08-01T07:05:12.000Z</time>
</trkpt>
<trkpt lat="46.5126174" lon="14.4997327">
<ele>1286.62</ele>
<time>2026-08-01T07:05:32.000Z</time>
</trkpt>
<trkpt lat="46.5127422" lon="14.4995392">
<ele>1275.50</ele>
<time>2026-08-01T07:05:49.000Z</time>
</trkpt>
<trkpt lat="46.5128617" lon="14.4993398">
<ele>1272.92</ele>
<time>2026-08-01T07:06:06.000Z</time>
</trkpt>
<trkpt lat="46.5129565" lon="14.4991110">
<ele>1263.98</ele>
<time>2026-08-01T07:06:29.000Z</time>
</trkpt>
<trkpt lat="46.5131301" lon="14.4990178">
<ele>1259.52</ele>
<time>2026-08-01T07:06:48.000Z</time>
</trkpt>
<trkpt lat="46.5132360" lon="14.4987992">
<ele>1253.25</ele>
<time>2026-08-01T07:07:10.000Z</time>
</trkpt>
<trkpt lat="46.5134157" lon="14.4988420">
<ele>1255.21</ele>
<time>2026-08-01T07:07:22.000Z</time>
</trkpt>
<trkpt lat="46.5136012" lon="14.4987822">
<ele>1252.41</ele>
<time>2026-08-01T07:07:34.000Z</time>
</trkpt>
<trkpt lat="46.5137694" lon="14.4986880">
<ele>1246.51</ele>
<time>2026-08-01T07:07:47.000Z</time>
</trkpt>
<trkpt lat="46.5139501" lon="14.4986677">
<ele>1246.21</ele>
<time>2026-08-01T07:08:05.000Z</time>
</trkpt>
<trkpt lat="46.5141326" lon="14.4986038">
<ele>1238.37</ele>
<time>2026-08-01T07:08:26.000Z</time>
</trkpt>
<trkpt lat="46.5143094" lon="14.4986863">
<ele>1230.86</ele>
<time>2026-08-01T07:08:46.000Z</time>
</trkpt>
<trkpt lat="46.5144908" lon="14.4987314">
<ele>1221.05</ele>
<time>2026-08-01T07:09:04.000Z</time>
</trkpt>
<trkpt lat="46.5146703" lon="14.4988246">
<ele>1217.41</ele>
<time>2026-08-01T07:09:18.000Z</time>
</trkpt>
<trkpt lat="46.5148502" lon="14.4988881">
<ele>1211.14</ele>
<time>2026-08-01T07:09:39.000Z</time>
</trkpt>
<trkpt lat="46.5150232" lon="14.4989867">
<ele>1207.67</ele>
<time>2026-08-01T07:09:53.000Z</time>
</trkpt>
<trkpt lat="46.5151665" lon="14.4991669">
<ele>1198.09</ele>
<time>2026-08-01T07:10:08.000Z</time>
</trkpt>
<trkpt lat="46.5153318" lon="14.4993128">
<ele>1193.67</ele>
<time>2026-08-01T07:10:22.000Z</time>
</trkpt>
<trkpt lat="46.5154251" lon="14.4995439">
<ele>1185.75</ele>
<time>2026-08-01T07:10:35.000Z</time>
</trkpt>
<trkpt lat="46.5155346" lon="14.4997650">
<ele>1177.27</ele>
<time>2026-08-01T07:10:50.000Z</time>
</trkpt>
<trkpt lat="46.5156291" lon="14.5000147">
<ele>1172.91</ele>
<time>2026-08-01T07:11:06.000Z</time>
</trkpt>
<trkpt lat="46.5157406" lon="14.5002316">
<ele>1162.00</ele>
<time>2026-08-01T07:11:22.000Z</time>
</trkpt>
<trkpt lat="46.5158286" lon="14.5004746">
<ele>1153.56</ele>
<time>2026-08-01T07:11:41.000Z</time>
</trkpt>
<trkpt lat="46.5159123" lon="14.5007270">
<ele>1148.55</ele>
<time>2026-08-01T07:11:54.000Z</time>
</trkpt>
<trkpt lat="46.5160365" lon="14.5009330">
<ele>1146.72</ele>
<time>2026-08-01T07:12:05.000Z</time>
</trkpt>
<trkpt lat="46.5162052" lon="14.5010509">
<ele>1145.55</ele>
<time>2026-08-01T07:12:14.000Z</time>
</trkpt>
<trkpt lat="46.5163339" lon="14.5012433">
<ele>1141.17</ele>
<time>2026-08-01T07:12:26.000Z</time>
</trkpt>
<trkpt lat="46.5163049" lon="14.5015087">
<ele>1128.33</ele>
<time>2026-08-01T07:12:39.000Z</time>
</trkpt>
<trkpt lat="46.5163950" lon="14.5012786">
<ele>1123.43</ele>
<time>2026-08-01T07:13:07.000Z</time>
</trkpt>
<trkpt lat="46.5163275" lon="14.5010090">
<ele>1116.01</ele>
<time>2026-08-01T07:13:19.000Z</time>
</trkpt>
<trkpt lat="46.5164725" lon="14.5008480">
<ele>1112.79</ele>
<time>2026-08-01T07:13:45.000Z</time>
</trkpt>
<trkpt lat="46.5166210" lon="14.5010220">
<ele>1110.01</ele>
<time>2026-08-01T07:14:00.000Z</time>
</trkpt>
<trkpt lat="46.5167990" lon="14.5009237">
<ele>1098.51</ele>
<time>2026-08-01T07:14:17.000Z</time>
</trkpt>
<trkpt lat="46.5169648" lon="14.5010520">
<ele>1092.53</ele>
<time>2026-08-01T07:14:46.000Z</time>
</trkpt>
<trkpt lat="46.5170256" lon="14.5013044">
<ele>1083.44</ele>
<time>2026-08-01T07:14:56.000Z</time>
</trkpt>
<trkpt lat="46.5171086" lon="14.5015658">
<ele>1084.43</ele>
<time>2026-08-01T07:15:15.000Z</time>
</trkpt>
<trkpt lat="46.5171986" lon="14.5018057">
<ele>1081.28</ele>
<time>2026-08-01T07:15:26.000Z</time>
</trkpt>
<trkpt lat="46.5173818" lon="14.5018176">
<ele>1071.95</ele>
<time>2026-08-01T07:16:02.000Z</time>
</trkpt>
<trkpt lat="46.5175601" lon="14.5019140">
<ele>1066.07</ele>
<time>2026-08-01T07:16:18.000Z</time>
</trkpt>
<trkpt lat="46.5176997" lon="14.5020790">
<ele>1061.76</ele>
<time>2026-08-01T07:16:42.000Z</time>
</trkpt>
<trkpt lat="46.5178851" lon="14.5020301">
<ele>1048.74</ele>
<time>2026-08-01T07:17:02.000Z</time>
</trkpt>
<trkpt lat="46.5180702" lon="14.5020668">
<ele>1043.92</ele>
<time>2026-08-01T07:17:13.000Z</time>
</trkpt>
<trkpt lat="46.5181976" lon="14.5018780">
<ele>1039.26</ele>
<time>2026-08-01T07:17:21.000Z</time>
</trkpt>
<trkpt lat="46.5182850" lon="14.5021123">
<ele>1014.17</ele>
<time>2026-08-01T07:21:09.000Z</time>
</trkpt>
<trkpt lat="46.5184260" lon="14.5022758">
<ele>1010.15</ele>
<time>2026-08-01T07:21:22.000Z</time>
</trkpt>
<trkpt lat="46.5186107" lon="14.5023143">
<ele>1006.23</ele>
<time>2026-08-01T07:21:33.000Z</time>
</trkpt>
<trkpt lat="46.5187816" lon="14.5023977">
<ele>1004.74</ele>
<time>2026-08-01T07:21:43.000Z</time>
</trkpt>
<trkpt lat="46.5189584" lon="14.5024844">
<ele>1006.85</ele>
<time>2026-08-01T07:21:51.000Z</time>
</trkpt>
<trkpt lat="46.5191190" lon="14.5026095">
<ele>1005.01</ele>
<time>2026-08-01T07:22:03.000Z</time>
</trkpt>
<trkpt lat="46.5193072" lon="14.5025426">
<ele>999.85</ele>
<time>2026-08-01T07:22:13.000Z</time>
</trkpt>
<trkpt lat="46.5191605" lon="14.5023757">
<ele>997.49</ele>
<time>2026-08-01T07:22:20.000Z</time>
</trkpt>
<trkpt lat="46.5189846" lon="14.5022419">
<ele>997.47</ele>
<time>2026-08-01T07:22:28.000Z</time>
</trkpt>
<trkpt lat="46.5191594" lon="14.5021252">
<ele>987.04</ele>
<time>2026-08-01T07:22:57.000Z</time>
</trkpt>
<trkpt lat="46.5193534" lon="14.5021749">
<ele>983.39</ele>
<time>2026-08-01T07:23:13.000Z</time>
</trkpt>
<trkpt lat="46.5195197" lon="14.5022819">
<ele>988.22</ele>
<time>2026-08-01T07:23:24.000Z</time>
</trkpt>
<trkpt lat="46.5197056" lon="14.5023301">
<ele>981.09</ele>
<time>2026-08-01T07:23:37.000Z</time>
</trkpt>
<trkpt lat="46.5198797" lon="14.5024007">
<ele>976.92</ele>
<time>2026-08-01T07:23:48.000Z</time>
</trkpt>
<trkpt lat="46.5200649" lon="14.5024061">
<ele>965.07</ele>
<time>2026-08-01T07:24:02.000Z</time>
</trkpt>
<trkpt lat="46.5202171" lon="14.5025893">
<ele>964.53</ele>
<time>2026-08-01T07:24:13.000Z</time>
</trkpt>
<trkpt lat="46.5203721" lon="14.5027519">
<ele>967.87</ele>
<time>2026-08-01T07:24:23.000Z</time>
</trkpt>
<trkpt lat="46.5204644" lon="14.5029884">
<ele>964.56</ele>
<time>2026-08-01T07:24:34.000Z</time>
</trkpt>
<trkpt lat="46.5206017" lon="14.5031582">
<ele>960.36</ele>
<time>2026-08-01T07:24:48.000Z</time>
</trkpt>
<trkpt lat="46.5207892" lon="14.5032402">
<ele>955.20</ele>
<time>2026-08-01T07:25:01.000Z</time>
</trkpt>
<trkpt lat="46.5209474" lon="14.5033859">
<ele>947.22</ele>
<time>2026-08-01T07:25:13.000Z</time>
</trkpt>
<trkpt lat="46.5211369" lon="14.5034508">
<ele>944.30</ele>
<time>2026-08-01T07:25:27.000Z</time>
</trkpt>
<trkpt lat="46.5213140" lon="14.5035127">
<ele>939.73</ele>
<time>2026-08-01T07:25:40.000Z</time>
</trkpt>
<trkpt lat="46.5214784" lon="14.5033865">
<ele>934.46</ele>
<time>2026-08-01T07:25:54.000Z</time>
</trkpt>
<trkpt lat="46.5215319" lon="14.5031141">
<ele>921.05</ele>
<time>2026-08-01T07:26:25.000Z</time>
</trkpt>
<trkpt lat="46.5217180" lon="14.5031000">
<ele>921.47</ele>
<time>2026-08-01T07:26:38.000Z</time>
</trkpt>
<trkpt lat="46.5218730" lon="14.5032491">
<ele>918.46</ele>
<time>2026-08-01T07:26:58.000Z</time>
</trkpt>
<trkpt lat="46.5220544" lon="14.5032637">
<ele>908.60</ele>
<time>2026-08-01T07:27:31.000Z</time>
</trkpt>
<trkpt lat="46.5222332" lon="14.5031804">
<ele>905.29</ele>
<time>2026-08-01T07:27:41.000Z</time>
</trkpt>
<trkpt lat="46.5224211" lon="14.5031572">
<ele>902.30</ele>
<time>2026-08-01T07:27:54.000Z</time>
</trkpt>
<trkpt lat="46.5226102" lon="14.5031248">
<ele>902.83</ele>
<time>2026-08-01T07:28:06.000Z</time>
</trkpt>
<trkpt lat="46.5227986" lon="14.5031115">
<ele>904.11</ele>
<time>2026-08-01T07:28:17.000Z</time>
</trkpt>
<trkpt lat="46.5229962" lon="14.5031587">
<ele>902.44</ele>
<time>2026-08-01T07:28:32.000Z</time>
</trkpt>
<trkpt lat="46.5231808" lon="14.5032007">
<ele>901.43</ele>
<time>2026-08-01T07:28:45.000Z</time>
</trkpt>
<trkpt lat="46.5233356" lon="14.5033583">
<ele>899.36</ele>
<time>2026-08-01T07:29:03.000Z</time>
</trkpt>
<trkpt lat="46.5233886" lon="14.5036176">
<ele>898.03</ele>
<time>2026-08-01T07:29:16.000Z</time>
</trkpt>
<trkpt lat="46.5234913" lon="14.5038601">
<ele>896.90</ele>
<time>2026-08-01T07:29:27.000Z</time>
</trkpt>
<trkpt lat="46.5236633" lon="14.5039579">
<ele>888.46</ele>
<time>2026-08-01T07:29:51.000Z</time>
</trkpt>
<trkpt lat="46.5238256" lon="14.5038393">
<ele>882.25</ele>
<time>2026-08-01T07:30:08.000Z</time>
</trkpt>
<trkpt lat="46.5240045" lon="14.5037711">
<ele>879.44</ele>
<time>2026-08-01T07:30:23.000Z</time>
</trkpt>
<trkpt lat="46.5241756" lon="14.5038601">
<ele>873.36</ele>
<time>2026-08-01T07:30:41.000Z</time>
</trkpt>
<trkpt lat="46.5243526" lon="14.5039281">
<ele>864.81</ele>
<time>2026-08-01T07:30:55.000Z</time>
</trkpt>
<trkpt lat="46.5245315" lon="14.5040045">
<ele>857.84</ele>
<time>2026-08-01T07:31:10.000Z</time>
</trkpt>
<trkpt lat="46.5247021" lon="14.5041125">
<ele>851.96</ele>
<time>2026-08-01T07:31:23.000Z</time>
</trkpt>
<trkpt lat="46.5248804" lon="14.5040656">
<ele>847.87</ele>
<time>2026-08-01T07:31:41.000Z</time>
</trkpt>
<trkpt lat="46.5250667" lon="14.5040330">
<ele>847.51</ele>
<time>2026-08-01T07:31:58.000Z</time>
</trkpt>
<trkpt lat="46.5252515" lon="14.5040119">
<ele>845.74</ele>
<time>2026-08-01T07:32:10.000Z</time>
</trkpt>
<trkpt lat="46.5254355" lon="14.5040295">
<ele>841.03</ele>
<time>2026-08-01T07:32:30.000Z</time>
</trkpt>
<trkpt lat="46.5256202" lon="14.5039457">
<ele>836.32</ele>
<time>2026-08-01T07:32:49.000Z</time>
</trkpt>
<trkpt lat="46.5258211" lon="14.5038616">
<ele>834.92</ele>
<time>2026-08-01T07:32:56.000Z</time>
</trkpt>
<trkpt lat="46.5259868" lon="14.5037578">
<ele>836.65</ele>
<time>2026-08-01T07:33:03.000Z</time>
</trkpt>
<trkpt lat="46.5261717" lon="14.5037792">
<ele>836.69</ele>
<time>2026-08-01T07:33:14.000Z</time>
</trkpt>
<trkpt lat="46.5263502" lon="14.5038586">
<ele>829.96</ele>
<time>2026-08-01T07:33:27.000Z</time>
</trkpt>
<trkpt lat="46.5265317" lon="14.5038274">
<ele>812.18</ele>
<time>2026-08-01T07:33:44.000Z</time>
</trkpt>
<trkpt lat="46.5267090" lon="14.5039178">
<ele>807.03</ele>
<time>2026-08-01T07:33:55.000Z</time>
</trkpt>
<trkpt lat="46.5268926" lon="14.5039759">
<ele>808.05</ele>
<time>2026-08-01T07:34:04.000Z</time>
</trkpt>
<trkpt lat="46.5270555" lon="14.5041294">
<ele>814.96</ele>
<time>2026-08-01T07:34:17.000Z</time>
</trkpt>
<trkpt lat="46.5272310" lon="14.5042097">
<ele>814.69</ele>
<time>2026-08-01T07:34:32.000Z</time>
</trkpt>
<trkpt lat="46.5274136" lon="14.5042340">
<ele>812.99</ele>
<time>2026-08-01T07:34:44.000Z</time>
</trkpt>
<trkpt lat="46.5275899" lon="14.5043351">
<ele>811.84</ele>
<time>2026-08-01T07:34:54.000Z</time>
</trkpt>
<trkpt lat="46.5277784" lon="14.5043836">
<ele>813.52</ele>
<time>2026-08-01T07:35:07.000Z</time>
</trkpt>
<trkpt lat="46.5279615" lon="14.5043763">
<ele>813.47</ele>
<time>2026-08-01T07:35:16.000Z</time>
</trkpt>
<trkpt lat="46.5281410" lon="14.5041732">
<ele>810.43</ele>
<time>2026-08-01T07:35:27.000Z</time>
</trkpt>
<trkpt lat="46.5283251" lon="14.5042411">
<ele>807.37</ele>
<time>2026-08-01T07:35:40.000Z</time>
</trkpt>
<trkpt lat="46.5285003" lon="14.5043383">
<ele>804.19</ele>
<time>2026-08-01T07:35:50.000Z</time>
</trkpt>
<trkpt lat="46.5286852" lon="14.5044277">
<ele>800.96</ele>
<time>2026-08-01T07:36:02.000Z</time>
</trkpt>
<trkpt lat="46.5288832" lon="14.5043915">
<ele>804.20</ele>
<time>2026-08-01T07:36:09.000Z</time>
</trkpt>
<trkpt lat="46.5290693" lon="14.5043744">
<ele>797.53</ele>
<time>2026-08-01T07:36:23.000Z</time>
</trkpt>
<trkpt lat="46.5292461" lon="14.5044984">
<ele>796.27</ele>
<time>2026-08-01T07:36:35.000Z</time>
</trkpt>
<trkpt lat="46.5294240" lon="14.5045876">
<ele>795.32</ele>
<time>2026-08-01T07:36:44.000Z</time>
</trkpt>
<trkpt lat="46.5295569" lon="14.5047743">
<ele>789.69</ele>
<time>2026-08-01T07:36:59.000Z</time>
</trkpt>
<trkpt lat="46.5297579" lon="14.5047887">
<ele>782.36</ele>
<time>2026-08-01T07:37:11.000Z</time>
</trkpt>
<trkpt lat="46.5299447" lon="14.5047606">
<ele>783.41</ele>
<time>2026-08-01T07:37:18.000Z</time>
</trkpt>
<trkpt lat="46.5301076" lon="14.5048883">
<ele>785.66</ele>
<time>2026-08-01T07:37:29.000Z</time>
</trkpt>
<trkpt lat="46.5302804" lon="14.5049907">
<ele>784.62</ele>
<time>2026-08-01T07:37:44.000Z</time>
</trkpt>
<trkpt lat="46.5304594" lon="14.5050232">
<ele>785.16</ele>
<time>2026-08-01T07:37:51.000Z</time>
</trkpt>
<trkpt lat="46.5306408" lon="14.5050638">
<ele>784.18</ele>
<time>2026-08-01T07:38:03.000Z</time>
</trkpt>
<trkpt lat="46.5308163" lon="14.5051502">
<ele>780.41</ele>
<time>2026-08-01T07:38:15.000Z</time>
</trkpt>
<trkpt lat="46.5309996" lon="14.5051861">
<ele>778.75</ele>
<time>2026-08-01T07:38:25.000Z</time>
</trkpt>
<trkpt lat="46.5311761" lon="14.5052449">
<ele>777.97</ele>
<time>2026-08-01T07:38:40.000Z</time>
</trkpt>
<trkpt lat="46.5313561" lon="14.5052454">
<ele>780.39</ele>
<time>2026-08-01T07:38:48.000Z</time>
</trkpt>
<trkpt lat="46.5315410" lon="14.5052414">
<ele>780.37</ele>
<time>2026-08-01T07:38:57.000Z</time>
</trkpt>
<trkpt lat="46.5316983" lon="14.5053829">
<ele>786.78</ele>
<time>2026-08-01T07:39:08.000Z</time>
</trkpt>
<trkpt lat="46.5318791" lon="14.5054086">
<ele>791.76</ele>
<time>2026-08-01T07:39:16.000Z</time>
</trkpt>
<trkpt lat="46.5320685" lon="14.5053953">
<ele>782.17</ele>
<time>2026-08-01T07:39:29.000Z</time>
</trkpt>
<trkpt lat="46.5322586" lon="14.5054476">
<ele>783.37</ele>
<time>2026-08-01T07:39:42.000Z</time>
</trkpt>
<trkpt lat="46.5324274" lon="14.5055972">
<ele>783.38</ele>
<time>2026-08-01T07:39:55.000Z</time>
</trkpt>
<trkpt lat="46.5323387" lon="14.5058368">
<ele>776.40</ele>
<time>2026-08-01T07:40:20.000Z</time>
</trkpt>
<trkpt lat="46.5323359" lon="14.5061009">
<ele>767.84</ele>
<time>2026-08-01T07:40:44.000Z</time>
</trkpt>
<trkpt lat="46.5324302" lon="14.5063443">
<ele>758.32</ele>
<time>2026-08-01T07:40:55.000Z</time>
</trkpt>
<trkpt lat="46.5325934" lon="14.5064847">
<ele>752.93</ele>
<time>2026-08-01T07:41:07.000Z</time>
</trkpt>
<trkpt lat="46.5327751" lon="14.5065308">
<ele>750.85</ele>
<time>2026-08-01T07:41:18.000Z</time>
</trkpt>
<trkpt lat="46.5329333" lon="14.5066729">
<ele>745.84</ele>
<time>2026-08-01T07:41:34.000Z</time>
</trkpt>
<trkpt lat="46.5331086" lon="14.5067683">
<ele>742.33</ele>
<time>2026-08-01T07:41:47.000Z</time>
</trkpt>
<trkpt lat="46.5332975" lon="14.5068392">
<ele>741.54</ele>
<time>2026-08-01T07:42:01.000Z</time>
</trkpt>
<trkpt lat="46.5334799" lon="14.5068851">
<ele>739.51</ele>
<time>2026-08-01T07:42:12.000Z</time>
</trkpt>
<trkpt lat="46.5336644" lon="14.5070002">
<ele>737.50</ele>
<time>2026-08-01T07:42:26.000Z</time>
</trkpt>
<trkpt lat="46.5338455" lon="14.5070311">
<ele>737.34</ele>
<time>2026-08-01T07:42:38.000Z</time>
</trkpt>
<trkpt lat="46.5340196" lon="14.5071528">
<ele>735.29</ele>
<time>2026-08-01T07:42:49.000Z</time>
</trkpt>
<trkpt lat="46.5341902" lon="14.5072631">
<ele>733.60</ele>
<time>2026-08-01T07:43:09.000Z</time>
</trkpt>
<trkpt lat="46.5343676" lon="14.5071835">
<ele>733.41</ele>
<time>2026-08-01T07:43:23.000Z</time>
</trkpt>
<trkpt lat="46.5345297" lon="14.5070652">
<ele>728.29</ele>
<time>2026-08-01T07:43:34.000Z</time>
</trkpt>
<trkpt lat="46.5347241" lon="14.5070198">
<ele>729.87</ele>
<time>2026-08-01T07:43:45.000Z</time>
</trkpt>
<trkpt lat="46.5346849" lon="14.5072864">
<ele>719.87</ele>
<time>2026-08-01T07:44:16.000Z</time>
</trkpt>
<trkpt lat="46.5345470" lon="14.5074896">
<ele>715.58</ele>
<time>2026-08-01T07:44:32.000Z</time>
</trkpt>
<trkpt lat="46.5345471" lon="14.5077606">
<ele>705.92</ele>
<time>2026-08-01T07:44:57.000Z</time>
</trkpt>
<trkpt lat="46.5347120" lon="14.5079150">
<ele>693.28</ele>
<time>2026-08-01T07:45:28.000Z</time>
</trkpt>
<trkpt lat="46.5348873" lon="14.5077976">
<ele>687.72</ele>
<time>2026-08-01T07:45:51.000Z</time>
</trkpt>
<trkpt lat="46.5350689" lon="14.5077818">
<ele>686.48</ele>
<time>2026-08-01T07:46:09.000Z</time>
</trkpt>
<trkpt lat="46.5350617" lon="14.5080490">
<ele>674.30</ele>
<time>2026-08-01T07:46:46.000Z</time>
</trkpt>
<trkpt lat="46.5349578" lon="14.5082659">
<ele>661.30</ele>
<time>2026-08-01T07:47:11.000Z</time>
</trkpt>
<trkpt lat="46.5348664" lon="14.5085134">
<ele>660.63</ele>
<time>2026-08-01T07:47:24.000Z</time>
</trkpt>
<trkpt lat="46.5347238" lon="14.5086891">
<ele>651.59</ele>
<time>2026-08-01T07:47:39.000Z</time>
</trkpt>
<trkpt lat="46.5348953" lon="14.5087790">
<ele>644.89</ele>
<time>2026-08-01T07:48:54.000Z</time>
</trkpt>
<trkpt lat="46.5350634" lon="14.5086499">
<ele>638.82</ele>
<time>2026-08-01T07:49:07.000Z</time>
</trkpt>
<trkpt lat="46.5352407" lon="14.5085481">
<ele>633.91</ele>
<time>2026-08-01T07:49:22.000Z</time>
</trkpt>
<trkpt lat="46.5350815" lon="14.5086879">
<ele>621.98</ele>
<time>2026-08-01T07:49:49.000Z</time>
</trkpt>
<trkpt lat="46.5349129" lon="14.5087918">
<ele>627.55</ele>
<time>2026-08-01T07:50:07.000Z</time>
</trkpt>
<trkpt lat="46.5347219" lon="14.5088504">
<ele>630.89</ele>
<time>2026-08-01T07:50:25.000Z</time>
</trkpt>
<trkpt lat="46.5349072" lon="14.5088427">
<ele>631.81</ele>
<time>2026-08-01T07:52:06.000Z</time>
</trkpt>
<trkpt lat="46.5350740" lon="14.5087124">
<ele>623.24</ele>
<time>2026-08-01T07:52:18.000Z</time>
</trkpt>
<trkpt lat="46.5352508" lon="14.5086082">
<ele>622.29</ele>
<time>2026-08-01T07:52:41.000Z</time>
</trkpt>
<trkpt lat="46.5354187" lon="14.5084869">
<ele>621.86</ele>
<time>2026-08-01T07:52:49.000Z</time>
</trkpt>
<trkpt lat="46.5356102" lon="14.5084921">
<ele>611.78</ele>
<time>2026-08-01T07:53:29.000Z</time>
</trkpt>
<trkpt lat="46.5357814" lon="14.5083954">
<ele>605.84</ele>
<time>2026-08-01T07:53:39.000Z</time>
</trkpt>
<trkpt lat="46.5359738" lon="14.5083893">
<ele>604.53</ele>
<time>2026-08-01T07:53:52.000Z</time>
</trkpt>
<trkpt lat="46.5361256" lon="14.5082194">
<ele>599.00</ele>
<time>2026-08-01T07:54:01.000Z</time>
</trkpt>
<trkpt lat="46.5363107" lon="14.5081584">
<ele>591.26</ele>
<time>2026-08-01T07:54:13.000Z</time>
</trkpt>
<trkpt lat="46.5364898" lon="14.5080769">
<ele>587.55</ele>
<time>2026-08-01T07:54:24.000Z</time>
</trkpt>
<trkpt lat="46.5365602" lon="14.5083271">
<ele>581.97</ele>
<time>2026-08-01T07:54:53.000Z</time>
</trkpt>
<trkpt lat="46.5367310" lon="14.5084320">
<ele>580.33</ele>
<time>2026-08-01T07:55:05.000Z</time>
</trkpt>
<trkpt lat="46.5369127" lon="14.5084123">
<ele>577.49</ele>
<time>2026-08-01T07:55:16.000Z</time>
</trkpt>
<trkpt lat="46.5370999" lon="14.5083748">
<ele>574.17</ele>
<time>2026-08-01T07:55:26.000Z</time>
</trkpt>
<trkpt lat="46.5372941" lon="14.5083904">
<ele>573.36</ele>
<time>2026-08-01T07:55:36.000Z</time>
</trkpt>
<trkpt lat="46.5374627" lon="14.5085124">
<ele>568.54</ele>
<time>2026-08-01T07:55:48.000Z</time>
</trkpt>
<trkpt lat="46.5376509" lon="14.5085686">
<ele>564.90</ele>
<time>2026-08-01T07:55:59.000Z</time>
</trkpt>
<trkpt lat="46.5378260" lon="14.5084481">
<ele>556.05</ele>
<time>2026-08-01T07:56:10.000Z</time>
</trkpt>
<trkpt lat="46.5379750" lon="14.5082893">
<ele>555.95</ele>
<time>2026-08-01T07:56:19.000Z</time>
</trkpt>
<trkpt lat="46.5381088" lon="14.5081011">
<ele>557.05</ele>
<time>2026-08-01T07:56:31.000Z</time>
</trkpt>
<trkpt lat="46.5380791" lon="14.5083615">
<ele>556.85</ele>
<time>2026-08-01T07:56:47.000Z</time>
</trkpt>
<trkpt lat="46.5380109" lon="14.5086149">
<ele>553.89</ele>
<time>2026-08-01T07:56:57.000Z</time>
</trkpt>
<trkpt lat="46.5379021" lon="14.5088363">
<ele>555.04</ele>
<time>2026-08-01T07:57:09.000Z</time>
</trkpt>
<trkpt lat="46.5377226" lon="14.5089320">
<ele>553.73</ele>
<time>2026-08-01T07:57:21.000Z</time>
</trkpt>
<trkpt lat="46.5378743" lon="14.5091007">
<ele>549.74</ele>
<time>2026-08-01T07:57:41.000Z</time>
</trkpt>
<trkpt lat="46.5380626" lon="14.5090386">
<ele>548.31</ele>
<time>2026-08-01T07:57:55.000Z</time>
</trkpt>
<trkpt lat="46.5382512" lon="14.5090311">
<ele>545.14</ele>
<time>2026-08-01T07:58:07.000Z</time>
</trkpt>
<trkpt lat="46.5384349" lon="14.5089250">
<ele>539.18</ele>
<time>2026-08-01T07:58:15.000Z</time>
</trkpt>
<trkpt lat="46.5385750" lon="14.5087180">
<ele>532.07</ele>
<time>2026-08-01T07:58:24.000Z</time>
</trkpt>
<trkpt lat="46.5386802" lon="14.5084926">
<ele>528.30</ele>
<time>2026-08-01T07:58:39.000Z</time>
</trkpt>
<trkpt lat="46.5387718" lon="14.5087298">
<ele>528.86</ele>
<time>2026-08-01T07:58:53.000Z</time>
</trkpt>
<trkpt lat="46.5387383" lon="14.5089890">
<ele>526.15</ele>
<time>2026-08-01T07:59:07.000Z</time>
</trkpt>
<trkpt lat="46.5388508" lon="14.5091966">
<ele>520.36</ele>
<time>2026-08-01T07:59:25.000Z</time>
</trkpt>
<trkpt lat="46.5389554" lon="14.5089711">
<ele>517.85</ele>
<time>2026-08-01T08:00:13.000Z</time>
</trkpt>
<trkpt lat="46.5390291" lon="14.5087296">
<ele>515.30</ele>
<time>2026-08-01T08:00:25.000Z</time>
</trkpt>
<extensions>
<om:oruxmapsextensions>
<om:ext type="NAME" subtype="0"><![CDATA[Segment: 1]]></om:ext>
</om:oruxmapsextensions>
</extensions>
</trkseg>
</trk>
</gpx>
