<?xml version="1.0" encoding="UTF-8" standalone="no" ?>
<gpx xmlns="http://www.topografix.com/GPX/1/1" creator="OruxMaps v.10.7.4 GP" version="1.1" xmlns:gpxtpx="http://www.garmin.com/xmlschemas/TrackPointExtension/v2" xmlns:xsi="http://www.w3.org/2001/XMLSchema-instance" xmlns:om="http://www.oruxmaps.com/oruxmapsextensions/1/0" xsi:schemaLocation="http://www.topografix.com/GPX/1/1 http://www.topografix.com/GPX/1/1/gpx.xsd">
<!-- owner: e57cf051988575 -->
<metadata>
<name><![CDATA[2026-08-15 19:10:36 Gmund]]></name>
<link href="https://www.oruxmaps.com">
<text>OruxMaps GP</text>
</link>
<time>2026-08-15T17:10:36.239Z</time><bounds maxlat="46.9124500" maxlon="13.5373785" minlat="46.9065279" minlon="13.5332617"/>
</metadata>
<wpt lat="46.9085620" lon="13.5342625">
<ele>747.50</ele>
<time>2026-08-15T17:10:36.334Z</time>
<name><![CDATA[]]></name>
<sym>Waypoint</sym>
<type>Starting Point</type>
<extensions>
<om:oruxmapsextensions>
<om:ext type="ICON" subtype="0">38</om:ext>
</om:oruxmapsextensions>
</extensions>
</wpt>
<wpt lat="46.9083849" lon="13.5342966">
<ele>735.34</ele>
<time>2026-08-15T17:54:38.106Z</time>
<name><![CDATA[]]></name>
<desc><![CDATA[<p><br /><h3>Name: Segment: 1</h3><br />Type: Hiking<br/>Start time: 19:10 15 Aug 2026<br/>Finish time: 19:54 15 Aug 2026<br/>Distance: 2.3km (00:43)<br/>Moving time: 00:41<br/>Average speed: 3.10 km/h<br/>Speed in Movement: 3.30 km/h<br/>Maximum Speed: 7.53 km/h<br/>Minimum altitude: 735 m<br/>Maximum altitude: 788 m<br/>Ascent speed: 213.7 m/h<br/>Descent speed: 209.1 m/h<br/>Elevation gain: 54 m<br/>Elevation loss: 65 m<br/>Ascent time: 00:15<br/>Descent time: 00:18<br/></p>]]></desc>
<sym>Waypoint</sym>
<type>Finishing Point</type>
<extensions>
<om:oruxmapsextensions>
<om:ext type="ICON" subtype="0">15</om:ext>
</om:oruxmapsextensions>
</extensions>
</wpt>
<trk>
<name><![CDATA[2026-08-15 19:10:36 Gmund]]></name>
<desc><![CDATA[<p>Type: Walking<br/>Start time: 19:10 15 Aug 2026<br/>Finish time: 19:54 15 Aug 2026<br/>Distance: 2.3 km (00:43)<br/>Moving time: 00:41<br/>Average speed: 3.10 km/h<br/>Speed in Movement: 3.30 km/h<br/>Maximum Speed: 7.53 km/h<br/>Minimum altitude: 735 m<br/>Maximum altitude: 788 m<br/>Ascent speed: 213.7 m/h<br/>Descent speed: 209.1 m/h<br/>Elevation gain: 54 m<br/>Elevation loss: 65 m<br/>Ascent time: 00:15<br/>Descent time: 00:18<br/></p><hr align="center" width="480" style="height: 2px; width: 517px"/>]]></desc>
<type>Walking</type>
<extensions>
<om:oruxmapsextensions>
<om:ext type="TYPE" subtype="0">13</om:ext>
<om:ext type="DIFFICULTY">0</om:ext>
</om:oruxmapsextensions>
</extensions>
<trkseg>
<trkpt lat="46.9085620" lon="13.5342625">
<ele>747.50</ele>
<time>2026-08-15T17:10:38.000Z</time>
</trkpt>
<trkpt lat="46.9085846" lon="13.5345302">
<ele>745.66</ele>
<time>2026-08-15T17:11:31.000Z</time>
</trkpt>
<trkpt lat="46.9085215" lon="13.5347887">
<ele>747.28</ele>
<time>2026-08-15T17:11:51.000Z</time>
</trkpt>
<trkpt lat="46.9085512" lon="13.5350544">
<ele>746.95</ele>
<time>2026-08-15T17:12:53.000Z</time>
</trkpt>
<trkpt lat="46.9087152" lon="13.5351845">
<ele>750.48</ele>
<time>2026-08-15T17:13:39.000Z</time>
</trkpt>
<trkpt lat="46.9088931" lon="13.5352414">
<ele>751.65</ele>
<time>2026-08-15T17:13:56.000Z</time>
</trkpt>
<trkpt lat="46.9087678" lon="13.5354382">
<ele>760.10</ele>
<time>2026-08-15T17:14:16.000Z</time>
</trkpt>
<trkpt lat="46.9089093" lon="13.5356160">
<ele>763.99</ele>
<time>2026-08-15T17:14:57.000Z</time>
</trkpt>
<trkpt lat="46.9090855" lon="13.5355471">
<ele>766.62</ele>
<time>2026-08-15T17:15:11.000Z</time>
</trkpt>
<trkpt lat="46.9092659" lon="13.5355331">
<ele>778.40</ele>
<time>2026-08-15T17:16:37.000Z</time>
</trkpt>
<trkpt lat="46.9094307" lon="13.5354242">
<ele>776.24</ele>
<time>2026-08-15T17:16:47.000Z</time>
</trkpt>
<trkpt lat="46.9095940" lon="13.5353087">
<ele>778.71</ele>
<time>2026-08-15T17:17:00.000Z</time>
</trkpt>
<trkpt lat="46.9097750" lon="13.5352013">
<ele>776.90</ele>
<time>2026-08-15T17:17:15.000Z</time>
</trkpt>
<trkpt lat="46.9099467" lon="13.5351086">
<ele>781.93</ele>
<time>2026-08-15T17:17:30.000Z</time>
</trkpt>
<trkpt lat="46.9101031" lon="13.5349414">
<ele>782.48</ele>
<time>2026-08-15T17:17:43.000Z</time>
</trkpt>
<trkpt lat="46.9102123" lon="13.5347054">
<ele>784.20</ele>
<time>2026-08-15T17:17:55.000Z</time>
</trkpt>
<trkpt lat="46.9103180" lon="13.5344867">
<ele>784.20</ele>
<time>2026-08-15T17:18:10.000Z</time>
</trkpt>
<trkpt lat="46.9104238" lon="13.5342499">
<ele>785.47</ele>
<time>2026-08-15T17:18:26.000Z</time>
</trkpt>
<trkpt lat="46.9105296" lon="13.5340332">
<ele>785.89</ele>
<time>2026-08-15T17:18:39.000Z</time>
</trkpt>
<trkpt lat="46.9106893" lon="13.5338908">
<ele>783.78</ele>
<time>2026-08-15T17:19:11.000Z</time>
</trkpt>
<trkpt lat="46.9108652" lon="13.5337861">
<ele>783.50</ele>
<time>2026-08-15T17:19:26.000Z</time>
</trkpt>
<trkpt lat="46.9110421" lon="13.5337213">
<ele>784.12</ele>
<time>2026-08-15T17:19:41.000Z</time>
</trkpt>
<trkpt lat="46.9112222" lon="13.5336900">
<ele>780.76</ele>
<time>2026-08-15T17:19:51.000Z</time>
</trkpt>
<trkpt lat="46.9113776" lon="13.5335561">
<ele>782.44</ele>
<time>2026-08-15T17:20:03.000Z</time>
</trkpt>
<trkpt lat="46.9115576" lon="13.5334757">
<ele>782.29</ele>
<time>2026-08-15T17:20:15.000Z</time>
</trkpt>
<trkpt lat="46.9117369" lon="13.5334208">
<ele>783.35</ele>
<time>2026-08-15T17:20:31.000Z</time>
</trkpt>
<trkpt lat="46.9119100" lon="13.5333435">
<ele>787.06</ele>
<time>2026-08-15T17:20:46.000Z</time>
</trkpt>
<trkpt lat="46.9120875" lon="13.5334572">
<ele>786.51</ele>
<time>2026-08-15T17:20:58.000Z</time>
</trkpt>
<trkpt lat="46.9122680" lon="13.5334181">
<ele>786.54</ele>
<time>2026-08-15T17:21:17.000Z</time>
</trkpt>
<trkpt lat="46.9124500" lon="13.5334651">
<ele>790.00</ele>
<time>2026-08-15T17:21:59.000Z</time>
</trkpt>
<trkpt lat="46.9122698" lon="13.5334865">
<ele>787.67</ele>
<time>2026-08-15T17:24:19.000Z</time>
</trkpt>
<trkpt lat="46.9120955" lon="13.5335850">
<ele>782.28</ele>
<time>2026-08-15T17:24:30.000Z</time>
</trkpt>
<trkpt lat="46.9119357" lon="13.5334391">
<ele>784.15</ele>
<time>2026-08-15T17:24:44.000Z</time>
</trkpt>
<trkpt lat="46.9117531" lon="13.5334571">
<ele>784.88</ele>
<time>2026-08-15T17:24:59.000Z</time>
</trkpt>
<trkpt lat="46.9115743" lon="13.5334953">
<ele>784.52</ele>
<time>2026-08-15T17:25:17.000Z</time>
</trkpt>
<trkpt lat="46.9114042" lon="13.5335916">
<ele>784.24</ele>
<time>2026-08-15T17:25:32.000Z</time>
</trkpt>
<trkpt lat="46.9112455" lon="13.5337203">
<ele>783.80</ele>
<time>2026-08-15T17:25:46.000Z</time>
</trkpt>
<trkpt lat="46.9110643" lon="13.5337556">
<ele>785.28</ele>
<time>2026-08-15T17:25:57.000Z</time>
</trkpt>
<trkpt lat="46.9108816" lon="13.5337960">
<ele>782.61</ele>
<time>2026-08-15T17:26:14.000Z</time>
</trkpt>
<trkpt lat="46.9107143" lon="13.5339095">
<ele>784.00</ele>
<time>2026-08-15T17:26:28.000Z</time>
</trkpt>
<trkpt lat="46.9105370" lon="13.5340219">
<ele>784.70</ele>
<time>2026-08-15T17:26:44.000Z</time>
</trkpt>
<trkpt lat="46.9103972" lon="13.5342143">
<ele>786.07</ele>
<time>2026-08-15T17:26:56.000Z</time>
</trkpt>
<trkpt lat="46.9102888" lon="13.5344300">
<ele>786.32</ele>
<time>2026-08-15T17:27:10.000Z</time>
</trkpt>
<trkpt lat="46.9101694" lon="13.5346609">
<ele>786.08</ele>
<time>2026-08-15T17:27:25.000Z</time>
</trkpt>
<trkpt lat="46.9100776" lon="13.5348924">
<ele>790.09</ele>
<time>2026-08-15T17:27:36.000Z</time>
</trkpt>
<trkpt lat="46.9099409" lon="13.5350967">
<ele>788.04</ele>
<time>2026-08-15T17:27:53.000Z</time>
</trkpt>
<trkpt lat="46.9097821" lon="13.5352387">
<ele>784.85</ele>
<time>2026-08-15T17:28:09.000Z</time>
</trkpt>
<trkpt lat="46.9096109" lon="13.5353246">
<ele>780.66</ele>
<time>2026-08-15T17:28:23.000Z</time>
</trkpt>
<trkpt lat="46.9094314" lon="13.5354226">
<ele>780.51</ele>
<time>2026-08-15T17:28:35.000Z</time>
</trkpt>
<trkpt lat="46.9092758" lon="13.5355603">
<ele>776.69</ele>
<time>2026-08-15T17:28:49.000Z</time>
</trkpt>
<trkpt lat="46.9091096" lon="13.5356696">
<ele>774.14</ele>
<time>2026-08-15T17:29:02.000Z</time>
</trkpt>
<trkpt lat="46.9089553" lon="13.5358366">
<ele>776.50</ele>
<time>2026-08-15T17:29:17.000Z</time>
</trkpt>
<trkpt lat="46.9089372" lon="13.5360992">
<ele>774.76</ele>
<time>2026-08-15T17:31:05.000Z</time>
</trkpt>
<trkpt lat="46.9087877" lon="13.5362477">
<ele>770.70</ele>
<time>2026-08-15T17:31:22.000Z</time>
</trkpt>
<trkpt lat="46.9086243" lon="13.5363699">
<ele>767.51</ele>
<time>2026-08-15T17:31:37.000Z</time>
</trkpt>
<trkpt lat="46.9085298" lon="13.5361414">
<ele>775.57</ele>
<time>2026-08-15T17:32:14.000Z</time>
</trkpt>
<trkpt lat="46.9084745" lon="13.5364002">
<ele>768.86</ele>
<time>2026-08-15T17:32:54.000Z</time>
</trkpt>
<trkpt lat="46.9083483" lon="13.5366126">
<ele>768.19</ele>
<time>2026-08-15T17:33:08.000Z</time>
</trkpt>
<trkpt lat="46.9082208" lon="13.5368143">
<ele>766.12</ele>
<time>2026-08-15T17:33:22.000Z</time>
</trkpt>
<trkpt lat="46.9080762" lon="13.5369768">
<ele>758.74</ele>
<time>2026-08-15T17:33:55.000Z</time>
</trkpt>
<trkpt lat="46.9079174" lon="13.5371128">
<ele>755.38</ele>
<time>2026-08-15T17:34:09.000Z</time>
</trkpt>
<trkpt lat="46.9077527" lon="13.5372231">
<ele>751.07</ele>
<time>2026-08-15T17:34:32.000Z</time>
</trkpt>
<trkpt lat="46.9075881" lon="13.5373346">
<ele>751.40</ele>
<time>2026-08-15T17:34:44.000Z</time>
</trkpt>
<trkpt lat="46.9074103" lon="13.5373785">
<ele>749.04</ele>
<time>2026-08-15T17:35:02.000Z</time>
</trkpt>
<trkpt lat="46.9073089" lon="13.5371480">
<ele>757.99</ele>
<time>2026-08-15T17:35:43.000Z</time>
</trkpt>
<trkpt lat="46.9072998" lon="13.5368791">
<ele>765.73</ele>
<time>2026-08-15T17:36:07.000Z</time>
</trkpt>
<trkpt lat="46.9071372" lon="13.5367409">
<ele>756.34</ele>
<time>2026-08-15T17:36:26.000Z</time>
</trkpt>
<trkpt lat="46.9073057" lon="13.5366241">
<ele>755.79</ele>
<time>2026-08-15T17:36:57.000Z</time>
</trkpt>
<trkpt lat="46.9072538" lon="13.5363641">
<ele>758.06</ele>
<time>2026-08-15T17:37:17.000Z</time>
</trkpt>
<trkpt lat="46.9072673" lon="13.5360896">
<ele>756.59</ele>
<time>2026-08-15T17:37:31.000Z</time>
</trkpt>
<trkpt lat="46.9071802" lon="13.5358423">
<ele>753.82</ele>
<time>2026-08-15T17:37:47.000Z</time>
</trkpt>
<trkpt lat="46.9070589" lon="13.5356369">
<ele>753.65</ele>
<time>2026-08-15T17:38:09.000Z</time>
</trkpt>
<trkpt lat="46.9069669" lon="13.5353977">
<ele>752.89</ele>
<time>2026-08-15T17:38:26.000Z</time>
</trkpt>
<trkpt lat="46.9068670" lon="13.5351593">
<ele>751.11</ele>
<time>2026-08-15T17:38:45.000Z</time>
</trkpt>
<trkpt lat="46.9067191" lon="13.5349904">
<ele>752.12</ele>
<time>2026-08-15T17:39:02.000Z</time>
</trkpt>
<trkpt lat="46.9066140" lon="13.5347768">
<ele>752.49</ele>
<time>2026-08-15T17:39:18.000Z</time>
</trkpt>
<trkpt lat="46.9065279" lon="13.5345419">
<ele>748.35</ele>
<time>2026-08-15T17:39:36.000Z</time>
</trkpt>
<trkpt lat="46.9066876" lon="13.5344095">
<ele>750.23</ele>
<time>2026-08-15T17:39:53.000Z</time>
</trkpt>
<trkpt lat="46.9068343" lon="13.5345832">
<ele>748.87</ele>
<time>2026-08-15T17:40:11.000Z</time>
</trkpt>
<trkpt lat="46.9069323" lon="13.5348134">
<ele>747.37</ele>
<time>2026-08-15T17:40:29.000Z</time>
</trkpt>
<trkpt lat="46.9070733" lon="13.5349789">
<ele>748.52</ele>
<time>2026-08-15T17:40:52.000Z</time>
</trkpt>
<trkpt lat="46.9071815" lon="13.5351923">
<ele>746.90</ele>
<time>2026-08-15T17:41:29.000Z</time>
</trkpt>
<trkpt lat="46.9072812" lon="13.5354302">
<ele>748.02</ele>
<time>2026-08-15T17:42:20.000Z</time>
</trkpt>
<trkpt lat="46.9074044" lon="13.5356360">
<ele>747.90</ele>
<time>2026-08-15T17:42:39.000Z</time>
</trkpt>
<trkpt lat="46.9075579" lon="13.5358022">
<ele>750.55</ele>
<time>2026-08-15T17:42:54.000Z</time>
</trkpt>
<trkpt lat="46.9076247" lon="13.5360552">
<ele>749.45</ele>
<time>2026-08-15T17:43:15.000Z</time>
</trkpt>
<trkpt lat="46.9077138" lon="13.5362908">
<ele>751.05</ele>
<time>2026-08-15T17:43:32.000Z</time>
</trkpt>
<trkpt lat="46.9078704" lon="13.5364434">
<ele>751.30</ele>
<time>2026-08-15T17:44:15.000Z</time>
</trkpt>
<trkpt lat="46.9080492" lon="13.5364124">
<ele>756.19</ele>
<time>2026-08-15T17:44:37.000Z</time>
</trkpt>
<trkpt lat="46.9081297" lon="13.5361623">
<ele>757.08</ele>
<time>2026-08-15T17:45:00.000Z</time>
</trkpt>
<trkpt lat="46.9081102" lon="13.5358885">
<ele>751.38</ele>
<time>2026-08-15T17:45:10.000Z</time>
</trkpt>
<trkpt lat="46.9080831" lon="13.5356226">
<ele>749.54</ele>
<time>2026-08-15T17:45:25.000Z</time>
</trkpt>
<trkpt lat="46.9079708" lon="13.5354061">
<ele>746.42</ele>
<time>2026-08-15T17:46:00.000Z</time>
</trkpt>
<trkpt lat="46.9078467" lon="13.5352062">
<ele>745.37</ele>
<time>2026-08-15T17:46:16.000Z</time>
</trkpt>
<trkpt lat="46.9076927" lon="13.5350392">
<ele>744.26</ele>
<time>2026-08-15T17:46:55.000Z</time>
</trkpt>
<trkpt lat="46.9075652" lon="13.5348400">
<ele>742.91</ele>
<time>2026-08-15T17:47:10.000Z</time>
</trkpt>
<trkpt lat="46.9076717" lon="13.5346254">
<ele>738.90</ele>
<time>2026-08-15T17:47:49.000Z</time>
</trkpt>
<trkpt lat="46.9075987" lon="13.5343837">
<ele>739.28</ele>
<time>2026-08-15T17:48:55.000Z</time>
</trkpt>
<trkpt lat="46.9074250" lon="13.5344544">
<ele>745.34</ele>
<time>2026-08-15T17:49:56.000Z</time>
</trkpt>
<trkpt lat="46.9073086" lon="13.5342467">
<ele>739.94</ele>
<time>2026-08-15T17:50:51.000Z</time>
</trkpt>
<trkpt lat="46.9073663" lon="13.5339835">
<ele>744.43</ele>
<time>2026-08-15T17:51:16.000Z</time>
</trkpt>
<trkpt lat="46.9075299" lon="13.5338674">
<ele>744.21</ele>
<time>2026-08-15T17:51:35.000Z</time>
</trkpt>
<trkpt lat="46.9074718" lon="13.5336135">
<ele>745.85</ele>
<time>2026-08-15T17:51:58.000Z</time>
</trkpt>
<trkpt lat="46.9074012" lon="13.5333569">
<ele>742.32</ele>
<time>2026-08-15T17:52:14.000Z</time>
</trkpt>
<trkpt lat="46.9075710" lon="13.5332617">
<ele>740.36</ele>
<time>2026-08-15T17:52:54.000Z</time>
</trkpt>
<trkpt lat="46.9076893" lon="13.5334611">
<ele>736.69</ele>
<time>2026-08-15T17:53:14.000Z</time>
</trkpt>
<trkpt lat="46.9078218" lon="13.5336531">
<ele>737.31</ele>
<time>2026-08-15T17:53:31.000Z</time>
</trkpt>
<trkpt lat="46.9079456" lon="13.5338564">
<ele>736.44</ele>
<time>2026-08-15T17:53:45.000Z</time>
</trkpt>
<trkpt lat="46.9080741" lon="13.5340800">
<ele>738.35</ele>
<time>2026-08-15T17:53:58.000Z</time>
</trkpt>
<trkpt lat="46.9081952" lon="13.5342915">
<ele>732.43</ele>
<time>2026-08-15T17:54:14.000Z</time>
</trkpt>
<trkpt lat="46.9083849" lon="13.5342966">
<ele>735.34</ele>
<time>2026-08-15T17:54:30.000Z</time>
</trkpt>
<extensions>
<om:oruxmapsextensions>
<om:ext type="NAME" subtype="0"><![CDATA[Segment: 1]]></om:ext>
</om:oruxmapsextensions>
</extensions>
</trkseg>
</trk>
</gpx>
