<?xml version="1.0" encoding="UTF-8" standalone="no" ?>
<gpx xmlns="http://www.topografix.com/GPX/1/1" creator="OruxMaps v.10.7.4 GP" version="1.1" xmlns:gpxtpx="http://www.garmin.com/xmlschemas/TrackPointExtension/v2" xmlns:xsi="http://www.w3.org/2001/XMLSchema-instance" xmlns:om="http://www.oruxmaps.com/oruxmapsextensions/1/0" xsi:schemaLocation="http://www.topografix.com/GPX/1/1 http://www.topografix.com/GPX/1/1/gpx.xsd">
<!-- owner: e57cf051988575 -->
<metadata>
<name><![CDATA[2026-07-12 05:56:22 Ablanca - VDV - MDV - Viševnik]]></name>
<link href="https://www.oruxmaps.com">
<text>OruxMaps GP</text>
</link>
<time>2026-07-12T03:56:22.790Z</time><bounds maxlat="46.3635097" maxlon="13.9249866" minlat="46.3324041" minlon="13.8755884"/>
</metadata>
<wpt lat="46.3475636" lon="13.9249866">
<ele>1360.84</ele>
<time>2026-07-12T03:56:23.617Z</time>
<name><![CDATA[]]></name>
<sym>Waypoint</sym>
<type>Starting Point</type>
<extensions>
<om:oruxmapsextensions>
<om:ext type="ICON" subtype="0">38</om:ext>
</om:oruxmapsextensions>
</extensions>
</wpt>
<wpt lat="46.3476396" lon="13.9247646">
<ele>1345.00</ele>
<time>2026-07-12T09:55:05.419Z</time>
<name><![CDATA[]]></name>
<desc><![CDATA[<p><br /><h3>Name: Segment: 1</h3><br />Type: Hiking<br/>Start time: 05:56 12 Jul 2026<br/>Finish time: 11:55 12 Jul 2026<br/>Distance: 16.3km (05:58)<br/>Moving time: 04:46<br/>Average speed: 2.72 km/h<br/>Speed in Movement: 3.40 km/h<br/>Maximum Speed: 10.69 km/h<br/>Minimum altitude: 1309 m<br/>Maximum altitude: 2239 m<br/>Ascent speed: 573.0 m/h<br/>Descent speed: 741.1 m/h<br/>Elevation gain: 1514 m<br/>Elevation loss: 1536 m<br/>Ascent time: 02:38<br/>Descent time: 02:04<br/></p>]]></desc>
<sym>Waypoint</sym>
<type>Finishing Point</type>
<extensions>
<om:oruxmapsextensions>
<om:ext type="ICON" subtype="0">15</om:ext>
</om:oruxmapsextensions>
</extensions>
</wpt>
<trk>
<name><![CDATA[2026-07-12 05:56:22 Ablanca - VDV - MDV - Viševnik]]></name>
<desc><![CDATA[<p>Type: Hiking<br/>Start time: 05:56 12 Jul 2026<br/>Finish time: 11:55 12 Jul 2026<br/>Distance: 16.3 km (05:58)<br/>Moving time: 04:46<br/>Average speed: 2.72 km/h<br/>Speed in Movement: 3.40 km/h<br/>Maximum Speed: 10.69 km/h<br/>Minimum altitude: 1309 m<br/>Maximum altitude: 2239 m<br/>Ascent speed: 573.0 m/h<br/>Descent speed: 741.1 m/h<br/>Elevation gain: 1514 m<br/>Elevation loss: 1536 m<br/>Ascent time: 02:38<br/>Descent time: 02:04<br/></p><hr align="center" width="480" style="height: 2px; width: 517px"/>]]></desc>
<type>Hiking</type>
<extensions>
<om:oruxmapsextensions>
<om:ext type="TYPE" subtype="0">5</om:ext>
<om:ext type="DIFFICULTY">0</om:ext>
</om:oruxmapsextensions>
</extensions>
<trkseg>
<trkpt lat="46.3475636" lon="13.9249866">
<ele>1360.84</ele>
<time>2026-07-12T03:56:23.835Z</time>
</trkpt>
<trkpt lat="46.3476569" lon="13.9247614">
<ele>1347.85</ele>
<time>2026-07-12T03:56:38.000Z</time>
</trkpt>
<trkpt lat="46.3474990" lon="13.9246113">
<ele>1349.81</ele>
<time>2026-07-12T03:58:23.000Z</time>
</trkpt>
<trkpt lat="46.3473065" lon="13.9245283">
<ele>1345.30</ele>
<time>2026-07-12T03:58:34.000Z</time>
</trkpt>
<trkpt lat="46.3471477" lon="13.9243983">
<ele>1343.61</ele>
<time>2026-07-12T03:58:44.000Z</time>
</trkpt>
<trkpt lat="46.3469808" lon="13.9242779">
<ele>1349.60</ele>
<time>2026-07-12T03:58:54.000Z</time>
</trkpt>
<trkpt lat="46.3468200" lon="13.9241194">
<ele>1345.66</ele>
<time>2026-07-12T03:59:06.000Z</time>
</trkpt>
<trkpt lat="46.3466705" lon="13.9239560">
<ele>1345.71</ele>
<time>2026-07-12T03:59:19.000Z</time>
</trkpt>
<trkpt lat="46.3465057" lon="13.9238422">
<ele>1348.86</ele>
<time>2026-07-12T03:59:28.000Z</time>
</trkpt>
<trkpt lat="46.3463386" lon="13.9237401">
<ele>1347.57</ele>
<time>2026-07-12T03:59:38.000Z</time>
</trkpt>
<trkpt lat="46.3461789" lon="13.9236060">
<ele>1347.88</ele>
<time>2026-07-12T03:59:51.000Z</time>
</trkpt>
<trkpt lat="46.3459964" lon="13.9234950">
<ele>1346.05</ele>
<time>2026-07-12T04:00:01.000Z</time>
</trkpt>
<trkpt lat="46.3458369" lon="13.9233589">
<ele>1344.73</ele>
<time>2026-07-12T04:00:11.000Z</time>
</trkpt>
<trkpt lat="46.3456731" lon="13.9232325">
<ele>1343.88</ele>
<time>2026-07-12T04:00:22.000Z</time>
</trkpt>
<trkpt lat="46.3455047" lon="13.9231289">
<ele>1346.68</ele>
<time>2026-07-12T04:00:37.000Z</time>
</trkpt>
<trkpt lat="46.3453249" lon="13.9230543">
<ele>1344.20</ele>
<time>2026-07-12T04:00:48.000Z</time>
</trkpt>
<trkpt lat="46.3451529" lon="13.9229553">
<ele>1343.26</ele>
<time>2026-07-12T04:00:57.000Z</time>
</trkpt>
<trkpt lat="46.3449689" lon="13.9228511">
<ele>1344.00</ele>
<time>2026-07-12T04:01:06.000Z</time>
</trkpt>
<trkpt lat="46.3447959" lon="13.9227664">
<ele>1342.04</ele>
<time>2026-07-12T04:01:16.000Z</time>
</trkpt>
<trkpt lat="46.3446064" lon="13.9227079">
<ele>1340.69</ele>
<time>2026-07-12T04:01:39.000Z</time>
</trkpt>
<trkpt lat="46.3444140" lon="13.9227037">
<ele>1337.41</ele>
<time>2026-07-12T04:01:50.000Z</time>
</trkpt>
<trkpt lat="46.3442239" lon="13.9226557">
<ele>1339.95</ele>
<time>2026-07-12T04:02:01.000Z</time>
</trkpt>
<trkpt lat="46.3440365" lon="13.9225628">
<ele>1338.85</ele>
<time>2026-07-12T04:02:12.000Z</time>
</trkpt>
<trkpt lat="46.3438660" lon="13.9224547">
<ele>1340.18</ele>
<time>2026-07-12T04:02:21.000Z</time>
</trkpt>
<trkpt lat="46.3436927" lon="13.9223410">
<ele>1338.42</ele>
<time>2026-07-12T04:02:32.000Z</time>
</trkpt>
<trkpt lat="46.3435179" lon="13.9222491">
<ele>1337.37</ele>
<time>2026-07-12T04:02:42.000Z</time>
</trkpt>
<trkpt lat="46.3433513" lon="13.9221426">
<ele>1336.65</ele>
<time>2026-07-12T04:02:54.000Z</time>
</trkpt>
<trkpt lat="46.3431881" lon="13.9220324">
<ele>1341.82</ele>
<time>2026-07-12T04:03:04.000Z</time>
</trkpt>
<trkpt lat="46.3430225" lon="13.9219143">
<ele>1341.76</ele>
<time>2026-07-12T04:03:16.000Z</time>
</trkpt>
<trkpt lat="46.3428476" lon="13.9218386">
<ele>1340.18</ele>
<time>2026-07-12T04:03:26.000Z</time>
</trkpt>
<trkpt lat="46.3426700" lon="13.9217296">
<ele>1340.84</ele>
<time>2026-07-12T04:03:37.000Z</time>
</trkpt>
<trkpt lat="46.3424860" lon="13.9217058">
<ele>1338.44</ele>
<time>2026-07-12T04:03:47.000Z</time>
</trkpt>
<trkpt lat="46.3423115" lon="13.9216240">
<ele>1341.90</ele>
<time>2026-07-12T04:03:56.000Z</time>
</trkpt>
<trkpt lat="46.3421401" lon="13.9215195">
<ele>1340.75</ele>
<time>2026-07-12T04:04:08.000Z</time>
</trkpt>
<trkpt lat="46.3419701" lon="13.9214121">
<ele>1347.39</ele>
<time>2026-07-12T04:04:16.000Z</time>
</trkpt>
<trkpt lat="46.3417881" lon="13.9213334">
<ele>1350.73</ele>
<time>2026-07-12T04:04:27.000Z</time>
</trkpt>
<trkpt lat="46.3416211" lon="13.9212344">
<ele>1354.46</ele>
<time>2026-07-12T04:04:36.000Z</time>
</trkpt>
<trkpt lat="46.3414479" lon="13.9211034">
<ele>1358.34</ele>
<time>2026-07-12T04:04:49.000Z</time>
</trkpt>
<trkpt lat="46.3412691" lon="13.9210250">
<ele>1354.56</ele>
<time>2026-07-12T04:04:59.000Z</time>
</trkpt>
<trkpt lat="46.3410937" lon="13.9208837">
<ele>1350.15</ele>
<time>2026-07-12T04:05:09.000Z</time>
</trkpt>
<trkpt lat="46.3409280" lon="13.9207398">
<ele>1351.88</ele>
<time>2026-07-12T04:05:20.000Z</time>
</trkpt>
<trkpt lat="46.3407467" lon="13.9206380">
<ele>1346.34</ele>
<time>2026-07-12T04:05:31.000Z</time>
</trkpt>
<trkpt lat="46.3405722" lon="13.9205184">
<ele>1349.23</ele>
<time>2026-07-12T04:05:44.000Z</time>
</trkpt>
<trkpt lat="46.3404036" lon="13.9204197">
<ele>1352.31</ele>
<time>2026-07-12T04:05:53.000Z</time>
</trkpt>
<trkpt lat="46.3402540" lon="13.9202720">
<ele>1354.18</ele>
<time>2026-07-12T04:06:07.000Z</time>
</trkpt>
<trkpt lat="46.3400658" lon="13.9201925">
<ele>1357.66</ele>
<time>2026-07-12T04:06:17.000Z</time>
</trkpt>
<trkpt lat="46.3398847" lon="13.9200865">
<ele>1360.03</ele>
<time>2026-07-12T04:06:27.000Z</time>
</trkpt>
<trkpt lat="46.3396916" lon="13.9200148">
<ele>1357.28</ele>
<time>2026-07-12T04:06:38.000Z</time>
</trkpt>
<trkpt lat="46.3395160" lon="13.9199379">
<ele>1359.93</ele>
<time>2026-07-12T04:06:47.000Z</time>
</trkpt>
<trkpt lat="46.3393393" lon="13.9198624">
<ele>1368.69</ele>
<time>2026-07-12T04:06:57.000Z</time>
</trkpt>
<trkpt lat="46.3391589" lon="13.9197595">
<ele>1370.30</ele>
<time>2026-07-12T04:07:09.000Z</time>
</trkpt>
<trkpt lat="46.3389889" lon="13.9196718">
<ele>1367.72</ele>
<time>2026-07-12T04:07:19.000Z</time>
</trkpt>
<trkpt lat="46.3388051" lon="13.9196650">
<ele>1364.44</ele>
<time>2026-07-12T04:07:31.000Z</time>
</trkpt>
<trkpt lat="46.3386405" lon="13.9195378">
<ele>1364.91</ele>
<time>2026-07-12T04:07:41.000Z</time>
</trkpt>
<trkpt lat="46.3384793" lon="13.9193804">
<ele>1364.54</ele>
<time>2026-07-12T04:07:52.000Z</time>
</trkpt>
<trkpt lat="46.3383040" lon="13.9193060">
<ele>1365.35</ele>
<time>2026-07-12T04:08:01.000Z</time>
</trkpt>
<trkpt lat="46.3381304" lon="13.9192058">
<ele>1353.99</ele>
<time>2026-07-12T04:08:14.000Z</time>
</trkpt>
<trkpt lat="46.3380526" lon="13.9189704">
<ele>1350.96</ele>
<time>2026-07-12T04:08:26.000Z</time>
</trkpt>
<trkpt lat="46.3379385" lon="13.9187658">
<ele>1353.38</ele>
<time>2026-07-12T04:08:38.000Z</time>
</trkpt>
<trkpt lat="46.3377443" lon="13.9186844">
<ele>1352.03</ele>
<time>2026-07-12T04:08:49.000Z</time>
</trkpt>
<trkpt lat="46.3375681" lon="13.9186269">
<ele>1351.55</ele>
<time>2026-07-12T04:08:57.000Z</time>
</trkpt>
<trkpt lat="46.3373821" lon="13.9185910">
<ele>1349.18</ele>
<time>2026-07-12T04:09:08.000Z</time>
</trkpt>
<trkpt lat="46.3372027" lon="13.9185208">
<ele>1345.31</ele>
<time>2026-07-12T04:09:19.000Z</time>
</trkpt>
<trkpt lat="46.3370538" lon="13.9183530">
<ele>1339.38</ele>
<time>2026-07-12T04:09:29.000Z</time>
</trkpt>
<trkpt lat="46.3368935" lon="13.9182287">
<ele>1335.49</ele>
<time>2026-07-12T04:09:39.000Z</time>
</trkpt>
<trkpt lat="46.3367654" lon="13.9180406">
<ele>1333.14</ele>
<time>2026-07-12T04:09:49.000Z</time>
</trkpt>
<trkpt lat="46.3365973" lon="13.9178885">
<ele>1335.04</ele>
<time>2026-07-12T04:10:00.000Z</time>
</trkpt>
<trkpt lat="46.3364385" lon="13.9177236">
<ele>1332.23</ele>
<time>2026-07-12T04:10:11.000Z</time>
</trkpt>
<trkpt lat="46.3362713" lon="13.9175981">
<ele>1335.01</ele>
<time>2026-07-12T04:10:22.000Z</time>
</trkpt>
<trkpt lat="46.3360845" lon="13.9175227">
<ele>1338.64</ele>
<time>2026-07-12T04:10:32.000Z</time>
</trkpt>
<trkpt lat="46.3359059" lon="13.9174336">
<ele>1339.88</ele>
<time>2026-07-12T04:10:42.000Z</time>
</trkpt>
<trkpt lat="46.3357532" lon="13.9172857">
<ele>1338.17</ele>
<time>2026-07-12T04:10:52.000Z</time>
</trkpt>
<trkpt lat="46.3355867" lon="13.9171432">
<ele>1339.51</ele>
<time>2026-07-12T04:11:03.000Z</time>
</trkpt>
<trkpt lat="46.3354198" lon="13.9170373">
<ele>1331.31</ele>
<time>2026-07-12T04:11:14.000Z</time>
</trkpt>
<trkpt lat="46.3352382" lon="13.9169841">
<ele>1328.04</ele>
<time>2026-07-12T04:11:24.000Z</time>
</trkpt>
<trkpt lat="46.3350579" lon="13.9170212">
<ele>1327.99</ele>
<time>2026-07-12T04:11:34.000Z</time>
</trkpt>
<trkpt lat="46.3348708" lon="13.9170576">
<ele>1327.41</ele>
<time>2026-07-12T04:11:45.000Z</time>
</trkpt>
<trkpt lat="46.3346814" lon="13.9169318">
<ele>1333.99</ele>
<time>2026-07-12T04:11:54.000Z</time>
</trkpt>
<trkpt lat="46.3345017" lon="13.9168593">
<ele>1335.82</ele>
<time>2026-07-12T04:12:05.000Z</time>
</trkpt>
<trkpt lat="46.3343074" lon="13.9168046">
<ele>1332.04</ele>
<time>2026-07-12T04:12:16.000Z</time>
</trkpt>
<trkpt lat="46.3341268" lon="13.9167424">
<ele>1334.81</ele>
<time>2026-07-12T04:12:28.000Z</time>
</trkpt>
<trkpt lat="46.3339695" lon="13.9166113">
<ele>1331.50</ele>
<time>2026-07-12T04:12:37.000Z</time>
</trkpt>
<trkpt lat="46.3338162" lon="13.9164668">
<ele>1332.01</ele>
<time>2026-07-12T04:12:46.000Z</time>
</trkpt>
<trkpt lat="46.3336535" lon="13.9163553">
<ele>1327.24</ele>
<time>2026-07-12T04:12:57.000Z</time>
</trkpt>
<trkpt lat="46.3334956" lon="13.9162060">
<ele>1322.14</ele>
<time>2026-07-12T04:13:07.000Z</time>
</trkpt>
<trkpt lat="46.3333361" lon="13.9160653">
<ele>1320.00</ele>
<time>2026-07-12T04:13:19.000Z</time>
</trkpt>
<trkpt lat="46.3331895" lon="13.9159004">
<ele>1324.64</ele>
<time>2026-07-12T04:13:28.000Z</time>
</trkpt>
<trkpt lat="46.3330862" lon="13.9156683">
<ele>1322.67</ele>
<time>2026-07-12T04:13:39.000Z</time>
</trkpt>
<trkpt lat="46.3330488" lon="13.9154131">
<ele>1324.16</ele>
<time>2026-07-12T04:13:48.000Z</time>
</trkpt>
<trkpt lat="46.3330025" lon="13.9151552">
<ele>1324.06</ele>
<time>2026-07-12T04:13:57.000Z</time>
</trkpt>
<trkpt lat="46.3329595" lon="13.9148916">
<ele>1324.92</ele>
<time>2026-07-12T04:14:08.000Z</time>
</trkpt>
<trkpt lat="46.3328920" lon="13.9146232">
<ele>1326.73</ele>
<time>2026-07-12T04:14:20.000Z</time>
</trkpt>
<trkpt lat="46.3328419" lon="13.9143518">
<ele>1326.32</ele>
<time>2026-07-12T04:14:31.000Z</time>
</trkpt>
<trkpt lat="46.3327850" lon="13.9140882">
<ele>1326.41</ele>
<time>2026-07-12T04:14:42.000Z</time>
</trkpt>
<trkpt lat="46.3327234" lon="13.9138312">
<ele>1323.53</ele>
<time>2026-07-12T04:14:52.000Z</time>
</trkpt>
<trkpt lat="46.3326665" lon="13.9135688">
<ele>1324.28</ele>
<time>2026-07-12T04:15:02.000Z</time>
</trkpt>
<trkpt lat="46.3325955" lon="13.9133166">
<ele>1320.20</ele>
<time>2026-07-12T04:15:12.000Z</time>
</trkpt>
<trkpt lat="46.3325179" lon="13.9130727">
<ele>1318.75</ele>
<time>2026-07-12T04:15:22.000Z</time>
</trkpt>
<trkpt lat="46.3324367" lon="13.9128314">
<ele>1314.14</ele>
<time>2026-07-12T04:15:33.000Z</time>
</trkpt>
<trkpt lat="46.3324041" lon="13.9125548">
<ele>1317.14</ele>
<time>2026-07-12T04:15:43.000Z</time>
</trkpt>
<trkpt lat="46.3324049" lon="13.9122852">
<ele>1320.21</ele>
<time>2026-07-12T04:15:54.000Z</time>
</trkpt>
<trkpt lat="46.3324415" lon="13.9120071">
<ele>1322.19</ele>
<time>2026-07-12T04:16:04.000Z</time>
</trkpt>
<trkpt lat="46.3324724" lon="13.9117301">
<ele>1326.26</ele>
<time>2026-07-12T04:16:14.000Z</time>
</trkpt>
<trkpt lat="46.3325968" lon="13.9115086">
<ele>1320.17</ele>
<time>2026-07-12T04:16:26.000Z</time>
</trkpt>
<trkpt lat="46.3327191" lon="13.9112903">
<ele>1320.71</ele>
<time>2026-07-12T04:16:37.000Z</time>
</trkpt>
<trkpt lat="46.3326931" lon="13.9110274">
<ele>1318.86</ele>
<time>2026-07-12T04:16:47.000Z</time>
</trkpt>
<trkpt lat="46.3326224" lon="13.9107854">
<ele>1316.01</ele>
<time>2026-07-12T04:16:57.000Z</time>
</trkpt>
<trkpt lat="46.3325221" lon="13.9105537">
<ele>1320.17</ele>
<time>2026-07-12T04:17:07.000Z</time>
</trkpt>
<trkpt lat="46.3325222" lon="13.9102932">
<ele>1321.85</ele>
<time>2026-07-12T04:17:17.000Z</time>
</trkpt>
<trkpt lat="46.3326458" lon="13.9100727">
<ele>1321.60</ele>
<time>2026-07-12T04:17:28.000Z</time>
</trkpt>
<trkpt lat="46.3327829" lon="13.9098935">
<ele>1319.72</ele>
<time>2026-07-12T04:17:37.000Z</time>
</trkpt>
<trkpt lat="46.3328499" lon="13.9096402">
<ele>1319.51</ele>
<time>2026-07-12T04:17:48.000Z</time>
</trkpt>
<trkpt lat="46.3329255" lon="13.9094005">
<ele>1321.50</ele>
<time>2026-07-12T04:17:58.000Z</time>
</trkpt>
<trkpt lat="46.3329199" lon="13.9091280">
<ele>1321.55</ele>
<time>2026-07-12T04:18:07.000Z</time>
</trkpt>
<trkpt lat="46.3328587" lon="13.9088657">
<ele>1324.14</ele>
<time>2026-07-12T04:18:17.000Z</time>
</trkpt>
<trkpt lat="46.3328595" lon="13.9085810">
<ele>1320.99</ele>
<time>2026-07-12T04:18:28.000Z</time>
</trkpt>
<trkpt lat="46.3328714" lon="13.9083195">
<ele>1321.35</ele>
<time>2026-07-12T04:18:36.000Z</time>
</trkpt>
<trkpt lat="46.3328703" lon="13.9080577">
<ele>1319.04</ele>
<time>2026-07-12T04:18:46.000Z</time>
</trkpt>
<trkpt lat="46.3328885" lon="13.9077850">
<ele>1316.95</ele>
<time>2026-07-12T04:18:56.000Z</time>
</trkpt>
<trkpt lat="46.3329343" lon="13.9075286">
<ele>1319.36</ele>
<time>2026-07-12T04:19:07.000Z</time>
</trkpt>
<trkpt lat="46.3330050" lon="13.9072878">
<ele>1320.52</ele>
<time>2026-07-12T04:19:17.000Z</time>
</trkpt>
<trkpt lat="46.3331317" lon="13.9070818">
<ele>1319.26</ele>
<time>2026-07-12T04:19:29.000Z</time>
</trkpt>
<trkpt lat="46.3332753" lon="13.9069167">
<ele>1316.51</ele>
<time>2026-07-12T04:19:41.000Z</time>
</trkpt>
<trkpt lat="46.3334180" lon="13.9067448">
<ele>1314.35</ele>
<time>2026-07-12T04:19:50.000Z</time>
</trkpt>
<trkpt lat="46.3335597" lon="13.9065719">
<ele>1313.46</ele>
<time>2026-07-12T04:20:01.000Z</time>
</trkpt>
<trkpt lat="46.3336988" lon="13.9063798">
<ele>1310.78</ele>
<time>2026-07-12T04:20:13.000Z</time>
</trkpt>
<trkpt lat="46.3338372" lon="13.9062028">
<ele>1313.75</ele>
<time>2026-07-12T04:20:24.000Z</time>
</trkpt>
<trkpt lat="46.3339923" lon="13.9060418">
<ele>1314.40</ele>
<time>2026-07-12T04:20:39.000Z</time>
</trkpt>
<trkpt lat="46.3341599" lon="13.9059350">
<ele>1316.93</ele>
<time>2026-07-12T04:20:53.000Z</time>
</trkpt>
<trkpt lat="46.3343070" lon="13.9057811">
<ele>1313.27</ele>
<time>2026-07-12T04:21:03.000Z</time>
</trkpt>
<trkpt lat="46.3344519" lon="13.9056183">
<ele>1317.72</ele>
<time>2026-07-12T04:21:14.000Z</time>
</trkpt>
<trkpt lat="46.3345925" lon="13.9054514">
<ele>1322.14</ele>
<time>2026-07-12T04:21:26.000Z</time>
</trkpt>
<trkpt lat="46.3347758" lon="13.9053599">
<ele>1321.41</ele>
<time>2026-07-12T04:21:37.000Z</time>
</trkpt>
<trkpt lat="46.3349519" lon="13.9052844">
<ele>1318.91</ele>
<time>2026-07-12T04:21:47.000Z</time>
</trkpt>
<trkpt lat="46.3351279" lon="13.9052025">
<ele>1315.51</ele>
<time>2026-07-12T04:21:57.000Z</time>
</trkpt>
<trkpt lat="46.3352982" lon="13.9051142">
<ele>1318.14</ele>
<time>2026-07-12T04:22:06.000Z</time>
</trkpt>
<trkpt lat="46.3354844" lon="13.9050371">
<ele>1321.81</ele>
<time>2026-07-12T04:22:17.000Z</time>
</trkpt>
<trkpt lat="46.3356568" lon="13.9049379">
<ele>1322.62</ele>
<time>2026-07-12T04:22:27.000Z</time>
</trkpt>
<trkpt lat="46.3358366" lon="13.9048497">
<ele>1319.49</ele>
<time>2026-07-12T04:22:38.000Z</time>
</trkpt>
<trkpt lat="46.3360216" lon="13.9048249">
<ele>1319.14</ele>
<time>2026-07-12T04:22:49.000Z</time>
</trkpt>
<trkpt lat="46.3362066" lon="13.9048040">
<ele>1320.37</ele>
<time>2026-07-12T04:23:01.000Z</time>
</trkpt>
<trkpt lat="46.3363955" lon="13.9047724">
<ele>1314.79</ele>
<time>2026-07-12T04:23:12.000Z</time>
</trkpt>
<trkpt lat="46.3365748" lon="13.9047386">
<ele>1316.43</ele>
<time>2026-07-12T04:23:25.000Z</time>
</trkpt>
<trkpt lat="46.3367632" lon="13.9047183">
<ele>1314.78</ele>
<time>2026-07-12T04:23:34.000Z</time>
</trkpt>
<trkpt lat="46.3369475" lon="13.9047217">
<ele>1316.39</ele>
<time>2026-07-12T04:23:44.000Z</time>
</trkpt>
<trkpt lat="46.3371348" lon="13.9047223">
<ele>1316.17</ele>
<time>2026-07-12T04:23:58.000Z</time>
</trkpt>
<trkpt lat="46.3373159" lon="13.9046548">
<ele>1316.33</ele>
<time>2026-07-12T04:24:08.000Z</time>
</trkpt>
<trkpt lat="46.3375073" lon="13.9045792">
<ele>1317.58</ele>
<time>2026-07-12T04:24:21.000Z</time>
</trkpt>
<trkpt lat="46.3376921" lon="13.9045325">
<ele>1311.14</ele>
<time>2026-07-12T04:24:33.000Z</time>
</trkpt>
<trkpt lat="46.3378815" lon="13.9045344">
<ele>1313.16</ele>
<time>2026-07-12T04:24:42.000Z</time>
</trkpt>
<trkpt lat="46.3380618" lon="13.9045319">
<ele>1316.75</ele>
<time>2026-07-12T04:24:53.000Z</time>
</trkpt>
<trkpt lat="46.3382549" lon="13.9045230">
<ele>1320.26</ele>
<time>2026-07-12T04:25:05.000Z</time>
</trkpt>
<trkpt lat="46.3384374" lon="13.9045678">
<ele>1311.20</ele>
<time>2026-07-12T04:25:21.000Z</time>
</trkpt>
<trkpt lat="46.3386265" lon="13.9045823">
<ele>1316.00</ele>
<time>2026-07-12T04:25:34.000Z</time>
</trkpt>
<trkpt lat="46.3388154" lon="13.9046370">
<ele>1312.49</ele>
<time>2026-07-12T04:25:47.000Z</time>
</trkpt>
<trkpt lat="46.3389857" lon="13.9047570">
<ele>1307.43</ele>
<time>2026-07-12T04:25:58.000Z</time>
</trkpt>
<trkpt lat="46.3391560" lon="13.9048752">
<ele>1309.94</ele>
<time>2026-07-12T04:26:12.000Z</time>
</trkpt>
<trkpt lat="46.3393460" lon="13.9048478">
<ele>1316.91</ele>
<time>2026-07-12T04:26:25.000Z</time>
</trkpt>
<trkpt lat="46.3395303" lon="13.9048649">
<ele>1319.08</ele>
<time>2026-07-12T04:26:39.000Z</time>
</trkpt>
<trkpt lat="46.3396989" lon="13.9049775">
<ele>1324.21</ele>
<time>2026-07-12T04:27:10.000Z</time>
</trkpt>
<trkpt lat="46.3398855" lon="13.9050099">
<ele>1326.38</ele>
<time>2026-07-12T04:27:20.000Z</time>
</trkpt>
<trkpt lat="46.3400686" lon="13.9049675">
<ele>1328.97</ele>
<time>2026-07-12T04:27:38.000Z</time>
</trkpt>
<trkpt lat="46.3402079" lon="13.9047985">
<ele>1330.41</ele>
<time>2026-07-12T04:28:19.000Z</time>
</trkpt>
<trkpt lat="46.3403791" lon="13.9046812">
<ele>1338.58</ele>
<time>2026-07-12T04:28:32.000Z</time>
</trkpt>
<trkpt lat="46.3405501" lon="13.9045755">
<ele>1338.88</ele>
<time>2026-07-12T04:28:50.000Z</time>
</trkpt>
<trkpt lat="46.3407317" lon="13.9046461">
<ele>1343.65</ele>
<time>2026-07-12T04:29:04.000Z</time>
</trkpt>
<trkpt lat="46.3409235" lon="13.9046542">
<ele>1346.15</ele>
<time>2026-07-12T04:29:21.000Z</time>
</trkpt>
<trkpt lat="46.3411121" lon="13.9046233">
<ele>1348.76</ele>
<time>2026-07-12T04:29:37.000Z</time>
</trkpt>
<trkpt lat="46.3412763" lon="13.9045023">
<ele>1358.04</ele>
<time>2026-07-12T04:30:05.000Z</time>
</trkpt>
<trkpt lat="46.3413270" lon="13.9042493">
<ele>1357.07</ele>
<time>2026-07-12T04:30:23.000Z</time>
</trkpt>
<trkpt lat="46.3413313" lon="13.9039788">
<ele>1369.76</ele>
<time>2026-07-12T04:30:46.000Z</time>
</trkpt>
<trkpt lat="46.3412952" lon="13.9037213">
<ele>1377.97</ele>
<time>2026-07-12T04:31:13.000Z</time>
</trkpt>
<trkpt lat="46.3413316" lon="13.9034611">
<ele>1385.41</ele>
<time>2026-07-12T04:31:40.000Z</time>
</trkpt>
<trkpt lat="46.3413642" lon="13.9031981">
<ele>1390.31</ele>
<time>2026-07-12T04:32:04.000Z</time>
</trkpt>
<trkpt lat="46.3414012" lon="13.9029380">
<ele>1402.69</ele>
<time>2026-07-12T04:32:30.000Z</time>
</trkpt>
<trkpt lat="46.3414649" lon="13.9026853">
<ele>1406.70</ele>
<time>2026-07-12T04:33:06.000Z</time>
</trkpt>
<trkpt lat="46.3414560" lon="13.9024229">
<ele>1417.13</ele>
<time>2026-07-12T04:33:42.000Z</time>
</trkpt>
<trkpt lat="46.3413632" lon="13.9021794">
<ele>1416.33</ele>
<time>2026-07-12T04:34:25.000Z</time>
</trkpt>
<trkpt lat="46.3413387" lon="13.9019061">
<ele>1417.05</ele>
<time>2026-07-12T04:34:38.000Z</time>
</trkpt>
<trkpt lat="46.3412776" lon="13.9016596">
<ele>1416.85</ele>
<time>2026-07-12T04:34:54.000Z</time>
</trkpt>
<trkpt lat="46.3411740" lon="13.9014401">
<ele>1415.24</ele>
<time>2026-07-12T04:35:05.000Z</time>
</trkpt>
<trkpt lat="46.3410256" lon="13.9012800">
<ele>1421.78</ele>
<time>2026-07-12T04:35:21.000Z</time>
</trkpt>
<trkpt lat="46.3408654" lon="13.9011467">
<ele>1424.94</ele>
<time>2026-07-12T04:35:34.000Z</time>
</trkpt>
<trkpt lat="46.3407121" lon="13.9009888">
<ele>1421.34</ele>
<time>2026-07-12T04:35:49.000Z</time>
</trkpt>
<trkpt lat="46.3406297" lon="13.9007451">
<ele>1433.02</ele>
<time>2026-07-12T04:36:08.000Z</time>
</trkpt>
<trkpt lat="46.3406283" lon="13.9004779">
<ele>1436.25</ele>
<time>2026-07-12T04:36:22.000Z</time>
</trkpt>
<trkpt lat="46.3405521" lon="13.9002408">
<ele>1437.23</ele>
<time>2026-07-12T04:36:32.000Z</time>
</trkpt>
<trkpt lat="46.3404746" lon="13.9000054">
<ele>1441.35</ele>
<time>2026-07-12T04:36:49.000Z</time>
</trkpt>
<trkpt lat="46.3403009" lon="13.8999265">
<ele>1437.69</ele>
<time>2026-07-12T04:36:59.000Z</time>
</trkpt>
<trkpt lat="46.3401587" lon="13.8997629">
<ele>1438.01</ele>
<time>2026-07-12T04:37:11.000Z</time>
</trkpt>
<trkpt lat="46.3400115" lon="13.8995959">
<ele>1446.49</ele>
<time>2026-07-12T04:37:37.000Z</time>
</trkpt>
<trkpt lat="46.3398969" lon="13.8993789">
<ele>1450.06</ele>
<time>2026-07-12T04:37:48.000Z</time>
</trkpt>
<trkpt lat="46.3397723" lon="13.8991724">
<ele>1453.09</ele>
<time>2026-07-12T04:38:17.000Z</time>
</trkpt>
<trkpt lat="46.3396896" lon="13.8989384">
<ele>1452.62</ele>
<time>2026-07-12T04:38:35.000Z</time>
</trkpt>
<trkpt lat="46.3395594" lon="13.8987371">
<ele>1455.70</ele>
<time>2026-07-12T04:38:49.000Z</time>
</trkpt>
<trkpt lat="46.3394201" lon="13.8985563">
<ele>1456.55</ele>
<time>2026-07-12T04:39:04.000Z</time>
</trkpt>
<trkpt lat="46.3392551" lon="13.8984437">
<ele>1460.40</ele>
<time>2026-07-12T04:39:21.000Z</time>
</trkpt>
<trkpt lat="46.3391122" lon="13.8982611">
<ele>1469.65</ele>
<time>2026-07-12T04:39:38.000Z</time>
</trkpt>
<trkpt lat="46.3389449" lon="13.8981432">
<ele>1467.70</ele>
<time>2026-07-12T04:39:51.000Z</time>
</trkpt>
<trkpt lat="46.3387517" lon="13.8980831">
<ele>1465.20</ele>
<time>2026-07-12T04:40:01.000Z</time>
</trkpt>
<trkpt lat="46.3385727" lon="13.8979975">
<ele>1472.60</ele>
<time>2026-07-12T04:40:21.000Z</time>
</trkpt>
<trkpt lat="46.3383979" lon="13.8978962">
<ele>1461.94</ele>
<time>2026-07-12T04:40:35.000Z</time>
</trkpt>
<trkpt lat="46.3382195" lon="13.8978189">
<ele>1461.21</ele>
<time>2026-07-12T04:40:41.000Z</time>
</trkpt>
<trkpt lat="46.3380590" lon="13.8976782">
<ele>1457.60</ele>
<time>2026-07-12T04:40:49.000Z</time>
</trkpt>
<trkpt lat="46.3379218" lon="13.8974872">
<ele>1461.01</ele>
<time>2026-07-12T04:41:07.000Z</time>
</trkpt>
<trkpt lat="46.3377511" lon="13.8973760">
<ele>1468.00</ele>
<time>2026-07-12T04:41:26.000Z</time>
</trkpt>
<trkpt lat="46.3375899" lon="13.8972436">
<ele>1470.62</ele>
<time>2026-07-12T04:41:36.000Z</time>
</trkpt>
<trkpt lat="46.3374644" lon="13.8970507">
<ele>1473.78</ele>
<time>2026-07-12T04:41:49.000Z</time>
</trkpt>
<trkpt lat="46.3372882" lon="13.8969051">
<ele>1477.00</ele>
<time>2026-07-12T04:42:03.000Z</time>
</trkpt>
<trkpt lat="46.3371167" lon="13.8967916">
<ele>1474.97</ele>
<time>2026-07-12T04:42:18.000Z</time>
</trkpt>
<trkpt lat="46.3369367" lon="13.8966938">
<ele>1471.98</ele>
<time>2026-07-12T04:42:34.000Z</time>
</trkpt>
<trkpt lat="46.3367978" lon="13.8965180">
<ele>1477.45</ele>
<time>2026-07-12T04:42:51.000Z</time>
</trkpt>
<trkpt lat="46.3366900" lon="13.8963061">
<ele>1485.20</ele>
<time>2026-07-12T04:43:10.000Z</time>
</trkpt>
<trkpt lat="46.3366909" lon="13.8960432">
<ele>1485.79</ele>
<time>2026-07-12T04:43:30.000Z</time>
</trkpt>
<trkpt lat="46.3366365" lon="13.8957771">
<ele>1486.52</ele>
<time>2026-07-12T04:43:45.000Z</time>
</trkpt>
<trkpt lat="46.3364858" lon="13.8956140">
<ele>1489.68</ele>
<time>2026-07-12T04:44:03.000Z</time>
</trkpt>
<trkpt lat="46.3363607" lon="13.8953957">
<ele>1489.52</ele>
<time>2026-07-12T04:44:14.000Z</time>
</trkpt>
<trkpt lat="46.3363073" lon="13.8951435">
<ele>1489.25</ele>
<time>2026-07-12T04:44:31.000Z</time>
</trkpt>
<trkpt lat="46.3362592" lon="13.8948814">
<ele>1490.82</ele>
<time>2026-07-12T04:44:45.000Z</time>
</trkpt>
<trkpt lat="46.3362218" lon="13.8946187">
<ele>1490.29</ele>
<time>2026-07-12T04:44:59.000Z</time>
</trkpt>
<trkpt lat="46.3361345" lon="13.8943699">
<ele>1487.22</ele>
<time>2026-07-12T04:45:11.000Z</time>
</trkpt>
<trkpt lat="46.3360422" lon="13.8941446">
<ele>1489.58</ele>
<time>2026-07-12T04:45:31.000Z</time>
</trkpt>
<trkpt lat="46.3359720" lon="13.8938756">
<ele>1494.92</ele>
<time>2026-07-12T04:45:47.000Z</time>
</trkpt>
<trkpt lat="46.3359218" lon="13.8936217">
<ele>1498.55</ele>
<time>2026-07-12T04:46:03.000Z</time>
</trkpt>
<trkpt lat="46.3358596" lon="13.8933621">
<ele>1501.15</ele>
<time>2026-07-12T04:46:18.000Z</time>
</trkpt>
<trkpt lat="46.3358046" lon="13.8930965">
<ele>1506.20</ele>
<time>2026-07-12T04:46:34.000Z</time>
</trkpt>
<trkpt lat="46.3359868" lon="13.8931267">
<ele>1514.69</ele>
<time>2026-07-12T04:47:15.000Z</time>
</trkpt>
<trkpt lat="46.3361220" lon="13.8933123">
<ele>1518.14</ele>
<time>2026-07-12T04:47:35.000Z</time>
</trkpt>
<trkpt lat="46.3362719" lon="13.8934745">
<ele>1524.06</ele>
<time>2026-07-12T04:47:55.000Z</time>
</trkpt>
<trkpt lat="46.3363773" lon="13.8937015">
<ele>1527.30</ele>
<time>2026-07-12T04:48:12.000Z</time>
</trkpt>
<trkpt lat="46.3365428" lon="13.8938482">
<ele>1528.57</ele>
<time>2026-07-12T04:48:30.000Z</time>
</trkpt>
<trkpt lat="46.3366533" lon="13.8936422">
<ele>1541.88</ele>
<time>2026-07-12T04:49:43.000Z</time>
</trkpt>
<trkpt lat="46.3367949" lon="13.8934774">
<ele>1543.82</ele>
<time>2026-07-12T04:50:12.000Z</time>
</trkpt>
<trkpt lat="46.3368351" lon="13.8932181">
<ele>1560.58</ele>
<time>2026-07-12T04:51:29.000Z</time>
</trkpt>
<trkpt lat="46.3368581" lon="13.8929570">
<ele>1562.30</ele>
<time>2026-07-12T04:51:53.000Z</time>
</trkpt>
<trkpt lat="46.3368314" lon="13.8926986">
<ele>1565.91</ele>
<time>2026-07-12T04:52:40.000Z</time>
</trkpt>
<trkpt lat="46.3367282" lon="13.8924784">
<ele>1568.93</ele>
<time>2026-07-12T04:53:08.000Z</time>
</trkpt>
<trkpt lat="46.3366807" lon="13.8922269">
<ele>1572.37</ele>
<time>2026-07-12T04:53:27.000Z</time>
</trkpt>
<trkpt lat="46.3367559" lon="13.8919800">
<ele>1576.51</ele>
<time>2026-07-12T04:53:55.000Z</time>
</trkpt>
<trkpt lat="46.3369356" lon="13.8919148">
<ele>1579.13</ele>
<time>2026-07-12T04:54:30.000Z</time>
</trkpt>
<trkpt lat="46.3371083" lon="13.8920336">
<ele>1598.27</ele>
<time>2026-07-12T04:55:11.000Z</time>
</trkpt>
<trkpt lat="46.3372427" lon="13.8922218">
<ele>1600.33</ele>
<time>2026-07-12T04:55:32.000Z</time>
</trkpt>
<trkpt lat="46.3373946" lon="13.8923774">
<ele>1600.88</ele>
<time>2026-07-12T04:55:51.000Z</time>
</trkpt>
<trkpt lat="46.3375358" lon="13.8925469">
<ele>1602.03</ele>
<time>2026-07-12T04:56:06.000Z</time>
</trkpt>
<trkpt lat="46.3377095" lon="13.8926402">
<ele>1606.36</ele>
<time>2026-07-12T04:56:23.000Z</time>
</trkpt>
<trkpt lat="46.3378931" lon="13.8925972">
<ele>1613.36</ele>
<time>2026-07-12T04:56:43.000Z</time>
</trkpt>
<trkpt lat="46.3380438" lon="13.8924323">
<ele>1616.27</ele>
<time>2026-07-12T04:56:58.000Z</time>
</trkpt>
<trkpt lat="46.3381324" lon="13.8922028">
<ele>1616.09</ele>
<time>2026-07-12T04:57:12.000Z</time>
</trkpt>
<trkpt lat="46.3382979" lon="13.8921002">
<ele>1625.92</ele>
<time>2026-07-12T04:57:42.000Z</time>
</trkpt>
<trkpt lat="46.3383924" lon="13.8918592">
<ele>1633.44</ele>
<time>2026-07-12T04:58:21.000Z</time>
</trkpt>
<trkpt lat="46.3384841" lon="13.8916220">
<ele>1634.90</ele>
<time>2026-07-12T04:58:55.000Z</time>
</trkpt>
<trkpt lat="46.3385795" lon="13.8913670">
<ele>1637.90</ele>
<time>2026-07-12T04:59:08.000Z</time>
</trkpt>
<trkpt lat="46.3386889" lon="13.8911532">
<ele>1640.75</ele>
<time>2026-07-12T04:59:22.000Z</time>
</trkpt>
<trkpt lat="46.3387641" lon="13.8909127">
<ele>1650.89</ele>
<time>2026-07-12T04:59:43.000Z</time>
</trkpt>
<trkpt lat="46.3387567" lon="13.8906510">
<ele>1664.04</ele>
<time>2026-07-12T05:00:37.000Z</time>
</trkpt>
<trkpt lat="46.3388482" lon="13.8904143">
<ele>1668.62</ele>
<time>2026-07-12T05:01:03.000Z</time>
</trkpt>
<trkpt lat="46.3390292" lon="13.8903447">
<ele>1680.24</ele>
<time>2026-07-12T05:01:36.000Z</time>
</trkpt>
<trkpt lat="46.3392158" lon="13.8903034">
<ele>1688.43</ele>
<time>2026-07-12T05:01:54.000Z</time>
</trkpt>
<trkpt lat="46.3393666" lon="13.8901496">
<ele>1686.05</ele>
<time>2026-07-12T05:02:11.000Z</time>
</trkpt>
<trkpt lat="46.3394972" lon="13.8899653">
<ele>1687.59</ele>
<time>2026-07-12T05:02:23.000Z</time>
</trkpt>
<trkpt lat="46.3395486" lon="13.8897130">
<ele>1688.49</ele>
<time>2026-07-12T05:02:45.000Z</time>
</trkpt>
<trkpt lat="46.3395991" lon="13.8894602">
<ele>1690.71</ele>
<time>2026-07-12T05:03:04.000Z</time>
</trkpt>
<trkpt lat="46.3397761" lon="13.8894055">
<ele>1700.48</ele>
<time>2026-07-12T05:03:32.000Z</time>
</trkpt>
<trkpt lat="46.3398855" lon="13.8896281">
<ele>1698.59</ele>
<time>2026-07-12T05:04:13.000Z</time>
</trkpt>
<trkpt lat="46.3400646" lon="13.8896721">
<ele>1701.93</ele>
<time>2026-07-12T05:04:55.000Z</time>
</trkpt>
<trkpt lat="46.3402286" lon="13.8897827">
<ele>1712.08</ele>
<time>2026-07-12T05:05:20.000Z</time>
</trkpt>
<trkpt lat="46.3404058" lon="13.8897328">
<ele>1718.15</ele>
<time>2026-07-12T05:05:50.000Z</time>
</trkpt>
<trkpt lat="46.3404832" lon="13.8894928">
<ele>1721.34</ele>
<time>2026-07-12T05:06:43.000Z</time>
</trkpt>
<trkpt lat="46.3406168" lon="13.8893181">
<ele>1721.39</ele>
<time>2026-07-12T05:07:04.000Z</time>
</trkpt>
<trkpt lat="46.3407789" lon="13.8894583">
<ele>1724.02</ele>
<time>2026-07-12T05:07:45.000Z</time>
</trkpt>
<trkpt lat="46.3409330" lon="13.8893149">
<ele>1729.19</ele>
<time>2026-07-12T05:08:18.000Z</time>
</trkpt>
<trkpt lat="46.3410305" lon="13.8890898">
<ele>1727.37</ele>
<time>2026-07-12T05:08:53.000Z</time>
</trkpt>
<trkpt lat="46.3411928" lon="13.8889693">
<ele>1730.36</ele>
<time>2026-07-12T05:09:15.000Z</time>
</trkpt>
<trkpt lat="46.3413189" lon="13.8887704">
<ele>1734.54</ele>
<time>2026-07-12T05:09:58.000Z</time>
</trkpt>
<trkpt lat="46.3414353" lon="13.8885619">
<ele>1742.27</ele>
<time>2026-07-12T05:10:31.000Z</time>
</trkpt>
<trkpt lat="46.3415957" lon="13.8884242">
<ele>1747.38</ele>
<time>2026-07-12T05:10:54.000Z</time>
</trkpt>
<trkpt lat="46.3417611" lon="13.8883122">
<ele>1750.86</ele>
<time>2026-07-12T05:11:41.000Z</time>
</trkpt>
<trkpt lat="46.3419166" lon="13.8881756">
<ele>1744.89</ele>
<time>2026-07-12T05:12:56.000Z</time>
</trkpt>
<trkpt lat="46.3420888" lon="13.8882537">
<ele>1742.19</ele>
<time>2026-07-12T05:13:22.000Z</time>
</trkpt>
<trkpt lat="46.3422720" lon="13.8882660">
<ele>1736.25</ele>
<time>2026-07-12T05:14:31.000Z</time>
</trkpt>
<trkpt lat="46.3424520" lon="13.8882302">
<ele>1733.23</ele>
<time>2026-07-12T05:14:54.000Z</time>
</trkpt>
<trkpt lat="46.3426426" lon="13.8881990">
<ele>1735.17</ele>
<time>2026-07-12T05:15:17.000Z</time>
</trkpt>
<trkpt lat="46.3428317" lon="13.8882711">
<ele>1733.46</ele>
<time>2026-07-12T05:15:34.000Z</time>
</trkpt>
<trkpt lat="46.3430094" lon="13.8883410">
<ele>1734.06</ele>
<time>2026-07-12T05:15:56.000Z</time>
</trkpt>
<trkpt lat="46.3431880" lon="13.8883883">
<ele>1737.19</ele>
<time>2026-07-12T05:16:23.000Z</time>
</trkpt>
<trkpt lat="46.3433671" lon="13.8883569">
<ele>1731.29</ele>
<time>2026-07-12T05:17:13.000Z</time>
</trkpt>
<trkpt lat="46.3435482" lon="13.8883965">
<ele>1738.63</ele>
<time>2026-07-12T05:17:51.000Z</time>
</trkpt>
<trkpt lat="46.3437466" lon="13.8884029">
<ele>1746.36</ele>
<time>2026-07-12T05:18:17.000Z</time>
</trkpt>
<trkpt lat="46.3439286" lon="13.8883545">
<ele>1752.39</ele>
<time>2026-07-12T05:18:34.000Z</time>
</trkpt>
<trkpt lat="46.3441085" lon="13.8883165">
<ele>1758.34</ele>
<time>2026-07-12T05:18:58.000Z</time>
</trkpt>
<trkpt lat="46.3442919" lon="13.8883221">
<ele>1766.47</ele>
<time>2026-07-12T05:19:51.000Z</time>
</trkpt>
<trkpt lat="46.3444477" lon="13.8884737">
<ele>1781.46</ele>
<time>2026-07-12T05:20:44.000Z</time>
</trkpt>
<trkpt lat="46.3446307" lon="13.8884821">
<ele>1779.22</ele>
<time>2026-07-12T05:21:47.000Z</time>
</trkpt>
<trkpt lat="46.3448061" lon="13.8884103">
<ele>1775.56</ele>
<time>2026-07-12T05:22:05.000Z</time>
</trkpt>
<trkpt lat="46.3449870" lon="13.8884764">
<ele>1773.41</ele>
<time>2026-07-12T05:22:27.000Z</time>
</trkpt>
<trkpt lat="46.3451632" lon="13.8884148">
<ele>1773.69</ele>
<time>2026-07-12T05:23:00.000Z</time>
</trkpt>
<trkpt lat="46.3453469" lon="13.8884482">
<ele>1772.28</ele>
<time>2026-07-12T05:23:22.000Z</time>
</trkpt>
<trkpt lat="46.3455126" lon="13.8885554">
<ele>1775.03</ele>
<time>2026-07-12T05:23:41.000Z</time>
</trkpt>
<trkpt lat="46.3456932" lon="13.8885843">
<ele>1779.03</ele>
<time>2026-07-12T05:24:27.000Z</time>
</trkpt>
<trkpt lat="46.3458463" lon="13.8884434">
<ele>1783.92</ele>
<time>2026-07-12T05:24:59.000Z</time>
</trkpt>
<trkpt lat="46.3460090" lon="13.8883233">
<ele>1788.86</ele>
<time>2026-07-12T05:25:27.000Z</time>
</trkpt>
<trkpt lat="46.3461772" lon="13.8882252">
<ele>1788.42</ele>
<time>2026-07-12T05:25:54.000Z</time>
</trkpt>
<trkpt lat="46.3463356" lon="13.8881014">
<ele>1788.11</ele>
<time>2026-07-12T05:26:50.000Z</time>
</trkpt>
<trkpt lat="46.3464820" lon="13.8879478">
<ele>1791.07</ele>
<time>2026-07-12T05:27:15.000Z</time>
</trkpt>
<trkpt lat="46.3466214" lon="13.8877810">
<ele>1796.83</ele>
<time>2026-07-12T05:28:14.000Z</time>
</trkpt>
<trkpt lat="46.3467829" lon="13.8878999">
<ele>1805.26</ele>
<time>2026-07-12T05:29:34.000Z</time>
</trkpt>
<trkpt lat="46.3469443" lon="13.8877836">
<ele>1809.91</ele>
<time>2026-07-12T05:30:07.000Z</time>
</trkpt>
<trkpt lat="46.3471086" lon="13.8876509">
<ele>1815.34</ele>
<time>2026-07-12T05:31:53.000Z</time>
</trkpt>
<trkpt lat="46.3472898" lon="13.8876535">
<ele>1816.62</ele>
<time>2026-07-12T05:34:22.000Z</time>
</trkpt>
<trkpt lat="46.3474622" lon="13.8875774">
<ele>1817.28</ele>
<time>2026-07-12T05:36:50.000Z</time>
</trkpt>
<trkpt lat="46.3476474" lon="13.8875867">
<ele>1819.32</ele>
<time>2026-07-12T05:38:41.000Z</time>
</trkpt>
<trkpt lat="46.3478219" lon="13.8876601">
<ele>1822.97</ele>
<time>2026-07-12T05:40:08.000Z</time>
</trkpt>
<trkpt lat="46.3479876" lon="13.8877677">
<ele>1824.09</ele>
<time>2026-07-12T05:40:47.000Z</time>
</trkpt>
<trkpt lat="46.3481655" lon="13.8878150">
<ele>1820.84</ele>
<time>2026-07-12T05:43:28.000Z</time>
</trkpt>
<trkpt lat="46.3482725" lon="13.8876053">
<ele>1826.26</ele>
<time>2026-07-12T05:44:19.000Z</time>
</trkpt>
<trkpt lat="46.3484478" lon="13.8875329">
<ele>1823.66</ele>
<time>2026-07-12T05:46:18.000Z</time>
</trkpt>
<trkpt lat="46.3486274" lon="13.8875619">
<ele>1833.31</ele>
<time>2026-07-12T05:47:25.000Z</time>
</trkpt>
<trkpt lat="46.3487919" lon="13.8874484">
<ele>1836.47</ele>
<time>2026-07-12T05:49:45.000Z</time>
</trkpt>
<trkpt lat="46.3489620" lon="13.8873482">
<ele>1834.12</ele>
<time>2026-07-12T05:49:58.000Z</time>
</trkpt>
<trkpt lat="46.3491362" lon="13.8872592">
<ele>1838.03</ele>
<time>2026-07-12T05:50:15.000Z</time>
</trkpt>
<trkpt lat="46.3492486" lon="13.8870471">
<ele>1852.56</ele>
<time>2026-07-12T05:50:52.000Z</time>
</trkpt>
<trkpt lat="46.3494217" lon="13.8869669">
<ele>1867.80</ele>
<time>2026-07-12T05:51:45.000Z</time>
</trkpt>
<trkpt lat="46.3495748" lon="13.8871070">
<ele>1869.38</ele>
<time>2026-07-12T05:57:36.000Z</time>
</trkpt>
<trkpt lat="46.3497490" lon="13.8870258">
<ele>1859.03</ele>
<time>2026-07-12T05:58:21.000Z</time>
</trkpt>
<trkpt lat="46.3499294" lon="13.8869432">
<ele>1859.91</ele>
<time>2026-07-12T05:58:54.000Z</time>
</trkpt>
<trkpt lat="46.3501042" lon="13.8868561">
<ele>1855.68</ele>
<time>2026-07-12T05:59:20.000Z</time>
</trkpt>
<trkpt lat="46.3501906" lon="13.8866234">
<ele>1850.53</ele>
<time>2026-07-12T05:59:40.000Z</time>
</trkpt>
<trkpt lat="46.3503435" lon="13.8864791">
<ele>1841.68</ele>
<time>2026-07-12T06:00:01.000Z</time>
</trkpt>
<trkpt lat="46.3504858" lon="13.8863110">
<ele>1835.96</ele>
<time>2026-07-12T06:00:20.000Z</time>
</trkpt>
<trkpt lat="46.3506390" lon="13.8861614">
<ele>1837.74</ele>
<time>2026-07-12T06:00:37.000Z</time>
</trkpt>
<trkpt lat="46.3508170" lon="13.8861093">
<ele>1846.86</ele>
<time>2026-07-12T06:00:57.000Z</time>
</trkpt>
<trkpt lat="46.3509171" lon="13.8858798">
<ele>1853.24</ele>
<time>2026-07-12T06:01:24.000Z</time>
</trkpt>
<trkpt lat="46.3510239" lon="13.8856517">
<ele>1855.21</ele>
<time>2026-07-12T06:01:45.000Z</time>
</trkpt>
<trkpt lat="46.3511488" lon="13.8854630">
<ele>1858.27</ele>
<time>2026-07-12T06:02:08.000Z</time>
</trkpt>
<trkpt lat="46.3512153" lon="13.8852161">
<ele>1865.62</ele>
<time>2026-07-12T06:02:46.000Z</time>
</trkpt>
<trkpt lat="46.3512706" lon="13.8854683">
<ele>1871.59</ele>
<time>2026-07-12T06:03:33.000Z</time>
</trkpt>
<trkpt lat="46.3514196" lon="13.8853167">
<ele>1877.59</ele>
<time>2026-07-12T06:04:27.000Z</time>
</trkpt>
<trkpt lat="46.3515411" lon="13.8851203">
<ele>1888.77</ele>
<time>2026-07-12T06:05:39.000Z</time>
</trkpt>
<trkpt lat="46.3515457" lon="13.8848581">
<ele>1896.10</ele>
<time>2026-07-12T06:06:09.000Z</time>
</trkpt>
<trkpt lat="46.3516353" lon="13.8846278">
<ele>1907.55</ele>
<time>2026-07-12T06:07:25.000Z</time>
</trkpt>
<trkpt lat="46.3516906" lon="13.8843746">
<ele>1915.34</ele>
<time>2026-07-12T06:08:12.000Z</time>
</trkpt>
<trkpt lat="46.3518732" lon="13.8843952">
<ele>1932.26</ele>
<time>2026-07-12T06:09:15.000Z</time>
</trkpt>
<trkpt lat="46.3520218" lon="13.8842321">
<ele>1953.29</ele>
<time>2026-07-12T06:11:38.000Z</time>
</trkpt>
<trkpt lat="46.3521988" lon="13.8841851">
<ele>1974.92</ele>
<time>2026-07-12T06:13:16.000Z</time>
</trkpt>
<trkpt lat="46.3523720" lon="13.8841142">
<ele>1979.21</ele>
<time>2026-07-12T06:13:51.000Z</time>
</trkpt>
<trkpt lat="46.3525590" lon="13.8841066">
<ele>1972.43</ele>
<time>2026-07-12T06:15:20.000Z</time>
</trkpt>
<trkpt lat="46.3527399" lon="13.8841500">
<ele>1978.21</ele>
<time>2026-07-12T06:15:59.000Z</time>
</trkpt>
<trkpt lat="46.3529102" lon="13.8842568">
<ele>1985.04</ele>
<time>2026-07-12T06:16:56.000Z</time>
</trkpt>
<trkpt lat="46.3528875" lon="13.8839927">
<ele>2004.40</ele>
<time>2026-07-12T06:19:38.000Z</time>
</trkpt>
<trkpt lat="46.3530343" lon="13.8841503">
<ele>2007.59</ele>
<time>2026-07-12T06:31:23.000Z</time>
</trkpt>
<trkpt lat="46.3531613" lon="13.8839646">
<ele>2002.37</ele>
<time>2026-07-12T06:32:00.000Z</time>
</trkpt>
<trkpt lat="46.3533031" lon="13.8837894">
<ele>1987.45</ele>
<time>2026-07-12T06:32:48.000Z</time>
</trkpt>
<trkpt lat="46.3534073" lon="13.8835654">
<ele>1979.28</ele>
<time>2026-07-12T06:33:03.000Z</time>
</trkpt>
<trkpt lat="46.3534667" lon="13.8833088">
<ele>1974.87</ele>
<time>2026-07-12T06:33:19.000Z</time>
</trkpt>
<trkpt lat="46.3536479" lon="13.8833091">
<ele>1962.86</ele>
<time>2026-07-12T06:33:45.000Z</time>
</trkpt>
<trkpt lat="46.3537388" lon="13.8830664">
<ele>1951.92</ele>
<time>2026-07-12T06:34:14.000Z</time>
</trkpt>
<trkpt lat="46.3538986" lon="13.8829117">
<ele>1936.09</ele>
<time>2026-07-12T06:35:31.000Z</time>
</trkpt>
<trkpt lat="46.3539918" lon="13.8826823">
<ele>1922.73</ele>
<time>2026-07-12T06:36:03.000Z</time>
</trkpt>
<trkpt lat="46.3541557" lon="13.8825460">
<ele>1906.85</ele>
<time>2026-07-12T06:37:01.000Z</time>
</trkpt>
<trkpt lat="46.3543024" lon="13.8823919">
<ele>1899.37</ele>
<time>2026-07-12T06:37:46.000Z</time>
</trkpt>
<trkpt lat="46.3543792" lon="13.8821312">
<ele>1890.05</ele>
<time>2026-07-12T06:38:01.000Z</time>
</trkpt>
<trkpt lat="46.3544574" lon="13.8818847">
<ele>1895.94</ele>
<time>2026-07-12T06:38:57.000Z</time>
</trkpt>
<trkpt lat="46.3545335" lon="13.8816327">
<ele>1896.37</ele>
<time>2026-07-12T06:39:29.000Z</time>
</trkpt>
<trkpt lat="46.3546152" lon="13.8813918">
<ele>1896.59</ele>
<time>2026-07-12T06:39:49.000Z</time>
</trkpt>
<trkpt lat="46.3547293" lon="13.8811893">
<ele>1905.86</ele>
<time>2026-07-12T06:40:58.000Z</time>
</trkpt>
<trkpt lat="46.3548299" lon="13.8809714">
<ele>1925.16</ele>
<time>2026-07-12T06:42:02.000Z</time>
</trkpt>
<trkpt lat="46.3547048" lon="13.8807766">
<ele>1932.22</ele>
<time>2026-07-12T06:42:29.000Z</time>
</trkpt>
<trkpt lat="46.3547633" lon="13.8805271">
<ele>1946.65</ele>
<time>2026-07-12T06:44:00.000Z</time>
</trkpt>
<trkpt lat="46.3547729" lon="13.8802668">
<ele>1961.95</ele>
<time>2026-07-12T06:44:43.000Z</time>
</trkpt>
<trkpt lat="46.3548929" lon="13.8800674">
<ele>1972.97</ele>
<time>2026-07-12T06:45:19.000Z</time>
</trkpt>
<trkpt lat="46.3550344" lon="13.8798805">
<ele>1988.84</ele>
<time>2026-07-12T06:46:11.000Z</time>
</trkpt>
<trkpt lat="46.3551570" lon="13.8796849">
<ele>2002.14</ele>
<time>2026-07-12T06:46:50.000Z</time>
</trkpt>
<trkpt lat="46.3552198" lon="13.8794285">
<ele>2010.96</ele>
<time>2026-07-12T06:47:24.000Z</time>
</trkpt>
<trkpt lat="46.3553268" lon="13.8792040">
<ele>2019.69</ele>
<time>2026-07-12T06:47:57.000Z</time>
</trkpt>
<trkpt lat="46.3553983" lon="13.8789590">
<ele>2031.67</ele>
<time>2026-07-12T06:48:23.000Z</time>
</trkpt>
<trkpt lat="46.3555458" lon="13.8788074">
<ele>2039.59</ele>
<time>2026-07-12T06:48:45.000Z</time>
</trkpt>
<trkpt lat="46.3555784" lon="13.8785369">
<ele>2049.85</ele>
<time>2026-07-12T06:49:08.000Z</time>
</trkpt>
<trkpt lat="46.3557109" lon="13.8783492">
<ele>2057.68</ele>
<time>2026-07-12T06:49:35.000Z</time>
</trkpt>
<trkpt lat="46.3558878" lon="13.8782578">
<ele>2060.97</ele>
<time>2026-07-12T06:49:50.000Z</time>
</trkpt>
<trkpt lat="46.3560246" lon="13.8780838">
<ele>2067.56</ele>
<time>2026-07-12T06:50:12.000Z</time>
</trkpt>
<trkpt lat="46.3561801" lon="13.8779223">
<ele>2075.93</ele>
<time>2026-07-12T06:50:34.000Z</time>
</trkpt>
<trkpt lat="46.3563044" lon="13.8777159">
<ele>2074.98</ele>
<time>2026-07-12T06:50:54.000Z</time>
</trkpt>
<trkpt lat="46.3564743" lon="13.8775819">
<ele>2075.83</ele>
<time>2026-07-12T06:51:01.000Z</time>
</trkpt>
<trkpt lat="46.3566071" lon="13.8773832">
<ele>2082.28</ele>
<time>2026-07-12T06:51:17.000Z</time>
</trkpt>
<trkpt lat="46.3567668" lon="13.8772614">
<ele>2089.95</ele>
<time>2026-07-12T06:51:28.000Z</time>
</trkpt>
<trkpt lat="46.3569246" lon="13.8771083">
<ele>2095.66</ele>
<time>2026-07-12T06:51:54.000Z</time>
</trkpt>
<trkpt lat="46.3571107" lon="13.8770577">
<ele>2103.42</ele>
<time>2026-07-12T06:52:11.000Z</time>
</trkpt>
<trkpt lat="46.3572837" lon="13.8769687">
<ele>2108.74</ele>
<time>2026-07-12T06:52:25.000Z</time>
</trkpt>
<trkpt lat="46.3574728" lon="13.8769396">
<ele>2113.10</ele>
<time>2026-07-12T06:52:44.000Z</time>
</trkpt>
<trkpt lat="46.3576492" lon="13.8768289">
<ele>2119.91</ele>
<time>2026-07-12T06:53:05.000Z</time>
</trkpt>
<trkpt lat="46.3578224" lon="13.8767458">
<ele>2124.98</ele>
<time>2026-07-12T06:53:14.000Z</time>
</trkpt>
<trkpt lat="46.3579845" lon="13.8766042">
<ele>2134.49</ele>
<time>2026-07-12T06:53:34.000Z</time>
</trkpt>
<trkpt lat="46.3581643" lon="13.8765869">
<ele>2141.52</ele>
<time>2026-07-12T06:53:53.000Z</time>
</trkpt>
<trkpt lat="46.3583366" lon="13.8764651">
<ele>2152.00</ele>
<time>2026-07-12T06:54:19.000Z</time>
</trkpt>
<trkpt lat="46.3585122" lon="13.8763823">
<ele>2158.29</ele>
<time>2026-07-12T06:54:42.000Z</time>
</trkpt>
<trkpt lat="46.3587006" lon="13.8763533">
<ele>2174.53</ele>
<time>2026-07-12T06:55:26.000Z</time>
</trkpt>
<trkpt lat="46.3588869" lon="13.8763202">
<ele>2184.02</ele>
<time>2026-07-12T06:55:55.000Z</time>
</trkpt>
<trkpt lat="46.3590630" lon="13.8762532">
<ele>2192.81</ele>
<time>2026-07-12T06:56:22.000Z</time>
</trkpt>
<trkpt lat="46.3592229" lon="13.8761105">
<ele>2196.75</ele>
<time>2026-07-12T06:56:41.000Z</time>
</trkpt>
<trkpt lat="46.3594042" lon="13.8760680">
<ele>2205.04</ele>
<time>2026-07-12T06:57:01.000Z</time>
</trkpt>
<trkpt lat="46.3595951" lon="13.8760734">
<ele>2213.61</ele>
<time>2026-07-12T06:57:16.000Z</time>
</trkpt>
<trkpt lat="46.3597721" lon="13.8759941">
<ele>2218.68</ele>
<time>2026-07-12T06:57:40.000Z</time>
</trkpt>
<trkpt lat="46.3599280" lon="13.8758579">
<ele>2225.11</ele>
<time>2026-07-12T06:58:05.000Z</time>
</trkpt>
<trkpt lat="46.3601028" lon="13.8757515">
<ele>2234.53</ele>
<time>2026-07-12T06:58:26.000Z</time>
</trkpt>
<trkpt lat="46.3602477" lon="13.8755884">
<ele>2241.77</ele>
<time>2026-07-12T06:59:00.000Z</time>
</trkpt>
<trkpt lat="46.3601902" lon="13.8758373">
<ele>2240.76</ele>
<time>2026-07-12T07:22:08.000Z</time>
</trkpt>
<trkpt lat="46.3602236" lon="13.8760997">
<ele>2231.61</ele>
<time>2026-07-12T07:23:01.000Z</time>
</trkpt>
<trkpt lat="46.3601747" lon="13.8763593">
<ele>2219.25</ele>
<time>2026-07-12T07:23:37.000Z</time>
</trkpt>
<trkpt lat="46.3602545" lon="13.8766001">
<ele>2211.50</ele>
<time>2026-07-12T07:23:55.000Z</time>
</trkpt>
<trkpt lat="46.3604023" lon="13.8767626">
<ele>2204.48</ele>
<time>2026-07-12T07:24:11.000Z</time>
</trkpt>
<trkpt lat="46.3603167" lon="13.8769974">
<ele>2193.39</ele>
<time>2026-07-12T07:24:39.000Z</time>
</trkpt>
<trkpt lat="46.3603196" lon="13.8772665">
<ele>2179.50</ele>
<time>2026-07-12T07:25:09.000Z</time>
</trkpt>
<trkpt lat="46.3601474" lon="13.8773506">
<ele>2169.95</ele>
<time>2026-07-12T07:25:34.000Z</time>
</trkpt>
<trkpt lat="46.3599635" lon="13.8773623">
<ele>2163.93</ele>
<time>2026-07-12T07:25:51.000Z</time>
</trkpt>
<trkpt lat="46.3599746" lon="13.8776295">
<ele>2151.88</ele>
<time>2026-07-12T07:26:17.000Z</time>
</trkpt>
<trkpt lat="46.3600721" lon="13.8778533">
<ele>2141.45</ele>
<time>2026-07-12T07:26:39.000Z</time>
</trkpt>
<trkpt lat="46.3600865" lon="13.8781181">
<ele>2131.36</ele>
<time>2026-07-12T07:27:11.000Z</time>
</trkpt>
<trkpt lat="46.3602117" lon="13.8783167">
<ele>2119.89</ele>
<time>2026-07-12T07:27:49.000Z</time>
</trkpt>
<trkpt lat="46.3602861" lon="13.8785646">
<ele>2107.64</ele>
<time>2026-07-12T07:28:17.000Z</time>
</trkpt>
<trkpt lat="46.3603323" lon="13.8788376">
<ele>2104.60</ele>
<time>2026-07-12T07:28:30.000Z</time>
</trkpt>
<trkpt lat="46.3603435" lon="13.8791006">
<ele>2099.84</ele>
<time>2026-07-12T07:28:51.000Z</time>
</trkpt>
<trkpt lat="46.3602810" lon="13.8793478">
<ele>2081.88</ele>
<time>2026-07-12T07:30:47.000Z</time>
</trkpt>
<trkpt lat="46.3601025" lon="13.8793851">
<ele>2071.34</ele>
<time>2026-07-12T07:31:38.000Z</time>
</trkpt>
<trkpt lat="46.3602104" lon="13.8795995">
<ele>2065.00</ele>
<time>2026-07-12T07:32:00.000Z</time>
</trkpt>
<trkpt lat="46.3602278" lon="13.8798774">
<ele>2064.87</ele>
<time>2026-07-12T07:32:14.000Z</time>
</trkpt>
<trkpt lat="46.3602326" lon="13.8801413">
<ele>2064.01</ele>
<time>2026-07-12T07:32:33.000Z</time>
</trkpt>
<trkpt lat="46.3601352" lon="13.8803682">
<ele>2057.63</ele>
<time>2026-07-12T07:32:48.000Z</time>
</trkpt>
<trkpt lat="46.3601375" lon="13.8806293">
<ele>2050.23</ele>
<time>2026-07-12T07:33:03.000Z</time>
</trkpt>
<trkpt lat="46.3601904" lon="13.8808900">
<ele>2049.53</ele>
<time>2026-07-12T07:33:19.000Z</time>
</trkpt>
<trkpt lat="46.3603047" lon="13.8811165">
<ele>2041.57</ele>
<time>2026-07-12T07:33:35.000Z</time>
</trkpt>
<trkpt lat="46.3603286" lon="13.8813788">
<ele>2033.31</ele>
<time>2026-07-12T07:33:50.000Z</time>
</trkpt>
<trkpt lat="46.3602572" lon="13.8816252">
<ele>2024.77</ele>
<time>2026-07-12T07:34:14.000Z</time>
</trkpt>
<trkpt lat="46.3604375" lon="13.8816280">
<ele>2016.20</ele>
<time>2026-07-12T07:34:55.000Z</time>
</trkpt>
<trkpt lat="46.3605990" lon="13.8817539">
<ele>2006.97</ele>
<time>2026-07-12T07:35:19.000Z</time>
</trkpt>
<trkpt lat="46.3607712" lon="13.8818346">
<ele>1994.76</ele>
<time>2026-07-12T07:35:52.000Z</time>
</trkpt>
<trkpt lat="46.3609576" lon="13.8817891">
<ele>1985.12</ele>
<time>2026-07-12T07:36:14.000Z</time>
</trkpt>
<trkpt lat="46.3611377" lon="13.8817570">
<ele>1972.81</ele>
<time>2026-07-12T07:36:44.000Z</time>
</trkpt>
<trkpt lat="46.3613206" lon="13.8817563">
<ele>1964.55</ele>
<time>2026-07-12T07:37:08.000Z</time>
</trkpt>
<trkpt lat="46.3614647" lon="13.8819255">
<ele>1960.03</ele>
<time>2026-07-12T07:37:22.000Z</time>
</trkpt>
<trkpt lat="46.3615852" lon="13.8821218">
<ele>1952.54</ele>
<time>2026-07-12T07:37:40.000Z</time>
</trkpt>
<trkpt lat="46.3616639" lon="13.8823636">
<ele>1947.29</ele>
<time>2026-07-12T07:37:52.000Z</time>
</trkpt>
<trkpt lat="46.3617476" lon="13.8825979">
<ele>1946.59</ele>
<time>2026-07-12T07:38:12.000Z</time>
</trkpt>
<trkpt lat="46.3618573" lon="13.8828169">
<ele>1947.55</ele>
<time>2026-07-12T07:38:35.000Z</time>
</trkpt>
<trkpt lat="46.3619910" lon="13.8830147">
<ele>1942.04</ele>
<time>2026-07-12T07:38:48.000Z</time>
</trkpt>
<trkpt lat="46.3621673" lon="13.8830971">
<ele>1940.30</ele>
<time>2026-07-12T07:39:02.000Z</time>
</trkpt>
<trkpt lat="46.3623209" lon="13.8832392">
<ele>1944.05</ele>
<time>2026-07-12T07:39:19.000Z</time>
</trkpt>
<trkpt lat="46.3623909" lon="13.8834934">
<ele>1945.15</ele>
<time>2026-07-12T07:39:34.000Z</time>
</trkpt>
<trkpt lat="46.3623538" lon="13.8837632">
<ele>1946.02</ele>
<time>2026-07-12T07:39:51.000Z</time>
</trkpt>
<trkpt lat="46.3622880" lon="13.8840239">
<ele>1950.67</ele>
<time>2026-07-12T07:40:15.000Z</time>
</trkpt>
<trkpt lat="46.3622506" lon="13.8842804">
<ele>1949.34</ele>
<time>2026-07-12T07:40:40.000Z</time>
</trkpt>
<trkpt lat="46.3621933" lon="13.8845324">
<ele>1952.44</ele>
<time>2026-07-12T07:41:53.000Z</time>
</trkpt>
<trkpt lat="46.3621631" lon="13.8847948">
<ele>1953.85</ele>
<time>2026-07-12T07:42:08.000Z</time>
</trkpt>
<trkpt lat="46.3621691" lon="13.8850760">
<ele>1957.33</ele>
<time>2026-07-12T07:42:32.000Z</time>
</trkpt>
<trkpt lat="46.3621337" lon="13.8853333">
<ele>1961.60</ele>
<time>2026-07-12T07:42:50.000Z</time>
</trkpt>
<trkpt lat="46.3620793" lon="13.8855904">
<ele>1967.89</ele>
<time>2026-07-12T07:43:18.000Z</time>
</trkpt>
<trkpt lat="46.3620233" lon="13.8858477">
<ele>1979.49</ele>
<time>2026-07-12T07:43:47.000Z</time>
</trkpt>
<trkpt lat="46.3619579" lon="13.8861055">
<ele>1990.69</ele>
<time>2026-07-12T07:44:11.000Z</time>
</trkpt>
<trkpt lat="46.3619405" lon="13.8863765">
<ele>1996.50</ele>
<time>2026-07-12T07:44:35.000Z</time>
</trkpt>
<trkpt lat="46.3619660" lon="13.8866451">
<ele>1999.80</ele>
<time>2026-07-12T07:44:58.000Z</time>
</trkpt>
<trkpt lat="46.3620154" lon="13.8868998">
<ele>2000.05</ele>
<time>2026-07-12T07:45:16.000Z</time>
</trkpt>
<trkpt lat="46.3620385" lon="13.8871638">
<ele>2000.07</ele>
<time>2026-07-12T07:45:33.000Z</time>
</trkpt>
<trkpt lat="46.3620306" lon="13.8874283">
<ele>2001.82</ele>
<time>2026-07-12T07:45:49.000Z</time>
</trkpt>
<trkpt lat="46.3620318" lon="13.8877041">
<ele>2000.86</ele>
<time>2026-07-12T07:46:07.000Z</time>
</trkpt>
<trkpt lat="46.3620480" lon="13.8879747">
<ele>1999.94</ele>
<time>2026-07-12T07:46:20.000Z</time>
</trkpt>
<trkpt lat="46.3620647" lon="13.8882461">
<ele>2001.15</ele>
<time>2026-07-12T07:46:41.000Z</time>
</trkpt>
<trkpt lat="46.3620941" lon="13.8885061">
<ele>2000.10</ele>
<time>2026-07-12T07:47:00.000Z</time>
</trkpt>
<trkpt lat="46.3621237" lon="13.8887667">
<ele>2001.64</ele>
<time>2026-07-12T07:47:37.000Z</time>
</trkpt>
<trkpt lat="46.3621048" lon="13.8890391">
<ele>1998.28</ele>
<time>2026-07-12T07:47:54.000Z</time>
</trkpt>
<trkpt lat="46.3621439" lon="13.8892961">
<ele>1993.96</ele>
<time>2026-07-12T07:48:09.000Z</time>
</trkpt>
<trkpt lat="46.3620788" lon="13.8895447">
<ele>1990.07</ele>
<time>2026-07-12T07:48:44.000Z</time>
</trkpt>
<trkpt lat="46.3620966" lon="13.8898154">
<ele>1988.40</ele>
<time>2026-07-12T07:49:04.000Z</time>
</trkpt>
<trkpt lat="46.3621817" lon="13.8900574">
<ele>1978.80</ele>
<time>2026-07-12T07:49:26.000Z</time>
</trkpt>
<trkpt lat="46.3622112" lon="13.8903210">
<ele>1971.74</ele>
<time>2026-07-12T07:49:39.000Z</time>
</trkpt>
<trkpt lat="46.3621358" lon="13.8905646">
<ele>1967.30</ele>
<time>2026-07-12T07:49:58.000Z</time>
</trkpt>
<trkpt lat="46.3619997" lon="13.8907661">
<ele>1967.00</ele>
<time>2026-07-12T07:50:14.000Z</time>
</trkpt>
<trkpt lat="46.3619158" lon="13.8910066">
<ele>1963.18</ele>
<time>2026-07-12T07:51:12.000Z</time>
</trkpt>
<trkpt lat="46.3618187" lon="13.8912439">
<ele>1966.42</ele>
<time>2026-07-12T07:51:30.000Z</time>
</trkpt>
<trkpt lat="46.3616620" lon="13.8913924">
<ele>1967.65</ele>
<time>2026-07-12T07:51:50.000Z</time>
</trkpt>
<trkpt lat="46.3615556" lon="13.8916130">
<ele>1965.35</ele>
<time>2026-07-12T07:52:13.000Z</time>
</trkpt>
<trkpt lat="46.3614387" lon="13.8918226">
<ele>1961.03</ele>
<time>2026-07-12T07:52:28.000Z</time>
</trkpt>
<trkpt lat="46.3613626" lon="13.8920694">
<ele>1954.46</ele>
<time>2026-07-12T07:52:48.000Z</time>
</trkpt>
<trkpt lat="46.3614567" lon="13.8923027">
<ele>1957.80</ele>
<time>2026-07-12T07:53:06.000Z</time>
</trkpt>
<trkpt lat="46.3616165" lon="13.8924356">
<ele>1958.42</ele>
<time>2026-07-12T07:53:38.000Z</time>
</trkpt>
<trkpt lat="46.3617146" lon="13.8926695">
<ele>1955.42</ele>
<time>2026-07-12T07:54:04.000Z</time>
</trkpt>
<trkpt lat="46.3617639" lon="13.8929285">
<ele>1963.00</ele>
<time>2026-07-12T07:54:44.000Z</time>
</trkpt>
<trkpt lat="46.3618591" lon="13.8931520">
<ele>1959.94</ele>
<time>2026-07-12T07:55:03.000Z</time>
</trkpt>
<trkpt lat="46.3619759" lon="13.8933506">
<ele>1961.06</ele>
<time>2026-07-12T07:55:23.000Z</time>
</trkpt>
<trkpt lat="46.3620268" lon="13.8936006">
<ele>1967.45</ele>
<time>2026-07-12T07:55:43.000Z</time>
</trkpt>
<trkpt lat="46.3621825" lon="13.8937314">
<ele>1977.68</ele>
<time>2026-07-12T07:56:29.000Z</time>
</trkpt>
<trkpt lat="46.3623477" lon="13.8938444">
<ele>1994.40</ele>
<time>2026-07-12T07:58:52.000Z</time>
</trkpt>
<trkpt lat="46.3625299" lon="13.8938609">
<ele>2007.63</ele>
<time>2026-07-12T07:59:49.000Z</time>
</trkpt>
<trkpt lat="46.3627032" lon="13.8937539">
<ele>2026.93</ele>
<time>2026-07-12T08:00:34.000Z</time>
</trkpt>
<trkpt lat="46.3628875" lon="13.8937861">
<ele>2031.95</ele>
<time>2026-07-12T08:01:15.000Z</time>
</trkpt>
<trkpt lat="46.3630478" lon="13.8936651">
<ele>2054.65</ele>
<time>2026-07-12T08:02:26.000Z</time>
</trkpt>
<trkpt lat="46.3631237" lon="13.8934224">
<ele>2070.26</ele>
<time>2026-07-12T08:03:12.000Z</time>
</trkpt>
<trkpt lat="46.3632485" lon="13.8932284">
<ele>2088.06</ele>
<time>2026-07-12T08:04:35.000Z</time>
</trkpt>
<trkpt lat="46.3633393" lon="13.8929980">
<ele>2111.82</ele>
<time>2026-07-12T08:06:05.000Z</time>
</trkpt>
<trkpt lat="46.3632517" lon="13.8927651">
<ele>2114.34</ele>
<time>2026-07-12T08:07:13.000Z</time>
</trkpt>
<trkpt lat="46.3632322" lon="13.8925059">
<ele>2127.21</ele>
<time>2026-07-12T08:08:06.000Z</time>
</trkpt>
<trkpt lat="46.3631272" lon="13.8922923">
<ele>2118.35</ele>
<time>2026-07-12T08:08:48.000Z</time>
</trkpt>
<trkpt lat="46.3630238" lon="13.8920698">
<ele>2117.53</ele>
<time>2026-07-12T08:09:35.000Z</time>
</trkpt>
<trkpt lat="46.3629715" lon="13.8918013">
<ele>2121.54</ele>
<time>2026-07-12T08:10:00.000Z</time>
</trkpt>
<trkpt lat="46.3630124" lon="13.8915382">
<ele>2135.29</ele>
<time>2026-07-12T08:11:05.000Z</time>
</trkpt>
<trkpt lat="46.3630110" lon="13.8918005">
<ele>2129.98</ele>
<time>2026-07-12T08:17:42.000Z</time>
</trkpt>
<trkpt lat="46.3630323" lon="13.8920676">
<ele>2119.83</ele>
<time>2026-07-12T08:18:27.000Z</time>
</trkpt>
<trkpt lat="46.3631323" lon="13.8922872">
<ele>2121.84</ele>
<time>2026-07-12T08:19:37.000Z</time>
</trkpt>
<trkpt lat="46.3632431" lon="13.8924952">
<ele>2126.53</ele>
<time>2026-07-12T08:20:45.000Z</time>
</trkpt>
<trkpt lat="46.3633767" lon="13.8926784">
<ele>2129.67</ele>
<time>2026-07-12T08:21:29.000Z</time>
</trkpt>
<trkpt lat="46.3635097" lon="13.8928599">
<ele>2128.55</ele>
<time>2026-07-12T08:22:37.000Z</time>
</trkpt>
<trkpt lat="46.3633405" lon="13.8929485">
<ele>2111.77</ele>
<time>2026-07-12T08:30:18.000Z</time>
</trkpt>
<trkpt lat="46.3632297" lon="13.8931542">
<ele>2094.07</ele>
<time>2026-07-12T08:31:17.000Z</time>
</trkpt>
<trkpt lat="46.3631348" lon="13.8933870">
<ele>2069.63</ele>
<time>2026-07-12T08:32:17.000Z</time>
</trkpt>
<trkpt lat="46.3630389" lon="13.8936100">
<ele>2053.80</ele>
<time>2026-07-12T08:33:00.000Z</time>
</trkpt>
<trkpt lat="46.3629092" lon="13.8938054">
<ele>2040.57</ele>
<time>2026-07-12T08:33:59.000Z</time>
</trkpt>
<trkpt lat="46.3627291" lon="13.8937751">
<ele>2027.71</ele>
<time>2026-07-12T08:34:34.000Z</time>
</trkpt>
<trkpt lat="46.3625465" lon="13.8938273">
<ele>2011.00</ele>
<time>2026-07-12T08:35:18.000Z</time>
</trkpt>
<trkpt lat="46.3623647" lon="13.8938352">
<ele>1997.30</ele>
<time>2026-07-12T08:36:09.000Z</time>
</trkpt>
<trkpt lat="46.3622207" lon="13.8939925">
<ele>1989.37</ele>
<time>2026-07-12T08:36:36.000Z</time>
</trkpt>
<trkpt lat="46.3620441" lon="13.8940951">
<ele>1986.48</ele>
<time>2026-07-12T08:36:54.000Z</time>
</trkpt>
<trkpt lat="46.3618596" lon="13.8940702">
<ele>1978.02</ele>
<time>2026-07-12T08:37:17.000Z</time>
</trkpt>
<trkpt lat="46.3616699" lon="13.8941412">
<ele>1970.04</ele>
<time>2026-07-12T08:37:31.000Z</time>
</trkpt>
<trkpt lat="46.3614808" lon="13.8941859">
<ele>1968.38</ele>
<time>2026-07-12T08:37:43.000Z</time>
</trkpt>
<trkpt lat="46.3612977" lon="13.8942220">
<ele>1965.08</ele>
<time>2026-07-12T08:37:58.000Z</time>
</trkpt>
<trkpt lat="46.3611503" lon="13.8943862">
<ele>1958.79</ele>
<time>2026-07-12T08:38:21.000Z</time>
</trkpt>
<trkpt lat="46.3609810" lon="13.8944921">
<ele>1959.96</ele>
<time>2026-07-12T08:38:38.000Z</time>
</trkpt>
<trkpt lat="46.3607994" lon="13.8945024">
<ele>1968.51</ele>
<time>2026-07-12T08:39:24.000Z</time>
</trkpt>
<trkpt lat="46.3606256" lon="13.8946140">
<ele>1974.21</ele>
<time>2026-07-12T08:40:23.000Z</time>
</trkpt>
<trkpt lat="46.3604518" lon="13.8946869">
<ele>1982.49</ele>
<time>2026-07-12T08:40:50.000Z</time>
</trkpt>
<trkpt lat="46.3602672" lon="13.8946733">
<ele>1992.64</ele>
<time>2026-07-12T08:41:32.000Z</time>
</trkpt>
<trkpt lat="46.3600883" lon="13.8947542">
<ele>1997.08</ele>
<time>2026-07-12T08:41:54.000Z</time>
</trkpt>
<trkpt lat="46.3599235" lon="13.8948965">
<ele>2001.62</ele>
<time>2026-07-12T08:42:16.000Z</time>
</trkpt>
<trkpt lat="46.3597781" lon="13.8950555">
<ele>2001.33</ele>
<time>2026-07-12T08:42:30.000Z</time>
</trkpt>
<trkpt lat="46.3596027" lon="13.8951277">
<ele>2003.31</ele>
<time>2026-07-12T08:42:43.000Z</time>
</trkpt>
<trkpt lat="46.3594573" lon="13.8953034">
<ele>2010.94</ele>
<time>2026-07-12T08:43:01.000Z</time>
</trkpt>
<trkpt lat="46.3593264" lon="13.8955072">
<ele>2012.16</ele>
<time>2026-07-12T08:43:18.000Z</time>
</trkpt>
<trkpt lat="46.3592362" lon="13.8957460">
<ele>2012.08</ele>
<time>2026-07-12T08:43:32.000Z</time>
</trkpt>
<trkpt lat="46.3591281" lon="13.8959561">
<ele>2014.24</ele>
<time>2026-07-12T08:43:50.000Z</time>
</trkpt>
<trkpt lat="46.3590377" lon="13.8962038">
<ele>2015.72</ele>
<time>2026-07-12T08:44:05.000Z</time>
</trkpt>
<trkpt lat="46.3589482" lon="13.8964427">
<ele>2020.58</ele>
<time>2026-07-12T08:44:17.000Z</time>
</trkpt>
<trkpt lat="46.3588957" lon="13.8967050">
<ele>2018.61</ele>
<time>2026-07-12T08:44:32.000Z</time>
</trkpt>
<trkpt lat="46.3589084" lon="13.8969681">
<ele>2022.14</ele>
<time>2026-07-12T08:44:45.000Z</time>
</trkpt>
<trkpt lat="46.3588058" lon="13.8971908">
<ele>2024.75</ele>
<time>2026-07-12T08:45:05.000Z</time>
</trkpt>
<trkpt lat="46.3588964" lon="13.8974367">
<ele>2035.88</ele>
<time>2026-07-12T08:45:39.000Z</time>
</trkpt>
<trkpt lat="46.3589441" lon="13.8977027">
<ele>2042.98</ele>
<time>2026-07-12T08:46:06.000Z</time>
</trkpt>
<trkpt lat="46.3589567" lon="13.8979652">
<ele>2047.30</ele>
<time>2026-07-12T08:47:02.000Z</time>
</trkpt>
<trkpt lat="46.3588877" lon="13.8982062">
<ele>2042.75</ele>
<time>2026-07-12T08:47:23.000Z</time>
</trkpt>
<trkpt lat="46.3588773" lon="13.8984739">
<ele>2037.49</ele>
<time>2026-07-12T08:50:08.000Z</time>
</trkpt>
<trkpt lat="46.3588987" lon="13.8987424">
<ele>2032.51</ele>
<time>2026-07-12T08:50:37.000Z</time>
</trkpt>
<trkpt lat="46.3588273" lon="13.8989953">
<ele>2025.26</ele>
<time>2026-07-12T08:51:00.000Z</time>
</trkpt>
<trkpt lat="46.3587288" lon="13.8992370">
<ele>2018.57</ele>
<time>2026-07-12T08:51:16.000Z</time>
</trkpt>
<trkpt lat="46.3586415" lon="13.8994672">
<ele>2012.99</ele>
<time>2026-07-12T08:51:30.000Z</time>
</trkpt>
<trkpt lat="46.3585614" lon="13.8997219">
<ele>2006.35</ele>
<time>2026-07-12T08:51:50.000Z</time>
</trkpt>
<trkpt lat="46.3585399" lon="13.8999919">
<ele>1995.98</ele>
<time>2026-07-12T08:52:12.000Z</time>
</trkpt>
<trkpt lat="46.3585684" lon="13.9002576">
<ele>1991.16</ele>
<time>2026-07-12T08:52:26.000Z</time>
</trkpt>
<trkpt lat="46.3585531" lon="13.9005298">
<ele>1983.64</ele>
<time>2026-07-12T08:52:38.000Z</time>
</trkpt>
<trkpt lat="46.3586022" lon="13.9007919">
<ele>1981.31</ele>
<time>2026-07-12T08:52:51.000Z</time>
</trkpt>
<trkpt lat="46.3585977" lon="13.9010697">
<ele>1972.51</ele>
<time>2026-07-12T08:53:06.000Z</time>
</trkpt>
<trkpt lat="46.3584255" lon="13.9011601">
<ele>1963.56</ele>
<time>2026-07-12T08:53:36.000Z</time>
</trkpt>
<trkpt lat="46.3582701" lon="13.9010194">
<ele>1959.15</ele>
<time>2026-07-12T08:53:49.000Z</time>
</trkpt>
<trkpt lat="46.3580951" lon="13.9009209">
<ele>1953.32</ele>
<time>2026-07-12T08:54:01.000Z</time>
</trkpt>
<trkpt lat="46.3579187" lon="13.9008503">
<ele>1945.13</ele>
<time>2026-07-12T08:54:19.000Z</time>
</trkpt>
<trkpt lat="46.3577513" lon="13.9007286">
<ele>1939.97</ele>
<time>2026-07-12T08:54:33.000Z</time>
</trkpt>
<trkpt lat="46.3575695" lon="13.9007847">
<ele>1925.01</ele>
<time>2026-07-12T08:54:50.000Z</time>
</trkpt>
<trkpt lat="46.3574789" lon="13.9010136">
<ele>1912.44</ele>
<time>2026-07-12T08:55:15.000Z</time>
</trkpt>
<trkpt lat="46.3572901" lon="13.9010025">
<ele>1906.15</ele>
<time>2026-07-12T08:55:36.000Z</time>
</trkpt>
<trkpt lat="46.3572333" lon="13.9012600">
<ele>1898.37</ele>
<time>2026-07-12T08:55:54.000Z</time>
</trkpt>
<trkpt lat="46.3571567" lon="13.9015041">
<ele>1889.62</ele>
<time>2026-07-12T08:56:22.000Z</time>
</trkpt>
<trkpt lat="46.3569790" lon="13.9016048">
<ele>1879.37</ele>
<time>2026-07-12T08:57:02.000Z</time>
</trkpt>
<trkpt lat="46.3568236" lon="13.9017435">
<ele>1873.72</ele>
<time>2026-07-12T08:57:18.000Z</time>
</trkpt>
<trkpt lat="46.3566432" lon="13.9018336">
<ele>1865.63</ele>
<time>2026-07-12T08:57:35.000Z</time>
</trkpt>
<trkpt lat="46.3564650" lon="13.9018859">
<ele>1850.06</ele>
<time>2026-07-12T08:57:59.000Z</time>
</trkpt>
<trkpt lat="46.3562977" lon="13.9020289">
<ele>1844.11</ele>
<time>2026-07-12T08:58:15.000Z</time>
</trkpt>
<trkpt lat="46.3561273" lon="13.9021592">
<ele>1842.50</ele>
<time>2026-07-12T08:58:31.000Z</time>
</trkpt>
<trkpt lat="46.3559397" lon="13.9022006">
<ele>1840.00</ele>
<time>2026-07-12T08:58:42.000Z</time>
</trkpt>
<trkpt lat="46.3557652" lon="13.9022777">
<ele>1835.42</ele>
<time>2026-07-12T08:59:09.000Z</time>
</trkpt>
<trkpt lat="46.3556720" lon="13.9025191">
<ele>1831.56</ele>
<time>2026-07-12T08:59:26.000Z</time>
</trkpt>
<trkpt lat="46.3555019" lon="13.9026210">
<ele>1823.13</ele>
<time>2026-07-12T08:59:37.000Z</time>
</trkpt>
<trkpt lat="46.3553339" lon="13.9027680">
<ele>1816.83</ele>
<time>2026-07-12T08:59:48.000Z</time>
</trkpt>
<trkpt lat="46.3552146" lon="13.9029750">
<ele>1810.47</ele>
<time>2026-07-12T09:00:11.000Z</time>
</trkpt>
<trkpt lat="46.3551203" lon="13.9032073">
<ele>1804.94</ele>
<time>2026-07-12T09:00:28.000Z</time>
</trkpt>
<trkpt lat="46.3550212" lon="13.9034479">
<ele>1801.29</ele>
<time>2026-07-12T09:00:37.000Z</time>
</trkpt>
<trkpt lat="46.3548310" lon="13.9035450">
<ele>1794.57</ele>
<time>2026-07-12T09:00:48.000Z</time>
</trkpt>
<trkpt lat="46.3546496" lon="13.9036088">
<ele>1789.95</ele>
<time>2026-07-12T09:00:58.000Z</time>
</trkpt>
<trkpt lat="46.3544749" lon="13.9037210">
<ele>1786.20</ele>
<time>2026-07-12T09:01:08.000Z</time>
</trkpt>
<trkpt lat="46.3543133" lon="13.9038701">
<ele>1783.88</ele>
<time>2026-07-12T09:01:19.000Z</time>
</trkpt>
<trkpt lat="46.3541473" lon="13.9037561">
<ele>1777.97</ele>
<time>2026-07-12T09:01:36.000Z</time>
</trkpt>
<trkpt lat="46.3541591" lon="13.9034933">
<ele>1780.13</ele>
<time>2026-07-12T09:01:51.000Z</time>
</trkpt>
<trkpt lat="46.3541953" lon="13.9032325">
<ele>1777.79</ele>
<time>2026-07-12T09:02:04.000Z</time>
</trkpt>
<trkpt lat="46.3542895" lon="13.9030059">
<ele>1776.00</ele>
<time>2026-07-12T09:02:16.000Z</time>
</trkpt>
<trkpt lat="46.3543461" lon="13.9027566">
<ele>1771.67</ele>
<time>2026-07-12T09:02:32.000Z</time>
</trkpt>
<trkpt lat="46.3543888" lon="13.9024959">
<ele>1768.55</ele>
<time>2026-07-12T09:02:46.000Z</time>
</trkpt>
<trkpt lat="46.3544433" lon="13.9022453">
<ele>1770.54</ele>
<time>2026-07-12T09:03:10.000Z</time>
</trkpt>
<trkpt lat="46.3545155" lon="13.9019948">
<ele>1769.77</ele>
<time>2026-07-12T09:03:28.000Z</time>
</trkpt>
<trkpt lat="46.3545959" lon="13.9017526">
<ele>1767.47</ele>
<time>2026-07-12T09:03:42.000Z</time>
</trkpt>
<trkpt lat="46.3546830" lon="13.9015228">
<ele>1766.64</ele>
<time>2026-07-12T09:03:56.000Z</time>
</trkpt>
<trkpt lat="46.3547770" lon="13.9012739">
<ele>1768.34</ele>
<time>2026-07-12T09:04:13.000Z</time>
</trkpt>
<trkpt lat="46.3548847" lon="13.9010593">
<ele>1763.34</ele>
<time>2026-07-12T09:04:26.000Z</time>
</trkpt>
<trkpt lat="46.3548666" lon="13.9007975">
<ele>1767.34</ele>
<time>2026-07-12T09:04:59.000Z</time>
</trkpt>
<trkpt lat="46.3547488" lon="13.9005866">
<ele>1763.35</ele>
<time>2026-07-12T09:05:16.000Z</time>
</trkpt>
<trkpt lat="46.3545983" lon="13.9004307">
<ele>1764.41</ele>
<time>2026-07-12T09:05:28.000Z</time>
</trkpt>
<trkpt lat="46.3544233" lon="13.9003507">
<ele>1757.64</ele>
<time>2026-07-12T09:05:47.000Z</time>
</trkpt>
<trkpt lat="46.3542397" lon="13.9003965">
<ele>1750.28</ele>
<time>2026-07-12T09:05:58.000Z</time>
</trkpt>
<trkpt lat="46.3540714" lon="13.9004995">
<ele>1744.07</ele>
<time>2026-07-12T09:06:10.000Z</time>
</trkpt>
<trkpt lat="46.3539518" lon="13.9007055">
<ele>1741.91</ele>
<time>2026-07-12T09:06:25.000Z</time>
</trkpt>
<trkpt lat="46.3538592" lon="13.9009298">
<ele>1727.75</ele>
<time>2026-07-12T09:06:41.000Z</time>
</trkpt>
<trkpt lat="46.3537282" lon="13.9011268">
<ele>1717.38</ele>
<time>2026-07-12T09:07:02.000Z</time>
</trkpt>
<trkpt lat="46.3535818" lon="13.9012885">
<ele>1712.38</ele>
<time>2026-07-12T09:07:19.000Z</time>
</trkpt>
<trkpt lat="46.3534213" lon="13.9014207">
<ele>1707.53</ele>
<time>2026-07-12T09:07:34.000Z</time>
</trkpt>
<trkpt lat="46.3533136" lon="13.9016364">
<ele>1697.57</ele>
<time>2026-07-12T09:07:55.000Z</time>
</trkpt>
<trkpt lat="46.3531592" lon="13.9017932">
<ele>1695.29</ele>
<time>2026-07-12T09:08:25.000Z</time>
</trkpt>
<trkpt lat="46.3530053" lon="13.9019521">
<ele>1689.40</ele>
<time>2026-07-12T09:08:47.000Z</time>
</trkpt>
<trkpt lat="46.3528125" lon="13.9020032">
<ele>1685.94</ele>
<time>2026-07-12T09:09:03.000Z</time>
</trkpt>
<trkpt lat="46.3526331" lon="13.9020437">
<ele>1687.10</ele>
<time>2026-07-12T09:09:17.000Z</time>
</trkpt>
<trkpt lat="46.3525364" lon="13.9022829">
<ele>1682.94</ele>
<time>2026-07-12T09:09:30.000Z</time>
</trkpt>
<trkpt lat="46.3524827" lon="13.9025341">
<ele>1675.15</ele>
<time>2026-07-12T09:09:53.000Z</time>
</trkpt>
<trkpt lat="46.3523144" lon="13.9026430">
<ele>1669.78</ele>
<time>2026-07-12T09:10:47.000Z</time>
</trkpt>
<trkpt lat="46.3521740" lon="13.9028093">
<ele>1667.28</ele>
<time>2026-07-12T09:11:19.000Z</time>
</trkpt>
<trkpt lat="46.3520008" lon="13.9028826">
<ele>1657.66</ele>
<time>2026-07-12T09:12:19.000Z</time>
</trkpt>
<trkpt lat="46.3518252" lon="13.9027749">
<ele>1643.95</ele>
<time>2026-07-12T09:12:44.000Z</time>
</trkpt>
<trkpt lat="46.3516637" lon="13.9026410">
<ele>1642.84</ele>
<time>2026-07-12T09:13:02.000Z</time>
</trkpt>
<trkpt lat="46.3514814" lon="13.9026570">
<ele>1624.91</ele>
<time>2026-07-12T09:13:23.000Z</time>
</trkpt>
<trkpt lat="46.3513211" lon="13.9025316">
<ele>1624.31</ele>
<time>2026-07-12T09:13:44.000Z</time>
</trkpt>
<trkpt lat="46.3511695" lon="13.9027054">
<ele>1616.37</ele>
<time>2026-07-12T09:13:58.000Z</time>
</trkpt>
<trkpt lat="46.3510276" lon="13.9028738">
<ele>1614.64</ele>
<time>2026-07-12T09:14:16.000Z</time>
</trkpt>
<trkpt lat="46.3509114" lon="13.9030852">
<ele>1613.85</ele>
<time>2026-07-12T09:14:33.000Z</time>
</trkpt>
<trkpt lat="46.3507934" lon="13.9033264">
<ele>1614.50</ele>
<time>2026-07-12T09:14:51.000Z</time>
</trkpt>
<trkpt lat="46.3506332" lon="13.9034702">
<ele>1613.46</ele>
<time>2026-07-12T09:15:01.000Z</time>
</trkpt>
<trkpt lat="46.3504431" lon="13.9034240">
<ele>1611.88</ele>
<time>2026-07-12T09:15:22.000Z</time>
</trkpt>
<trkpt lat="46.3502586" lon="13.9034797">
<ele>1604.67</ele>
<time>2026-07-12T09:15:36.000Z</time>
</trkpt>
<trkpt lat="46.3500935" lon="13.9036069">
<ele>1600.69</ele>
<time>2026-07-12T09:15:48.000Z</time>
</trkpt>
<trkpt lat="46.3499908" lon="13.9038414">
<ele>1598.94</ele>
<time>2026-07-12T09:16:18.000Z</time>
</trkpt>
<trkpt lat="46.3498280" lon="13.9040002">
<ele>1593.69</ele>
<time>2026-07-12T09:16:31.000Z</time>
</trkpt>
<trkpt lat="46.3499250" lon="13.9037678">
<ele>1587.76</ele>
<time>2026-07-12T09:17:01.000Z</time>
</trkpt>
<trkpt lat="46.3501038" lon="13.9038264">
<ele>1589.01</ele>
<time>2026-07-12T09:17:13.000Z</time>
</trkpt>
<trkpt lat="46.3501627" lon="13.9040856">
<ele>1605.71</ele>
<time>2026-07-12T09:17:33.000Z</time>
</trkpt>
<trkpt lat="46.3501416" lon="13.9043573">
<ele>1611.38</ele>
<time>2026-07-12T09:17:54.000Z</time>
</trkpt>
<trkpt lat="46.3500773" lon="13.9046118">
<ele>1613.00</ele>
<time>2026-07-12T09:18:08.000Z</time>
</trkpt>
<trkpt lat="46.3499719" lon="13.9048385">
<ele>1613.75</ele>
<time>2026-07-12T09:18:27.000Z</time>
</trkpt>
<trkpt lat="46.3500121" lon="13.9050967">
<ele>1612.39</ele>
<time>2026-07-12T09:18:43.000Z</time>
</trkpt>
<trkpt lat="46.3498537" lon="13.9052283">
<ele>1620.26</ele>
<time>2026-07-12T09:19:04.000Z</time>
</trkpt>
<trkpt lat="46.3497228" lon="13.9054226">
<ele>1623.72</ele>
<time>2026-07-12T09:19:25.000Z</time>
</trkpt>
<trkpt lat="46.3495620" lon="13.9055638">
<ele>1622.09</ele>
<time>2026-07-12T09:19:35.000Z</time>
</trkpt>
<trkpt lat="46.3494193" lon="13.9057276">
<ele>1618.94</ele>
<time>2026-07-12T09:19:53.000Z</time>
</trkpt>
<trkpt lat="46.3492672" lon="13.9058866">
<ele>1624.58</ele>
<time>2026-07-12T09:20:06.000Z</time>
</trkpt>
<trkpt lat="46.3491488" lon="13.9061053">
<ele>1627.25</ele>
<time>2026-07-12T09:20:25.000Z</time>
</trkpt>
<trkpt lat="46.3492169" lon="13.9063475">
<ele>1640.59</ele>
<time>2026-07-12T09:20:51.000Z</time>
</trkpt>
<trkpt lat="46.3493846" lon="13.9064421">
<ele>1651.17</ele>
<time>2026-07-12T09:21:17.000Z</time>
</trkpt>
<trkpt lat="46.3495574" lon="13.9063359">
<ele>1653.01</ele>
<time>2026-07-12T09:21:30.000Z</time>
</trkpt>
<trkpt lat="46.3497365" lon="13.9064372">
<ele>1659.15</ele>
<time>2026-07-12T09:21:49.000Z</time>
</trkpt>
<trkpt lat="46.3499027" lon="13.9065708">
<ele>1665.01</ele>
<time>2026-07-12T09:22:05.000Z</time>
</trkpt>
<trkpt lat="46.3500887" lon="13.9065988">
<ele>1666.57</ele>
<time>2026-07-12T09:22:20.000Z</time>
</trkpt>
<trkpt lat="46.3502842" lon="13.9066220">
<ele>1668.20</ele>
<time>2026-07-12T09:22:34.000Z</time>
</trkpt>
<trkpt lat="46.3504586" lon="13.9067031">
<ele>1675.04</ele>
<time>2026-07-12T09:22:50.000Z</time>
</trkpt>
<trkpt lat="46.3506454" lon="13.9067557">
<ele>1681.11</ele>
<time>2026-07-12T09:23:04.000Z</time>
</trkpt>
<trkpt lat="46.3508259" lon="13.9067429">
<ele>1682.75</ele>
<time>2026-07-12T09:23:23.000Z</time>
</trkpt>
<trkpt lat="46.3510042" lon="13.9068438">
<ele>1685.58</ele>
<time>2026-07-12T09:23:37.000Z</time>
</trkpt>
<trkpt lat="46.3511899" lon="13.9068853">
<ele>1687.45</ele>
<time>2026-07-12T09:23:54.000Z</time>
</trkpt>
<trkpt lat="46.3513734" lon="13.9069761">
<ele>1691.71</ele>
<time>2026-07-12T09:24:10.000Z</time>
</trkpt>
<trkpt lat="46.3515573" lon="13.9070760">
<ele>1691.19</ele>
<time>2026-07-12T09:24:26.000Z</time>
</trkpt>
<trkpt lat="46.3517420" lon="13.9070820">
<ele>1692.70</ele>
<time>2026-07-12T09:24:39.000Z</time>
</trkpt>
<trkpt lat="46.3519154" lon="13.9071535">
<ele>1699.89</ele>
<time>2026-07-12T09:25:02.000Z</time>
</trkpt>
<trkpt lat="46.3520717" lon="13.9072893">
<ele>1702.71</ele>
<time>2026-07-12T09:25:17.000Z</time>
</trkpt>
<trkpt lat="46.3522565" lon="13.9073477">
<ele>1705.36</ele>
<time>2026-07-12T09:25:30.000Z</time>
</trkpt>
<trkpt lat="46.3524265" lon="13.9074403">
<ele>1708.92</ele>
<time>2026-07-12T09:25:42.000Z</time>
</trkpt>
<trkpt lat="46.3526164" lon="13.9074423">
<ele>1706.97</ele>
<time>2026-07-12T09:25:59.000Z</time>
</trkpt>
<trkpt lat="46.3528114" lon="13.9074255">
<ele>1703.42</ele>
<time>2026-07-12T09:26:12.000Z</time>
</trkpt>
<trkpt lat="46.3529952" lon="13.9074361">
<ele>1705.12</ele>
<time>2026-07-12T09:26:24.000Z</time>
</trkpt>
<trkpt lat="46.3531740" lon="13.9073927">
<ele>1704.96</ele>
<time>2026-07-12T09:26:35.000Z</time>
</trkpt>
<trkpt lat="46.3533515" lon="13.9073178">
<ele>1706.38</ele>
<time>2026-07-12T09:26:52.000Z</time>
</trkpt>
<trkpt lat="46.3535422" lon="13.9073310">
<ele>1705.75</ele>
<time>2026-07-12T09:27:04.000Z</time>
</trkpt>
<trkpt lat="46.3536838" lon="13.9071701">
<ele>1703.67</ele>
<time>2026-07-12T09:27:30.000Z</time>
</trkpt>
<trkpt lat="46.3538604" lon="13.9070814">
<ele>1707.19</ele>
<time>2026-07-12T09:27:43.000Z</time>
</trkpt>
<trkpt lat="46.3540276" lon="13.9069598">
<ele>1709.57</ele>
<time>2026-07-12T09:28:01.000Z</time>
</trkpt>
<trkpt lat="46.3541667" lon="13.9067691">
<ele>1709.46</ele>
<time>2026-07-12T09:28:13.000Z</time>
</trkpt>
<trkpt lat="46.3543145" lon="13.9066161">
<ele>1711.49</ele>
<time>2026-07-12T09:28:27.000Z</time>
</trkpt>
<trkpt lat="46.3544467" lon="13.9064244">
<ele>1711.30</ele>
<time>2026-07-12T09:28:37.000Z</time>
</trkpt>
<trkpt lat="46.3545838" lon="13.9062258">
<ele>1711.24</ele>
<time>2026-07-12T09:28:46.000Z</time>
</trkpt>
<trkpt lat="46.3547194" lon="13.9060239">
<ele>1707.68</ele>
<time>2026-07-12T09:29:04.000Z</time>
</trkpt>
<trkpt lat="46.3548309" lon="13.9058098">
<ele>1707.93</ele>
<time>2026-07-12T09:29:20.000Z</time>
</trkpt>
<trkpt lat="46.3549135" lon="13.9055779">
<ele>1712.24</ele>
<time>2026-07-12T09:29:34.000Z</time>
</trkpt>
<trkpt lat="46.3550468" lon="13.9057544">
<ele>1707.84</ele>
<time>2026-07-12T09:30:11.000Z</time>
</trkpt>
<trkpt lat="46.3550700" lon="13.9060207">
<ele>1703.18</ele>
<time>2026-07-12T09:30:27.000Z</time>
</trkpt>
<trkpt lat="46.3550336" lon="13.9062902">
<ele>1697.68</ele>
<time>2026-07-12T09:30:42.000Z</time>
</trkpt>
<trkpt lat="46.3550440" lon="13.9065535">
<ele>1695.15</ele>
<time>2026-07-12T09:30:55.000Z</time>
</trkpt>
<trkpt lat="46.3550844" lon="13.9068176">
<ele>1686.66</ele>
<time>2026-07-12T09:31:17.000Z</time>
</trkpt>
<trkpt lat="46.3551327" lon="13.9070883">
<ele>1680.33</ele>
<time>2026-07-12T09:31:45.000Z</time>
</trkpt>
<trkpt lat="46.3551857" lon="13.9073522">
<ele>1670.05</ele>
<time>2026-07-12T09:32:13.000Z</time>
</trkpt>
<trkpt lat="46.3551512" lon="13.9076086">
<ele>1665.48</ele>
<time>2026-07-12T09:32:29.000Z</time>
</trkpt>
<trkpt lat="46.3551538" lon="13.9078787">
<ele>1647.52</ele>
<time>2026-07-12T09:33:05.000Z</time>
</trkpt>
<trkpt lat="46.3550157" lon="13.9080686">
<ele>1634.69</ele>
<time>2026-07-12T09:33:32.000Z</time>
</trkpt>
<trkpt lat="46.3549634" lon="13.9083246">
<ele>1629.24</ele>
<time>2026-07-12T09:33:52.000Z</time>
</trkpt>
<trkpt lat="46.3548248" lon="13.9085028">
<ele>1617.56</ele>
<time>2026-07-12T09:34:19.000Z</time>
</trkpt>
<trkpt lat="46.3547539" lon="13.9087502">
<ele>1614.00</ele>
<time>2026-07-12T09:34:36.000Z</time>
</trkpt>
<trkpt lat="46.3546784" lon="13.9089955">
<ele>1601.90</ele>
<time>2026-07-12T09:35:06.000Z</time>
</trkpt>
<trkpt lat="46.3545925" lon="13.9092277">
<ele>1592.81</ele>
<time>2026-07-12T09:35:31.000Z</time>
</trkpt>
<trkpt lat="46.3545387" lon="13.9094814">
<ele>1584.71</ele>
<time>2026-07-12T09:35:54.000Z</time>
</trkpt>
<trkpt lat="46.3543946" lon="13.9096551">
<ele>1583.83</ele>
<time>2026-07-12T09:36:45.000Z</time>
</trkpt>
<trkpt lat="46.3542524" lon="13.9098172">
<ele>1574.58</ele>
<time>2026-07-12T09:37:03.000Z</time>
</trkpt>
<trkpt lat="46.3541716" lon="13.9100558">
<ele>1567.94</ele>
<time>2026-07-12T09:37:17.000Z</time>
</trkpt>
<trkpt lat="46.3540371" lon="13.9102501">
<ele>1558.29</ele>
<time>2026-07-12T09:37:38.000Z</time>
</trkpt>
<trkpt lat="46.3539378" lon="13.9104766">
<ele>1553.66</ele>
<time>2026-07-12T09:37:50.000Z</time>
</trkpt>
<trkpt lat="46.3538964" lon="13.9107596">
<ele>1547.98</ele>
<time>2026-07-12T09:38:01.000Z</time>
</trkpt>
<trkpt lat="46.3538552" lon="13.9110132">
<ele>1542.73</ele>
<time>2026-07-12T09:38:11.000Z</time>
</trkpt>
<trkpt lat="46.3538084" lon="13.9112657">
<ele>1530.85</ele>
<time>2026-07-12T09:38:29.000Z</time>
</trkpt>
<trkpt lat="46.3536724" lon="13.9114466">
<ele>1522.60</ele>
<time>2026-07-12T09:38:45.000Z</time>
</trkpt>
<trkpt lat="46.3535565" lon="13.9116557">
<ele>1520.27</ele>
<time>2026-07-12T09:38:59.000Z</time>
</trkpt>
<trkpt lat="46.3534450" lon="13.9118691">
<ele>1510.86</ele>
<time>2026-07-12T09:39:12.000Z</time>
</trkpt>
<trkpt lat="46.3533275" lon="13.9120901">
<ele>1505.72</ele>
<time>2026-07-12T09:39:34.000Z</time>
</trkpt>
<trkpt lat="46.3532242" lon="13.9123157">
<ele>1499.06</ele>
<time>2026-07-12T09:39:44.000Z</time>
</trkpt>
<trkpt lat="46.3531958" lon="13.9125816">
<ele>1493.18</ele>
<time>2026-07-12T09:39:54.000Z</time>
</trkpt>
<trkpt lat="46.3531516" lon="13.9128495">
<ele>1483.19</ele>
<time>2026-07-12T09:40:09.000Z</time>
</trkpt>
<trkpt lat="46.3529939" lon="13.9129915">
<ele>1478.75</ele>
<time>2026-07-12T09:40:25.000Z</time>
</trkpt>
<trkpt lat="46.3528973" lon="13.9132138">
<ele>1477.18</ele>
<time>2026-07-12T09:40:36.000Z</time>
</trkpt>
<trkpt lat="46.3527775" lon="13.9134210">
<ele>1470.81</ele>
<time>2026-07-12T09:40:53.000Z</time>
</trkpt>
<trkpt lat="46.3526473" lon="13.9136224">
<ele>1465.49</ele>
<time>2026-07-12T09:41:07.000Z</time>
</trkpt>
<trkpt lat="46.3524704" lon="13.9136861">
<ele>1462.88</ele>
<time>2026-07-12T09:41:18.000Z</time>
</trkpt>
<trkpt lat="46.3523015" lon="13.9138209">
<ele>1454.69</ele>
<time>2026-07-12T09:41:28.000Z</time>
</trkpt>
<trkpt lat="46.3521049" lon="13.9138668">
<ele>1447.35</ele>
<time>2026-07-12T09:41:40.000Z</time>
</trkpt>
<trkpt lat="46.3519251" lon="13.9139587">
<ele>1440.77</ele>
<time>2026-07-12T09:41:50.000Z</time>
</trkpt>
<trkpt lat="46.3517461" lon="13.9140536">
<ele>1437.38</ele>
<time>2026-07-12T09:42:07.000Z</time>
</trkpt>
<trkpt lat="46.3515828" lon="13.9141631">
<ele>1434.04</ele>
<time>2026-07-12T09:42:16.000Z</time>
</trkpt>
<trkpt lat="46.3514145" lon="13.9142594">
<ele>1425.91</ele>
<time>2026-07-12T09:42:23.000Z</time>
</trkpt>
<trkpt lat="46.3512345" lon="13.9143399">
<ele>1417.88</ele>
<time>2026-07-12T09:42:31.000Z</time>
</trkpt>
<trkpt lat="46.3510514" lon="13.9144338">
<ele>1417.09</ele>
<time>2026-07-12T09:42:42.000Z</time>
</trkpt>
<trkpt lat="46.3508736" lon="13.9144969">
<ele>1414.36</ele>
<time>2026-07-12T09:42:54.000Z</time>
</trkpt>
<trkpt lat="46.3506858" lon="13.9144516">
<ele>1410.95</ele>
<time>2026-07-12T09:43:08.000Z</time>
</trkpt>
<trkpt lat="46.3505016" lon="13.9144248">
<ele>1409.50</ele>
<time>2026-07-12T09:43:22.000Z</time>
</trkpt>
<trkpt lat="46.3503667" lon="13.9146067">
<ele>1405.62</ele>
<time>2026-07-12T09:43:33.000Z</time>
</trkpt>
<trkpt lat="46.3502397" lon="13.9148114">
<ele>1400.76</ele>
<time>2026-07-12T09:43:43.000Z</time>
</trkpt>
<trkpt lat="46.3500698" lon="13.9149390">
<ele>1397.44</ele>
<time>2026-07-12T09:43:55.000Z</time>
</trkpt>
<trkpt lat="46.3498944" lon="13.9148803">
<ele>1393.85</ele>
<time>2026-07-12T09:44:11.000Z</time>
</trkpt>
<trkpt lat="46.3497136" lon="13.9148632">
<ele>1388.72</ele>
<time>2026-07-12T09:44:25.000Z</time>
</trkpt>
<trkpt lat="46.3495190" lon="13.9148780">
<ele>1389.03</ele>
<time>2026-07-12T09:44:36.000Z</time>
</trkpt>
<trkpt lat="46.3493478" lon="13.9149825">
<ele>1392.92</ele>
<time>2026-07-12T09:44:47.000Z</time>
</trkpt>
<trkpt lat="46.3491857" lon="13.9151032">
<ele>1387.68</ele>
<time>2026-07-12T09:44:55.000Z</time>
</trkpt>
<trkpt lat="46.3490205" lon="13.9152291">
<ele>1386.98</ele>
<time>2026-07-12T09:45:05.000Z</time>
</trkpt>
<trkpt lat="46.3488483" lon="13.9153657">
<ele>1386.58</ele>
<time>2026-07-12T09:45:19.000Z</time>
</trkpt>
<trkpt lat="46.3487018" lon="13.9155413">
<ele>1378.78</ele>
<time>2026-07-12T09:45:32.000Z</time>
</trkpt>
<trkpt lat="46.3485267" lon="13.9156563">
<ele>1377.13</ele>
<time>2026-07-12T09:45:42.000Z</time>
</trkpt>
<trkpt lat="46.3483565" lon="13.9157674">
<ele>1371.24</ele>
<time>2026-07-12T09:45:57.000Z</time>
</trkpt>
<trkpt lat="46.3482489" lon="13.9159864">
<ele>1368.68</ele>
<time>2026-07-12T09:46:28.000Z</time>
</trkpt>
<trkpt lat="46.3481687" lon="13.9162377">
<ele>1367.68</ele>
<time>2026-07-12T09:46:40.000Z</time>
</trkpt>
<trkpt lat="46.3480932" lon="13.9164863">
<ele>1367.59</ele>
<time>2026-07-12T09:46:52.000Z</time>
</trkpt>
<trkpt lat="46.3480347" lon="13.9167560">
<ele>1364.50</ele>
<time>2026-07-12T09:47:07.000Z</time>
</trkpt>
<trkpt lat="46.3479190" lon="13.9169699">
<ele>1360.82</ele>
<time>2026-07-12T09:47:21.000Z</time>
</trkpt>
<trkpt lat="46.3478371" lon="13.9172187">
<ele>1363.52</ele>
<time>2026-07-12T09:47:30.000Z</time>
</trkpt>
<trkpt lat="46.3477977" lon="13.9174744">
<ele>1368.22</ele>
<time>2026-07-12T09:47:41.000Z</time>
</trkpt>
<trkpt lat="46.3477796" lon="13.9177433">
<ele>1372.74</ele>
<time>2026-07-12T09:47:52.000Z</time>
</trkpt>
<trkpt lat="46.3477574" lon="13.9180260">
<ele>1371.79</ele>
<time>2026-07-12T09:48:03.000Z</time>
</trkpt>
<trkpt lat="46.3477824" lon="13.9182887">
<ele>1367.53</ele>
<time>2026-07-12T09:48:12.000Z</time>
</trkpt>
<trkpt lat="46.3477903" lon="13.9185673">
<ele>1367.40</ele>
<time>2026-07-12T09:48:26.000Z</time>
</trkpt>
<trkpt lat="46.3477440" lon="13.9188364">
<ele>1364.84</ele>
<time>2026-07-12T09:48:38.000Z</time>
</trkpt>
<trkpt lat="46.3477356" lon="13.9191134">
<ele>1364.61</ele>
<time>2026-07-12T09:48:53.000Z</time>
</trkpt>
<trkpt lat="46.3477496" lon="13.9193941">
<ele>1364.73</ele>
<time>2026-07-12T09:49:03.000Z</time>
</trkpt>
<trkpt lat="46.3476941" lon="13.9196598">
<ele>1366.65</ele>
<time>2026-07-12T09:49:14.000Z</time>
</trkpt>
<trkpt lat="46.3476383" lon="13.9199114">
<ele>1364.56</ele>
<time>2026-07-12T09:49:24.000Z</time>
</trkpt>
<trkpt lat="46.3475205" lon="13.9201329">
<ele>1364.55</ele>
<time>2026-07-12T09:49:35.000Z</time>
</trkpt>
<trkpt lat="46.3473658" lon="13.9202827">
<ele>1361.89</ele>
<time>2026-07-12T09:49:48.000Z</time>
</trkpt>
<trkpt lat="46.3472400" lon="13.9204915">
<ele>1362.71</ele>
<time>2026-07-12T09:50:00.000Z</time>
</trkpt>
<trkpt lat="46.3471155" lon="13.9207222">
<ele>1360.64</ele>
<time>2026-07-12T09:50:10.000Z</time>
</trkpt>
<trkpt lat="46.3469790" lon="13.9209118">
<ele>1364.80</ele>
<time>2026-07-12T09:50:23.000Z</time>
</trkpt>
<trkpt lat="46.3468428" lon="13.9211142">
<ele>1358.48</ele>
<time>2026-07-12T09:50:33.000Z</time>
</trkpt>
<trkpt lat="46.3466949" lon="13.9212970">
<ele>1357.26</ele>
<time>2026-07-12T09:50:43.000Z</time>
</trkpt>
<trkpt lat="46.3465385" lon="13.9214403">
<ele>1357.33</ele>
<time>2026-07-12T09:50:56.000Z</time>
</trkpt>
<trkpt lat="46.3464570" lon="13.9216779">
<ele>1351.42</ele>
<time>2026-07-12T09:51:05.000Z</time>
</trkpt>
<trkpt lat="46.3462944" lon="13.9218355">
<ele>1358.03</ele>
<time>2026-07-12T09:51:14.000Z</time>
</trkpt>
<trkpt lat="46.3462031" lon="13.9220674">
<ele>1355.80</ele>
<time>2026-07-12T09:51:21.000Z</time>
</trkpt>
<trkpt lat="46.3460795" lon="13.9222710">
<ele>1351.29</ele>
<time>2026-07-12T09:51:33.000Z</time>
</trkpt>
<trkpt lat="46.3459168" lon="13.9223878">
<ele>1352.81</ele>
<time>2026-07-12T09:51:43.000Z</time>
</trkpt>
<trkpt lat="46.3457770" lon="13.9225918">
<ele>1349.24</ele>
<time>2026-07-12T09:51:53.000Z</time>
</trkpt>
<trkpt lat="46.3456530" lon="13.9227891">
<ele>1346.92</ele>
<time>2026-07-12T09:52:05.000Z</time>
</trkpt>
<trkpt lat="46.3455574" lon="13.9230234">
<ele>1346.73</ele>
<time>2026-07-12T09:52:15.000Z</time>
</trkpt>
<trkpt lat="46.3456646" lon="13.9232400">
<ele>1338.99</ele>
<time>2026-07-12T09:52:32.000Z</time>
</trkpt>
<trkpt lat="46.3458379" lon="13.9233828">
<ele>1339.88</ele>
<time>2026-07-12T09:52:47.000Z</time>
</trkpt>
<trkpt lat="46.3459988" lon="13.9235397">
<ele>1339.30</ele>
<time>2026-07-12T09:52:57.000Z</time>
</trkpt>
<trkpt lat="46.3461630" lon="13.9236567">
<ele>1339.20</ele>
<time>2026-07-12T09:53:07.000Z</time>
</trkpt>
<trkpt lat="46.3463449" lon="13.9237310">
<ele>1337.43</ele>
<time>2026-07-12T09:53:19.000Z</time>
</trkpt>
<trkpt lat="46.3465213" lon="13.9238104">
<ele>1339.51</ele>
<time>2026-07-12T09:53:31.000Z</time>
</trkpt>
<trkpt lat="46.3466757" lon="13.9239453">
<ele>1339.24</ele>
<time>2026-07-12T09:53:40.000Z</time>
</trkpt>
<trkpt lat="46.3468094" lon="13.9241252">
<ele>1338.41</ele>
<time>2026-07-12T09:53:51.000Z</time>
</trkpt>
<trkpt lat="46.3469485" lon="13.9243152">
<ele>1345.84</ele>
<time>2026-07-12T09:54:02.000Z</time>
</trkpt>
<trkpt lat="46.3470979" lon="13.9244811">
<ele>1340.65</ele>
<time>2026-07-12T09:54:23.000Z</time>
</trkpt>
<trkpt lat="46.3472743" lon="13.9245908">
<ele>1341.94</ele>
<time>2026-07-12T09:54:33.000Z</time>
</trkpt>
<trkpt lat="46.3474626" lon="13.9246860">
<ele>1342.95</ele>
<time>2026-07-12T09:54:45.000Z</time>
</trkpt>
<trkpt lat="46.3476396" lon="13.9247646">
<ele>1345.00</ele>
<time>2026-07-12T09:55:03.000Z</time>
</trkpt>
<extensions>
<om:oruxmapsextensions>
<om:ext type="NAME" subtype="0"><![CDATA[Segment: 1]]></om:ext>
</om:oruxmapsextensions>
</extensions>
</trkseg>
</trk>
</gpx>
