<?xml version="1.0" encoding="UTF-8" standalone="no" ?>
<gpx xmlns="http://www.topografix.com/GPX/1/1" creator="OruxMaps v.10.7.4 GP" version="1.1" xmlns:gpxtpx="http://www.garmin.com/xmlschemas/TrackPointExtension/v2" xmlns:xsi="http://www.w3.org/2001/XMLSchema-instance" xmlns:om="http://www.oruxmaps.com/oruxmapsextensions/1/0" xsi:schemaLocation="http://www.topografix.com/GPX/1/1 http://www.topografix.com/GPX/1/1/gpx.xsd">
<!-- owner: e57cf051988575 -->
<metadata>
<name><![CDATA[2026-08-16 06:16:06 Dobrač s severa]]></name>
<link href="https://www.oruxmaps.com">
<text>OruxMaps GP</text>
</link>
<time>2026-08-16T04:16:06.432Z</time><bounds maxlat="46.6266654" maxlon="13.6722906" minlat="46.6017429" minlon="13.6344127"/>
</metadata>
<wpt lat="46.6266654" lon="13.6504844">
<ele>924.47</ele>
<time>2026-08-16T04:16:47.771Z</time>
<name><![CDATA[]]></name>
<sym>Waypoint</sym>
<type>Starting Point</type>
<extensions>
<om:oruxmapsextensions>
<om:ext type="ICON" subtype="0">38</om:ext>
</om:oruxmapsextensions>
</extensions>
</wpt>
<wpt lat="46.6266467" lon="13.6505856">
<ele>910.86</ele>
<time>2026-08-16T10:41:21.022Z</time>
<name><![CDATA[]]></name>
<desc><![CDATA[<p><br /><h3>Name: Segment: 1</h3><br />Type: Hiking<br/>Start time: 06:16 16 Aug 2026<br/>Finish time: 12:41 16 Aug 2026<br/>Distance: 14.6km (06:24)<br/>Moving time: 04:52<br/>Average speed: 2.28 km/h<br/>Speed in Movement: 2.99 km/h<br/>Maximum Speed: 8.77 km/h<br/>Minimum altitude: 911 m<br/>Maximum altitude: 2164 m<br/>Ascent speed: 731.9 m/h<br/>Descent speed: 654.9 m/h<br/>Elevation gain: 1607 m<br/>Elevation loss: 1603 m<br/>Ascent time: 02:11<br/>Descent time: 02:26<br/></p>]]></desc>
<sym>Waypoint</sym>
<type>Finishing Point</type>
<extensions>
<om:oruxmapsextensions>
<om:ext type="ICON" subtype="0">15</om:ext>
</om:oruxmapsextensions>
</extensions>
</wpt>
<trk>
<name><![CDATA[2026-08-16 06:16:06 Dobrač s severa]]></name>
<desc><![CDATA[<p>Type: Hiking<br/>Start time: 06:16 16 Aug 2026<br/>Finish time: 12:41 16 Aug 2026<br/>Distance: 15.0 km (06:24)<br/>Moving time: 04:34<br/>Average speed: 2.34 km/h<br/>Speed in Movement: 3.27 km/h<br/>Maximum Speed: 8.77 km/h<br/>Minimum altitude: 910 m<br/>Maximum altitude: 2164 m<br/>Ascent speed: 642.1 m/h<br/>Descent speed: 845.2 m/h<br/>Elevation gain: 1664 m<br/>Elevation loss: 1678 m<br/>Ascent time: 02:35<br/>Descent time: 01:59<br/></p><hr align="center" width="480" style="height: 2px; width: 517px"/>]]></desc>
<type>Hiking</type>
<extensions>
<om:oruxmapsextensions>
<om:ext type="TYPE" subtype="0">5</om:ext>
<om:ext type="DIFFICULTY">0</om:ext>
</om:oruxmapsextensions>
</extensions>
<trkseg>
<trkpt lat="46.6266654" lon="13.6504844">
<ele>924.47</ele>
<time>2026-08-16T04:16:49.000Z</time>
</trkpt>
<trkpt lat="46.6264937" lon="13.6503571">
<ele>911.12</ele>
<time>2026-08-16T04:18:12.000Z</time>
</trkpt>
<trkpt lat="46.6263020" lon="13.6504125">
<ele>910.74</ele>
<time>2026-08-16T04:18:24.000Z</time>
</trkpt>
<trkpt lat="46.6261188" lon="13.6504465">
<ele>916.46</ele>
<time>2026-08-16T04:18:36.000Z</time>
</trkpt>
<trkpt lat="46.6260616" lon="13.6501874">
<ele>914.31</ele>
<time>2026-08-16T04:18:57.000Z</time>
</trkpt>
<trkpt lat="46.6260285" lon="13.6499163">
<ele>914.53</ele>
<time>2026-08-16T04:19:08.000Z</time>
</trkpt>
<trkpt lat="46.6259923" lon="13.6496551">
<ele>914.88</ele>
<time>2026-08-16T04:19:19.000Z</time>
</trkpt>
<trkpt lat="46.6258858" lon="13.6494174">
<ele>915.37</ele>
<time>2026-08-16T04:19:30.000Z</time>
</trkpt>
<trkpt lat="46.6257096" lon="13.6493014">
<ele>920.29</ele>
<time>2026-08-16T04:19:40.000Z</time>
</trkpt>
<trkpt lat="46.6255315" lon="13.6492521">
<ele>921.45</ele>
<time>2026-08-16T04:19:52.000Z</time>
</trkpt>
<trkpt lat="46.6253457" lon="13.6493348">
<ele>920.63</ele>
<time>2026-08-16T04:20:06.000Z</time>
</trkpt>
<trkpt lat="46.6251582" lon="13.6493257">
<ele>920.07</ele>
<time>2026-08-16T04:20:19.000Z</time>
</trkpt>
<trkpt lat="46.6249677" lon="13.6493654">
<ele>925.10</ele>
<time>2026-08-16T04:20:34.000Z</time>
</trkpt>
<trkpt lat="46.6247974" lon="13.6492746">
<ele>927.12</ele>
<time>2026-08-16T04:20:48.000Z</time>
</trkpt>
<trkpt lat="46.6246716" lon="13.6490788">
<ele>930.95</ele>
<time>2026-08-16T04:21:02.000Z</time>
</trkpt>
<trkpt lat="46.6246004" lon="13.6488157">
<ele>929.77</ele>
<time>2026-08-16T04:21:13.000Z</time>
</trkpt>
<trkpt lat="46.6245727" lon="13.6485532">
<ele>929.05</ele>
<time>2026-08-16T04:21:24.000Z</time>
</trkpt>
<trkpt lat="46.6245975" lon="13.6482699">
<ele>929.10</ele>
<time>2026-08-16T04:21:37.000Z</time>
</trkpt>
<trkpt lat="46.6246114" lon="13.6480083">
<ele>929.31</ele>
<time>2026-08-16T04:21:49.000Z</time>
</trkpt>
<trkpt lat="46.6245596" lon="13.6477371">
<ele>931.14</ele>
<time>2026-08-16T04:22:02.000Z</time>
</trkpt>
<trkpt lat="46.6245201" lon="13.6474549">
<ele>932.74</ele>
<time>2026-08-16T04:22:17.000Z</time>
</trkpt>
<trkpt lat="46.6244947" lon="13.6471830">
<ele>934.65</ele>
<time>2026-08-16T04:22:30.000Z</time>
</trkpt>
<trkpt lat="46.6244121" lon="13.6469418">
<ele>935.61</ele>
<time>2026-08-16T04:22:43.000Z</time>
</trkpt>
<trkpt lat="46.6243245" lon="13.6466988">
<ele>941.70</ele>
<time>2026-08-16T04:22:56.000Z</time>
</trkpt>
<trkpt lat="46.6241975" lon="13.6464863">
<ele>943.58</ele>
<time>2026-08-16T04:23:12.000Z</time>
</trkpt>
<trkpt lat="46.6240667" lon="13.6462613">
<ele>953.04</ele>
<time>2026-08-16T04:23:32.000Z</time>
</trkpt>
<trkpt lat="46.6239460" lon="13.6460426">
<ele>955.64</ele>
<time>2026-08-16T04:23:41.000Z</time>
</trkpt>
<trkpt lat="46.6238857" lon="13.6457882">
<ele>954.70</ele>
<time>2026-08-16T04:23:54.000Z</time>
</trkpt>
<trkpt lat="46.6238717" lon="13.6455098">
<ele>959.53</ele>
<time>2026-08-16T04:24:06.000Z</time>
</trkpt>
<trkpt lat="46.6238238" lon="13.6452547">
<ele>957.23</ele>
<time>2026-08-16T04:24:24.000Z</time>
</trkpt>
<trkpt lat="46.6237419" lon="13.6450105">
<ele>959.72</ele>
<time>2026-08-16T04:24:40.000Z</time>
</trkpt>
<trkpt lat="46.6236789" lon="13.6447626">
<ele>964.19</ele>
<time>2026-08-16T04:24:56.000Z</time>
</trkpt>
<trkpt lat="46.6235341" lon="13.6445723">
<ele>970.78</ele>
<time>2026-08-16T04:25:24.000Z</time>
</trkpt>
<trkpt lat="46.6234071" lon="13.6443624">
<ele>972.78</ele>
<time>2026-08-16T04:25:44.000Z</time>
</trkpt>
<trkpt lat="46.6232887" lon="13.6441494">
<ele>978.37</ele>
<time>2026-08-16T04:26:05.000Z</time>
</trkpt>
<trkpt lat="46.6231949" lon="13.6439156">
<ele>981.13</ele>
<time>2026-08-16T04:26:19.000Z</time>
</trkpt>
<trkpt lat="46.6230368" lon="13.6437825">
<ele>988.89</ele>
<time>2026-08-16T04:26:38.000Z</time>
</trkpt>
<trkpt lat="46.6228516" lon="13.6437562">
<ele>996.22</ele>
<time>2026-08-16T04:27:09.000Z</time>
</trkpt>
<trkpt lat="46.6226674" lon="13.6437293">
<ele>1004.07</ele>
<time>2026-08-16T04:27:27.000Z</time>
</trkpt>
<trkpt lat="46.6224733" lon="13.6437523">
<ele>1003.23</ele>
<time>2026-08-16T04:27:42.000Z</time>
</trkpt>
<trkpt lat="46.6222785" lon="13.6437735">
<ele>1001.36</ele>
<time>2026-08-16T04:27:55.000Z</time>
</trkpt>
<trkpt lat="46.6220857" lon="13.6437540">
<ele>1002.21</ele>
<time>2026-08-16T04:28:04.000Z</time>
</trkpt>
<trkpt lat="46.6218960" lon="13.6437309">
<ele>1005.06</ele>
<time>2026-08-16T04:28:16.000Z</time>
</trkpt>
<trkpt lat="46.6217187" lon="13.6436726">
<ele>1009.34</ele>
<time>2026-08-16T04:28:37.000Z</time>
</trkpt>
<trkpt lat="46.6215346" lon="13.6436414">
<ele>1009.20</ele>
<time>2026-08-16T04:29:27.000Z</time>
</trkpt>
<trkpt lat="46.6213815" lon="13.6434944">
<ele>1011.36</ele>
<time>2026-08-16T04:29:47.000Z</time>
</trkpt>
<trkpt lat="46.6214347" lon="13.6432439">
<ele>1025.22</ele>
<time>2026-08-16T04:31:12.000Z</time>
</trkpt>
<trkpt lat="46.6216112" lon="13.6431117">
<ele>1030.97</ele>
<time>2026-08-16T04:31:23.000Z</time>
</trkpt>
<trkpt lat="46.6215345" lon="13.6428740">
<ele>1046.23</ele>
<time>2026-08-16T04:32:00.000Z</time>
</trkpt>
<trkpt lat="46.6213576" lon="13.6427894">
<ele>1050.33</ele>
<time>2026-08-16T04:32:20.000Z</time>
</trkpt>
<trkpt lat="46.6212114" lon="13.6426144">
<ele>1054.66</ele>
<time>2026-08-16T04:32:43.000Z</time>
</trkpt>
<trkpt lat="46.6210361" lon="13.6427195">
<ele>1062.51</ele>
<time>2026-08-16T04:33:00.000Z</time>
</trkpt>
<trkpt lat="46.6209093" lon="13.6429103">
<ele>1063.24</ele>
<time>2026-08-16T04:33:13.000Z</time>
</trkpt>
<trkpt lat="46.6207558" lon="13.6430604">
<ele>1062.16</ele>
<time>2026-08-16T04:33:28.000Z</time>
</trkpt>
<trkpt lat="46.6205834" lon="13.6431681">
<ele>1067.46</ele>
<time>2026-08-16T04:33:43.000Z</time>
</trkpt>
<trkpt lat="46.6204234" lon="13.6432890">
<ele>1072.61</ele>
<time>2026-08-16T04:33:58.000Z</time>
</trkpt>
<trkpt lat="46.6202393" lon="13.6433391">
<ele>1079.11</ele>
<time>2026-08-16T04:34:21.000Z</time>
</trkpt>
<trkpt lat="46.6200979" lon="13.6431734">
<ele>1084.86</ele>
<time>2026-08-16T04:34:40.000Z</time>
</trkpt>
<trkpt lat="46.6199356" lon="13.6430268">
<ele>1088.35</ele>
<time>2026-08-16T04:34:59.000Z</time>
</trkpt>
<trkpt lat="46.6197847" lon="13.6428554">
<ele>1096.34</ele>
<time>2026-08-16T04:35:12.000Z</time>
</trkpt>
<trkpt lat="46.6196099" lon="13.6427261">
<ele>1100.21</ele>
<time>2026-08-16T04:35:22.000Z</time>
</trkpt>
<trkpt lat="46.6194277" lon="13.6426583">
<ele>1101.51</ele>
<time>2026-08-16T04:35:33.000Z</time>
</trkpt>
<trkpt lat="46.6192468" lon="13.6426793">
<ele>1103.32</ele>
<time>2026-08-16T04:35:48.000Z</time>
</trkpt>
<trkpt lat="46.6191102" lon="13.6428667">
<ele>1099.00</ele>
<time>2026-08-16T04:35:58.000Z</time>
</trkpt>
<trkpt lat="46.6189309" lon="13.6429168">
<ele>1107.67</ele>
<time>2026-08-16T04:36:11.000Z</time>
</trkpt>
<trkpt lat="46.6187509" lon="13.6429191">
<ele>1108.33</ele>
<time>2026-08-16T04:36:23.000Z</time>
</trkpt>
<trkpt lat="46.6186120" lon="13.6431032">
<ele>1109.93</ele>
<time>2026-08-16T04:36:44.000Z</time>
</trkpt>
<trkpt lat="46.6184263" lon="13.6432073">
<ele>1107.20</ele>
<time>2026-08-16T04:36:57.000Z</time>
</trkpt>
<trkpt lat="46.6182503" lon="13.6433075">
<ele>1110.58</ele>
<time>2026-08-16T04:37:07.000Z</time>
</trkpt>
<trkpt lat="46.6180953" lon="13.6434679">
<ele>1109.23</ele>
<time>2026-08-16T04:37:15.000Z</time>
</trkpt>
<trkpt lat="46.6179638" lon="13.6436488">
<ele>1112.23</ele>
<time>2026-08-16T04:37:28.000Z</time>
</trkpt>
<trkpt lat="46.6178586" lon="13.6438643">
<ele>1124.05</ele>
<time>2026-08-16T04:37:49.000Z</time>
</trkpt>
<trkpt lat="46.6176921" lon="13.6439845">
<ele>1130.99</ele>
<time>2026-08-16T04:38:06.000Z</time>
</trkpt>
<trkpt lat="46.6175032" lon="13.6439821">
<ele>1129.07</ele>
<time>2026-08-16T04:38:35.000Z</time>
</trkpt>
<trkpt lat="46.6173077" lon="13.6439212">
<ele>1128.15</ele>
<time>2026-08-16T04:38:44.000Z</time>
</trkpt>
<trkpt lat="46.6171175" lon="13.6439411">
<ele>1128.86</ele>
<time>2026-08-16T04:38:58.000Z</time>
</trkpt>
<trkpt lat="46.6169297" lon="13.6439645">
<ele>1133.98</ele>
<time>2026-08-16T04:39:18.000Z</time>
</trkpt>
<trkpt lat="46.6167571" lon="13.6440604">
<ele>1140.34</ele>
<time>2026-08-16T04:39:31.000Z</time>
</trkpt>
<trkpt lat="46.6165852" lon="13.6441559">
<ele>1150.38</ele>
<time>2026-08-16T04:39:49.000Z</time>
</trkpt>
<trkpt lat="46.6164047" lon="13.6440969">
<ele>1149.22</ele>
<time>2026-08-16T04:40:07.000Z</time>
</trkpt>
<trkpt lat="46.6162150" lon="13.6440604">
<ele>1147.82</ele>
<time>2026-08-16T04:40:17.000Z</time>
</trkpt>
<trkpt lat="46.6160575" lon="13.6439329">
<ele>1145.48</ele>
<time>2026-08-16T04:40:29.000Z</time>
</trkpt>
<trkpt lat="46.6158799" lon="13.6438731">
<ele>1146.42</ele>
<time>2026-08-16T04:40:47.000Z</time>
</trkpt>
<trkpt lat="46.6157000" lon="13.6438595">
<ele>1150.59</ele>
<time>2026-08-16T04:40:59.000Z</time>
</trkpt>
<trkpt lat="46.6155057" lon="13.6439106">
<ele>1161.48</ele>
<time>2026-08-16T04:41:13.000Z</time>
</trkpt>
<trkpt lat="46.6153237" lon="13.6439782">
<ele>1160.71</ele>
<time>2026-08-16T04:41:26.000Z</time>
</trkpt>
<trkpt lat="46.6151742" lon="13.6441335">
<ele>1160.72</ele>
<time>2026-08-16T04:41:36.000Z</time>
</trkpt>
<trkpt lat="46.6150021" lon="13.6442337">
<ele>1164.72</ele>
<time>2026-08-16T04:41:52.000Z</time>
</trkpt>
<trkpt lat="46.6148517" lon="13.6443876">
<ele>1168.29</ele>
<time>2026-08-16T04:42:06.000Z</time>
</trkpt>
<trkpt lat="46.6146720" lon="13.6444540">
<ele>1176.39</ele>
<time>2026-08-16T04:42:31.000Z</time>
</trkpt>
<trkpt lat="46.6144937" lon="13.6445413">
<ele>1181.52</ele>
<time>2026-08-16T04:42:44.000Z</time>
</trkpt>
<trkpt lat="46.6143101" lon="13.6446096">
<ele>1192.84</ele>
<time>2026-08-16T04:43:01.000Z</time>
</trkpt>
<trkpt lat="46.6141162" lon="13.6445831">
<ele>1191.76</ele>
<time>2026-08-16T04:43:17.000Z</time>
</trkpt>
<trkpt lat="46.6139204" lon="13.6445740">
<ele>1192.24</ele>
<time>2026-08-16T04:43:30.000Z</time>
</trkpt>
<trkpt lat="46.6137377" lon="13.6445160">
<ele>1189.66</ele>
<time>2026-08-16T04:43:46.000Z</time>
</trkpt>
<trkpt lat="46.6135443" lon="13.6444600">
<ele>1190.31</ele>
<time>2026-08-16T04:43:59.000Z</time>
</trkpt>
<trkpt lat="46.6133630" lon="13.6444494">
<ele>1191.97</ele>
<time>2026-08-16T04:44:10.000Z</time>
</trkpt>
<trkpt lat="46.6131846" lon="13.6444130">
<ele>1195.88</ele>
<time>2026-08-16T04:44:22.000Z</time>
</trkpt>
<trkpt lat="46.6130031" lon="13.6443980">
<ele>1195.48</ele>
<time>2026-08-16T04:44:32.000Z</time>
</trkpt>
<trkpt lat="46.6128653" lon="13.6442181">
<ele>1195.40</ele>
<time>2026-08-16T04:44:45.000Z</time>
</trkpt>
<trkpt lat="46.6126862" lon="13.6441802">
<ele>1192.48</ele>
<time>2026-08-16T04:45:05.000Z</time>
</trkpt>
<trkpt lat="46.6125061" lon="13.6442379">
<ele>1192.34</ele>
<time>2026-08-16T04:45:12.000Z</time>
</trkpt>
<trkpt lat="46.6123080" lon="13.6442599">
<ele>1194.22</ele>
<time>2026-08-16T04:45:26.000Z</time>
</trkpt>
<trkpt lat="46.6121284" lon="13.6442430">
<ele>1196.32</ele>
<time>2026-08-16T04:45:35.000Z</time>
</trkpt>
<trkpt lat="46.6119403" lon="13.6442495">
<ele>1196.20</ele>
<time>2026-08-16T04:45:48.000Z</time>
</trkpt>
<trkpt lat="46.6117570" lon="13.6441901">
<ele>1195.07</ele>
<time>2026-08-16T04:45:59.000Z</time>
</trkpt>
<trkpt lat="46.6115713" lon="13.6441843">
<ele>1195.87</ele>
<time>2026-08-16T04:46:13.000Z</time>
</trkpt>
<trkpt lat="46.6113781" lon="13.6441962">
<ele>1195.42</ele>
<time>2026-08-16T04:46:23.000Z</time>
</trkpt>
<trkpt lat="46.6112025" lon="13.6442618">
<ele>1195.17</ele>
<time>2026-08-16T04:46:35.000Z</time>
</trkpt>
<trkpt lat="46.6110184" lon="13.6442855">
<ele>1201.48</ele>
<time>2026-08-16T04:47:31.000Z</time>
</trkpt>
<trkpt lat="46.6108201" lon="13.6443454">
<ele>1206.99</ele>
<time>2026-08-16T04:47:58.000Z</time>
</trkpt>
<trkpt lat="46.6106661" lon="13.6445231">
<ele>1205.47</ele>
<time>2026-08-16T04:48:08.000Z</time>
</trkpt>
<trkpt lat="46.6105530" lon="13.6447349">
<ele>1209.75</ele>
<time>2026-08-16T04:48:25.000Z</time>
</trkpt>
<trkpt lat="46.6103738" lon="13.6448645">
<ele>1212.78</ele>
<time>2026-08-16T04:48:38.000Z</time>
</trkpt>
<trkpt lat="46.6101983" lon="13.6448050">
<ele>1211.30</ele>
<time>2026-08-16T04:48:58.000Z</time>
</trkpt>
<trkpt lat="46.6100322" lon="13.6446615">
<ele>1206.69</ele>
<time>2026-08-16T04:49:12.000Z</time>
</trkpt>
<trkpt lat="46.6098606" lon="13.6445524">
<ele>1212.96</ele>
<time>2026-08-16T04:49:23.000Z</time>
</trkpt>
<trkpt lat="46.6096811" lon="13.6445918">
<ele>1214.70</ele>
<time>2026-08-16T04:49:34.000Z</time>
</trkpt>
<trkpt lat="46.6094967" lon="13.6446189">
<ele>1216.55</ele>
<time>2026-08-16T04:49:42.000Z</time>
</trkpt>
<trkpt lat="46.6093129" lon="13.6446063">
<ele>1209.23</ele>
<time>2026-08-16T04:50:20.000Z</time>
</trkpt>
<trkpt lat="46.6091900" lon="13.6444143">
<ele>1199.29</ele>
<time>2026-08-16T04:50:42.000Z</time>
</trkpt>
<trkpt lat="46.6090279" lon="13.6442846">
<ele>1199.32</ele>
<time>2026-08-16T04:51:18.000Z</time>
</trkpt>
<trkpt lat="46.6088423" lon="13.6442776">
<ele>1199.15</ele>
<time>2026-08-16T04:51:35.000Z</time>
</trkpt>
<trkpt lat="46.6087914" lon="13.6440078">
<ele>1194.97</ele>
<time>2026-08-16T04:51:49.000Z</time>
</trkpt>
<trkpt lat="46.6088631" lon="13.6437467">
<ele>1190.90</ele>
<time>2026-08-16T04:52:02.000Z</time>
</trkpt>
<trkpt lat="46.6088958" lon="13.6434696">
<ele>1195.28</ele>
<time>2026-08-16T04:52:15.000Z</time>
</trkpt>
<trkpt lat="46.6088397" lon="13.6431975">
<ele>1202.18</ele>
<time>2026-08-16T04:52:27.000Z</time>
</trkpt>
<trkpt lat="46.6088075" lon="13.6429307">
<ele>1209.64</ele>
<time>2026-08-16T04:52:40.000Z</time>
</trkpt>
<trkpt lat="46.6087298" lon="13.6426814">
<ele>1208.62</ele>
<time>2026-08-16T04:52:51.000Z</time>
</trkpt>
<trkpt lat="46.6086880" lon="13.6424216">
<ele>1206.67</ele>
<time>2026-08-16T04:53:04.000Z</time>
</trkpt>
<trkpt lat="46.6085937" lon="13.6421824">
<ele>1212.78</ele>
<time>2026-08-16T04:53:17.000Z</time>
</trkpt>
<trkpt lat="46.6084972" lon="13.6419498">
<ele>1212.59</ele>
<time>2026-08-16T04:53:29.000Z</time>
</trkpt>
<trkpt lat="46.6086139" lon="13.6417398">
<ele>1214.26</ele>
<time>2026-08-16T04:53:38.000Z</time>
</trkpt>
<trkpt lat="46.6086479" lon="13.6414728">
<ele>1220.25</ele>
<time>2026-08-16T04:53:53.000Z</time>
</trkpt>
<trkpt lat="46.6086035" lon="13.6412019">
<ele>1224.20</ele>
<time>2026-08-16T04:54:05.000Z</time>
</trkpt>
<trkpt lat="46.6084383" lon="13.6410632">
<ele>1219.04</ele>
<time>2026-08-16T04:54:13.000Z</time>
</trkpt>
<trkpt lat="46.6084940" lon="13.6408113">
<ele>1224.15</ele>
<time>2026-08-16T04:54:22.000Z</time>
</trkpt>
<trkpt lat="46.6085323" lon="13.6405531">
<ele>1224.90</ele>
<time>2026-08-16T04:54:35.000Z</time>
</trkpt>
<trkpt lat="46.6084101" lon="13.6403442">
<ele>1228.70</ele>
<time>2026-08-16T04:54:50.000Z</time>
</trkpt>
<trkpt lat="46.6083066" lon="13.6401176">
<ele>1227.58</ele>
<time>2026-08-16T04:55:00.000Z</time>
</trkpt>
<trkpt lat="46.6082482" lon="13.6398438">
<ele>1232.23</ele>
<time>2026-08-16T04:55:15.000Z</time>
</trkpt>
<trkpt lat="46.6080985" lon="13.6396744">
<ele>1230.68</ele>
<time>2026-08-16T04:55:26.000Z</time>
</trkpt>
<trkpt lat="46.6080279" lon="13.6394305">
<ele>1233.92</ele>
<time>2026-08-16T04:55:37.000Z</time>
</trkpt>
<trkpt lat="46.6080062" lon="13.6391569">
<ele>1234.10</ele>
<time>2026-08-16T04:55:48.000Z</time>
</trkpt>
<trkpt lat="46.6078976" lon="13.6389275">
<ele>1238.09</ele>
<time>2026-08-16T04:56:02.000Z</time>
</trkpt>
<trkpt lat="46.6078598" lon="13.6392016">
<ele>1236.77</ele>
<time>2026-08-16T04:56:13.000Z</time>
</trkpt>
<trkpt lat="46.6078404" lon="13.6394903">
<ele>1240.47</ele>
<time>2026-08-16T04:56:24.000Z</time>
</trkpt>
<trkpt lat="46.6078596" lon="13.6397693">
<ele>1239.95</ele>
<time>2026-08-16T04:56:39.000Z</time>
</trkpt>
<trkpt lat="46.6079297" lon="13.6400333">
<ele>1244.44</ele>
<time>2026-08-16T04:56:50.000Z</time>
</trkpt>
<trkpt lat="46.6078895" lon="13.6402913">
<ele>1246.97</ele>
<time>2026-08-16T04:57:05.000Z</time>
</trkpt>
<trkpt lat="46.6078751" lon="13.6405663">
<ele>1245.44</ele>
<time>2026-08-16T04:57:17.000Z</time>
</trkpt>
<trkpt lat="46.6078131" lon="13.6408196">
<ele>1249.77</ele>
<time>2026-08-16T04:57:32.000Z</time>
</trkpt>
<trkpt lat="46.6077744" lon="13.6411032">
<ele>1250.15</ele>
<time>2026-08-16T04:57:46.000Z</time>
</trkpt>
<trkpt lat="46.6077211" lon="13.6413639">
<ele>1255.93</ele>
<time>2026-08-16T04:58:01.000Z</time>
</trkpt>
<trkpt lat="46.6076480" lon="13.6416249">
<ele>1258.20</ele>
<time>2026-08-16T04:58:12.000Z</time>
</trkpt>
<trkpt lat="46.6076499" lon="13.6419088">
<ele>1261.53</ele>
<time>2026-08-16T04:58:25.000Z</time>
</trkpt>
<trkpt lat="46.6076450" lon="13.6421810">
<ele>1264.56</ele>
<time>2026-08-16T04:58:39.000Z</time>
</trkpt>
<trkpt lat="46.6076323" lon="13.6424528">
<ele>1267.14</ele>
<time>2026-08-16T04:58:51.000Z</time>
</trkpt>
<trkpt lat="46.6076101" lon="13.6427132">
<ele>1270.55</ele>
<time>2026-08-16T04:59:05.000Z</time>
</trkpt>
<trkpt lat="46.6074878" lon="13.6429261">
<ele>1271.29</ele>
<time>2026-08-16T04:59:19.000Z</time>
</trkpt>
<trkpt lat="46.6074954" lon="13.6431934">
<ele>1274.29</ele>
<time>2026-08-16T04:59:32.000Z</time>
</trkpt>
<trkpt lat="46.6075028" lon="13.6434675">
<ele>1277.03</ele>
<time>2026-08-16T04:59:46.000Z</time>
</trkpt>
<trkpt lat="46.6074106" lon="13.6436938">
<ele>1280.11</ele>
<time>2026-08-16T05:00:03.000Z</time>
</trkpt>
<trkpt lat="46.6073357" lon="13.6439476">
<ele>1281.63</ele>
<time>2026-08-16T05:00:17.000Z</time>
</trkpt>
<trkpt lat="46.6072904" lon="13.6442166">
<ele>1285.11</ele>
<time>2026-08-16T05:00:29.000Z</time>
</trkpt>
<trkpt lat="46.6071851" lon="13.6444390">
<ele>1289.07</ele>
<time>2026-08-16T05:00:43.000Z</time>
</trkpt>
<trkpt lat="46.6071505" lon="13.6446966">
<ele>1290.18</ele>
<time>2026-08-16T05:01:04.000Z</time>
</trkpt>
<trkpt lat="46.6071168" lon="13.6449644">
<ele>1292.86</ele>
<time>2026-08-16T05:01:24.000Z</time>
</trkpt>
<trkpt lat="46.6070477" lon="13.6452161">
<ele>1297.78</ele>
<time>2026-08-16T05:01:35.000Z</time>
</trkpt>
<trkpt lat="46.6069774" lon="13.6454754">
<ele>1297.69</ele>
<time>2026-08-16T05:01:50.000Z</time>
</trkpt>
<trkpt lat="46.6069260" lon="13.6457387">
<ele>1300.28</ele>
<time>2026-08-16T05:02:03.000Z</time>
</trkpt>
<trkpt lat="46.6068769" lon="13.6460055">
<ele>1300.19</ele>
<time>2026-08-16T05:02:17.000Z</time>
</trkpt>
<trkpt lat="46.6068088" lon="13.6462637">
<ele>1303.36</ele>
<time>2026-08-16T05:02:31.000Z</time>
</trkpt>
<trkpt lat="46.6067582" lon="13.6465600">
<ele>1308.66</ele>
<time>2026-08-16T05:02:50.000Z</time>
</trkpt>
<trkpt lat="46.6067517" lon="13.6468290">
<ele>1310.52</ele>
<time>2026-08-16T05:02:58.000Z</time>
</trkpt>
<trkpt lat="46.6066822" lon="13.6465703">
<ele>1316.69</ele>
<time>2026-08-16T05:03:20.000Z</time>
</trkpt>
<trkpt lat="46.6066399" lon="13.6462819">
<ele>1319.67</ele>
<time>2026-08-16T05:03:35.000Z</time>
</trkpt>
<trkpt lat="46.6066168" lon="13.6460199">
<ele>1322.40</ele>
<time>2026-08-16T05:03:47.000Z</time>
</trkpt>
<trkpt lat="46.6066099" lon="13.6457521">
<ele>1323.07</ele>
<time>2026-08-16T05:04:00.000Z</time>
</trkpt>
<trkpt lat="46.6065658" lon="13.6454861">
<ele>1324.75</ele>
<time>2026-08-16T05:04:13.000Z</time>
</trkpt>
<trkpt lat="46.6065826" lon="13.6452086">
<ele>1327.39</ele>
<time>2026-08-16T05:04:25.000Z</time>
</trkpt>
<trkpt lat="46.6065376" lon="13.6449513">
<ele>1329.54</ele>
<time>2026-08-16T05:04:39.000Z</time>
</trkpt>
<trkpt lat="46.6065154" lon="13.6446809">
<ele>1331.56</ele>
<time>2026-08-16T05:04:51.000Z</time>
</trkpt>
<trkpt lat="46.6064981" lon="13.6444087">
<ele>1335.75</ele>
<time>2026-08-16T05:05:03.000Z</time>
</trkpt>
<trkpt lat="46.6064963" lon="13.6441469">
<ele>1337.40</ele>
<time>2026-08-16T05:05:16.000Z</time>
</trkpt>
<trkpt lat="46.6064967" lon="13.6438796">
<ele>1342.09</ele>
<time>2026-08-16T05:05:28.000Z</time>
</trkpt>
<trkpt lat="46.6065135" lon="13.6436163">
<ele>1343.73</ele>
<time>2026-08-16T05:05:40.000Z</time>
</trkpt>
<trkpt lat="46.6064848" lon="13.6433460">
<ele>1345.29</ele>
<time>2026-08-16T05:05:54.000Z</time>
</trkpt>
<trkpt lat="46.6064502" lon="13.6430805">
<ele>1348.26</ele>
<time>2026-08-16T05:06:08.000Z</time>
</trkpt>
<trkpt lat="46.6063827" lon="13.6428274">
<ele>1350.52</ele>
<time>2026-08-16T05:06:23.000Z</time>
</trkpt>
<trkpt lat="46.6063912" lon="13.6425626">
<ele>1353.95</ele>
<time>2026-08-16T05:06:36.000Z</time>
</trkpt>
<trkpt lat="46.6064202" lon="13.6422955">
<ele>1357.19</ele>
<time>2026-08-16T05:06:51.000Z</time>
</trkpt>
<trkpt lat="46.6063791" lon="13.6420387">
<ele>1359.97</ele>
<time>2026-08-16T05:07:04.000Z</time>
</trkpt>
<trkpt lat="46.6064096" lon="13.6417770">
<ele>1362.75</ele>
<time>2026-08-16T05:07:19.000Z</time>
</trkpt>
<trkpt lat="46.6064599" lon="13.6415079">
<ele>1365.68</ele>
<time>2026-08-16T05:07:33.000Z</time>
</trkpt>
<trkpt lat="46.6064152" lon="13.6412429">
<ele>1371.81</ele>
<time>2026-08-16T05:07:47.000Z</time>
</trkpt>
<trkpt lat="46.6062907" lon="13.6410156">
<ele>1374.33</ele>
<time>2026-08-16T05:08:00.000Z</time>
</trkpt>
<trkpt lat="46.6061928" lon="13.6407749">
<ele>1373.19</ele>
<time>2026-08-16T05:08:14.000Z</time>
</trkpt>
<trkpt lat="46.6061483" lon="13.6405150">
<ele>1375.93</ele>
<time>2026-08-16T05:08:27.000Z</time>
</trkpt>
<trkpt lat="46.6061421" lon="13.6402533">
<ele>1376.45</ele>
<time>2026-08-16T05:08:40.000Z</time>
</trkpt>
<trkpt lat="46.6060588" lon="13.6400057">
<ele>1379.01</ele>
<time>2026-08-16T05:08:51.000Z</time>
</trkpt>
<trkpt lat="46.6060135" lon="13.6397324">
<ele>1380.75</ele>
<time>2026-08-16T05:09:03.000Z</time>
</trkpt>
<trkpt lat="46.6059554" lon="13.6394627">
<ele>1382.51</ele>
<time>2026-08-16T05:09:15.000Z</time>
</trkpt>
<trkpt lat="46.6060528" lon="13.6392196">
<ele>1384.09</ele>
<time>2026-08-16T05:09:28.000Z</time>
</trkpt>
<trkpt lat="46.6060089" lon="13.6389401">
<ele>1389.26</ele>
<time>2026-08-16T05:09:41.000Z</time>
</trkpt>
<trkpt lat="46.6059631" lon="13.6386827">
<ele>1390.82</ele>
<time>2026-08-16T05:09:54.000Z</time>
</trkpt>
<trkpt lat="46.6059775" lon="13.6384095">
<ele>1396.63</ele>
<time>2026-08-16T05:10:08.000Z</time>
</trkpt>
<trkpt lat="46.6059410" lon="13.6381433">
<ele>1393.77</ele>
<time>2026-08-16T05:10:21.000Z</time>
</trkpt>
<trkpt lat="46.6060164" lon="13.6378870">
<ele>1393.65</ele>
<time>2026-08-16T05:10:32.000Z</time>
</trkpt>
<trkpt lat="46.6061620" lon="13.6377272">
<ele>1393.78</ele>
<time>2026-08-16T05:10:42.000Z</time>
</trkpt>
<trkpt lat="46.6063162" lon="13.6375819">
<ele>1389.88</ele>
<time>2026-08-16T05:10:52.000Z</time>
</trkpt>
<trkpt lat="46.6062891" lon="13.6373047">
<ele>1388.92</ele>
<time>2026-08-16T05:11:01.000Z</time>
</trkpt>
<trkpt lat="46.6061579" lon="13.6371024">
<ele>1391.17</ele>
<time>2026-08-16T05:11:11.000Z</time>
</trkpt>
<trkpt lat="46.6062399" lon="13.6368681">
<ele>1384.42</ele>
<time>2026-08-16T05:11:22.000Z</time>
</trkpt>
<trkpt lat="46.6063176" lon="13.6366187">
<ele>1381.83</ele>
<time>2026-08-16T05:11:34.000Z</time>
</trkpt>
<trkpt lat="46.6062144" lon="13.6363821">
<ele>1382.03</ele>
<time>2026-08-16T05:11:47.000Z</time>
</trkpt>
<trkpt lat="46.6061434" lon="13.6361383">
<ele>1378.43</ele>
<time>2026-08-16T05:11:58.000Z</time>
</trkpt>
<trkpt lat="46.6060641" lon="13.6358989">
<ele>1375.92</ele>
<time>2026-08-16T05:12:11.000Z</time>
</trkpt>
<trkpt lat="46.6059885" lon="13.6356567">
<ele>1376.26</ele>
<time>2026-08-16T05:12:28.000Z</time>
</trkpt>
<trkpt lat="46.6060865" lon="13.6354113">
<ele>1373.19</ele>
<time>2026-08-16T05:12:41.000Z</time>
</trkpt>
<trkpt lat="46.6059732" lon="13.6352067">
<ele>1373.48</ele>
<time>2026-08-16T05:12:53.000Z</time>
</trkpt>
<trkpt lat="46.6059339" lon="13.6349416">
<ele>1368.82</ele>
<time>2026-08-16T05:13:05.000Z</time>
</trkpt>
<trkpt lat="46.6059377" lon="13.6346791">
<ele>1366.20</ele>
<time>2026-08-16T05:13:17.000Z</time>
</trkpt>
<trkpt lat="46.6059945" lon="13.6344127">
<ele>1362.22</ele>
<time>2026-08-16T05:13:29.000Z</time>
</trkpt>
<trkpt lat="46.6058079" lon="13.6344341">
<ele>1374.74</ele>
<time>2026-08-16T05:14:39.000Z</time>
</trkpt>
<trkpt lat="46.6056855" lon="13.6346387">
<ele>1382.39</ele>
<time>2026-08-16T05:15:12.000Z</time>
</trkpt>
<trkpt lat="46.6055814" lon="13.6348621">
<ele>1388.97</ele>
<time>2026-08-16T05:15:33.000Z</time>
</trkpt>
<trkpt lat="46.6055092" lon="13.6351042">
<ele>1395.00</ele>
<time>2026-08-16T05:15:59.000Z</time>
</trkpt>
<trkpt lat="46.6055101" lon="13.6353838">
<ele>1398.05</ele>
<time>2026-08-16T05:17:14.000Z</time>
</trkpt>
<trkpt lat="46.6055249" lon="13.6356586">
<ele>1403.60</ele>
<time>2026-08-16T05:17:33.000Z</time>
</trkpt>
<trkpt lat="46.6055846" lon="13.6359142">
<ele>1403.48</ele>
<time>2026-08-16T05:17:56.000Z</time>
</trkpt>
<trkpt lat="46.6056217" lon="13.6361862">
<ele>1412.60</ele>
<time>2026-08-16T05:18:31.000Z</time>
</trkpt>
<trkpt lat="46.6056158" lon="13.6364489">
<ele>1414.20</ele>
<time>2026-08-16T05:18:43.000Z</time>
</trkpt>
<trkpt lat="46.6056394" lon="13.6367178">
<ele>1418.83</ele>
<time>2026-08-16T05:19:02.000Z</time>
</trkpt>
<trkpt lat="46.6055852" lon="13.6369782">
<ele>1437.15</ele>
<time>2026-08-16T05:19:42.000Z</time>
</trkpt>
<trkpt lat="46.6055946" lon="13.6372539">
<ele>1438.38</ele>
<time>2026-08-16T05:20:00.000Z</time>
</trkpt>
<trkpt lat="46.6055124" lon="13.6375008">
<ele>1442.26</ele>
<time>2026-08-16T05:20:24.000Z</time>
</trkpt>
<trkpt lat="46.6054881" lon="13.6377649">
<ele>1446.17</ele>
<time>2026-08-16T05:22:12.000Z</time>
</trkpt>
<trkpt lat="46.6055222" lon="13.6380291">
<ele>1440.91</ele>
<time>2026-08-16T05:22:33.000Z</time>
</trkpt>
<trkpt lat="46.6054945" lon="13.6383038">
<ele>1436.15</ele>
<time>2026-08-16T05:23:19.000Z</time>
</trkpt>
<trkpt lat="46.6055163" lon="13.6385679">
<ele>1436.11</ele>
<time>2026-08-16T05:23:32.000Z</time>
</trkpt>
<trkpt lat="46.6054297" lon="13.6388054">
<ele>1437.89</ele>
<time>2026-08-16T05:23:50.000Z</time>
</trkpt>
<trkpt lat="46.6053322" lon="13.6390280">
<ele>1440.53</ele>
<time>2026-08-16T05:24:11.000Z</time>
</trkpt>
<trkpt lat="46.6053226" lon="13.6393028">
<ele>1440.64</ele>
<time>2026-08-16T05:24:36.000Z</time>
</trkpt>
<trkpt lat="46.6052628" lon="13.6395507">
<ele>1458.28</ele>
<time>2026-08-16T05:27:44.000Z</time>
</trkpt>
<trkpt lat="46.6051633" lon="13.6397791">
<ele>1472.15</ele>
<time>2026-08-16T05:30:42.000Z</time>
</trkpt>
<trkpt lat="46.6051907" lon="13.6400405">
<ele>1470.56</ele>
<time>2026-08-16T05:32:17.000Z</time>
</trkpt>
<trkpt lat="46.6053493" lon="13.6401665">
<ele>1459.50</ele>
<time>2026-08-16T05:39:01.000Z</time>
</trkpt>
<trkpt lat="46.6055221" lon="13.6400726">
<ele>1439.29</ele>
<time>2026-08-16T05:43:00.000Z</time>
</trkpt>
<trkpt lat="46.6055144" lon="13.6403356">
<ele>1438.19</ele>
<time>2026-08-16T05:44:06.000Z</time>
</trkpt>
<trkpt lat="46.6054412" lon="13.6405918">
<ele>1436.21</ele>
<time>2026-08-16T05:46:09.000Z</time>
</trkpt>
<trkpt lat="46.6054576" lon="13.6408694">
<ele>1437.88</ele>
<time>2026-08-16T05:46:24.000Z</time>
</trkpt>
<trkpt lat="46.6055215" lon="13.6411264">
<ele>1441.51</ele>
<time>2026-08-16T05:46:40.000Z</time>
</trkpt>
<trkpt lat="46.6055582" lon="13.6413835">
<ele>1436.45</ele>
<time>2026-08-16T05:46:58.000Z</time>
</trkpt>
<trkpt lat="46.6055326" lon="13.6416518">
<ele>1435.60</ele>
<time>2026-08-16T05:47:11.000Z</time>
</trkpt>
<trkpt lat="46.6055200" lon="13.6419180">
<ele>1436.09</ele>
<time>2026-08-16T05:47:40.000Z</time>
</trkpt>
<trkpt lat="46.6054959" lon="13.6421778">
<ele>1432.15</ele>
<time>2026-08-16T05:48:05.000Z</time>
</trkpt>
<trkpt lat="46.6054032" lon="13.6424032">
<ele>1431.54</ele>
<time>2026-08-16T05:49:01.000Z</time>
</trkpt>
<trkpt lat="46.6053391" lon="13.6426638">
<ele>1437.13</ele>
<time>2026-08-16T05:49:21.000Z</time>
</trkpt>
<trkpt lat="46.6052632" lon="13.6429073">
<ele>1439.04</ele>
<time>2026-08-16T05:49:41.000Z</time>
</trkpt>
<trkpt lat="46.6052048" lon="13.6431648">
<ele>1441.84</ele>
<time>2026-08-16T05:49:59.000Z</time>
</trkpt>
<trkpt lat="46.6051591" lon="13.6434186">
<ele>1444.21</ele>
<time>2026-08-16T05:50:17.000Z</time>
</trkpt>
<trkpt lat="46.6050642" lon="13.6436537">
<ele>1444.69</ele>
<time>2026-08-16T05:50:35.000Z</time>
</trkpt>
<trkpt lat="46.6050325" lon="13.6439154">
<ele>1452.17</ele>
<time>2026-08-16T05:51:04.000Z</time>
</trkpt>
<trkpt lat="46.6048890" lon="13.6440789">
<ele>1451.14</ele>
<time>2026-08-16T05:52:06.000Z</time>
</trkpt>
<trkpt lat="46.6048787" lon="13.6438125">
<ele>1463.09</ele>
<time>2026-08-16T05:53:03.000Z</time>
</trkpt>
<trkpt lat="46.6048209" lon="13.6435596">
<ele>1478.93</ele>
<time>2026-08-16T05:53:43.000Z</time>
</trkpt>
<trkpt lat="46.6048114" lon="13.6432945">
<ele>1479.03</ele>
<time>2026-08-16T05:55:16.000Z</time>
</trkpt>
<trkpt lat="46.6046540" lon="13.6434278">
<ele>1483.24</ele>
<time>2026-08-16T05:55:51.000Z</time>
</trkpt>
<trkpt lat="46.6046322" lon="13.6431649">
<ele>1519.74</ele>
<time>2026-08-16T05:58:13.000Z</time>
</trkpt>
<trkpt lat="46.6047253" lon="13.6429401">
<ele>1529.70</ele>
<time>2026-08-16T05:59:32.000Z</time>
</trkpt>
<trkpt lat="46.6045424" lon="13.6429364">
<ele>1545.56</ele>
<time>2026-08-16T06:03:06.000Z</time>
</trkpt>
<trkpt lat="46.6046339" lon="13.6427048">
<ele>1554.92</ele>
<time>2026-08-16T06:04:53.000Z</time>
</trkpt>
<trkpt lat="46.6046481" lon="13.6424361">
<ele>1558.63</ele>
<time>2026-08-16T06:06:26.000Z</time>
</trkpt>
<trkpt lat="46.6047784" lon="13.6422495">
<ele>1556.52</ele>
<time>2026-08-16T06:08:35.000Z</time>
</trkpt>
<trkpt lat="46.6046603" lon="13.6424554">
<ele>1558.86</ele>
<time>2026-08-16T06:17:51.000Z</time>
</trkpt>
<trkpt lat="46.6046050" lon="13.6427114">
<ele>1555.87</ele>
<time>2026-08-16T06:19:10.000Z</time>
</trkpt>
<trkpt lat="46.6045111" lon="13.6429478">
<ele>1545.92</ele>
<time>2026-08-16T06:21:38.000Z</time>
</trkpt>
<trkpt lat="46.6046897" lon="13.6428797">
<ele>1529.99</ele>
<time>2026-08-16T06:26:34.000Z</time>
</trkpt>
<trkpt lat="46.6046433" lon="13.6431407">
<ele>1519.11</ele>
<time>2026-08-16T06:28:20.000Z</time>
</trkpt>
<trkpt lat="46.6046136" lon="13.6434017">
<ele>1507.17</ele>
<time>2026-08-16T06:30:55.000Z</time>
</trkpt>
<trkpt lat="46.6047946" lon="13.6433559">
<ele>1488.32</ele>
<time>2026-08-16T06:32:40.000Z</time>
</trkpt>
<trkpt lat="46.6049207" lon="13.6431658">
<ele>1480.95</ele>
<time>2026-08-16T06:33:08.000Z</time>
</trkpt>
<trkpt lat="46.6050639" lon="13.6430041">
<ele>1468.87</ele>
<time>2026-08-16T06:33:41.000Z</time>
</trkpt>
<trkpt lat="46.6051686" lon="13.6427838">
<ele>1461.93</ele>
<time>2026-08-16T06:34:26.000Z</time>
</trkpt>
<trkpt lat="46.6052336" lon="13.6425268">
<ele>1454.56</ele>
<time>2026-08-16T06:35:14.000Z</time>
</trkpt>
<trkpt lat="46.6053758" lon="13.6423460">
<ele>1446.73</ele>
<time>2026-08-16T06:35:50.000Z</time>
</trkpt>
<trkpt lat="46.6054673" lon="13.6421127">
<ele>1447.23</ele>
<time>2026-08-16T06:36:30.000Z</time>
</trkpt>
<trkpt lat="46.6055387" lon="13.6418708">
<ele>1443.50</ele>
<time>2026-08-16T06:38:13.000Z</time>
</trkpt>
<trkpt lat="46.6056604" lon="13.6416738">
<ele>1441.66</ele>
<time>2026-08-16T06:40:36.000Z</time>
</trkpt>
<trkpt lat="46.6050463" lon="13.6440676">
<ele>1410.87</ele>
<time>2026-08-16T06:42:45.854Z</time>
</trkpt>
<trkpt lat="46.6050731" lon="13.6455033">
<ele>1396.54</ele>
<time>2026-08-16T06:44:55.708Z</time>
</trkpt>
<trkpt lat="46.6052393" lon="13.6463080">
<ele>1436.04</ele>
<time>2026-08-16T06:49:15.417Z</time>
</trkpt>
<trkpt lat="46.6052427" lon="13.6465804">
<ele>1431.07</ele>
<time>2026-08-16T06:49:54.000Z</time>
</trkpt>
<trkpt lat="46.6052639" lon="13.6468532">
<ele>1429.22</ele>
<time>2026-08-16T06:50:21.000Z</time>
</trkpt>
<trkpt lat="46.6051201" lon="13.6470260">
<ele>1435.92</ele>
<time>2026-08-16T06:50:50.000Z</time>
</trkpt>
<trkpt lat="46.6050975" lon="13.6472872">
<ele>1437.00</ele>
<time>2026-08-16T06:51:03.000Z</time>
</trkpt>
<trkpt lat="46.6050760" lon="13.6475497">
<ele>1437.43</ele>
<time>2026-08-16T06:51:23.000Z</time>
</trkpt>
<trkpt lat="46.6050562" lon="13.6478152">
<ele>1448.55</ele>
<time>2026-08-16T06:51:47.000Z</time>
</trkpt>
<trkpt lat="46.6050949" lon="13.6480728">
<ele>1447.84</ele>
<time>2026-08-16T06:52:02.000Z</time>
</trkpt>
<trkpt lat="46.6049739" lon="13.6482671">
<ele>1450.40</ele>
<time>2026-08-16T06:52:21.000Z</time>
</trkpt>
<trkpt lat="46.6048208" lon="13.6484170">
<ele>1466.28</ele>
<time>2026-08-16T06:53:18.000Z</time>
</trkpt>
<trkpt lat="46.6046478" lon="13.6484902">
<ele>1479.05</ele>
<time>2026-08-16T06:54:00.000Z</time>
</trkpt>
<trkpt lat="46.6045856" lon="13.6487427">
<ele>1483.71</ele>
<time>2026-08-16T06:54:24.000Z</time>
</trkpt>
<trkpt lat="46.6044149" lon="13.6488442">
<ele>1481.67</ele>
<time>2026-08-16T06:54:52.000Z</time>
</trkpt>
<trkpt lat="46.6043405" lon="13.6490883">
<ele>1494.67</ele>
<time>2026-08-16T06:56:40.000Z</time>
</trkpt>
<trkpt lat="46.6042694" lon="13.6493346">
<ele>1496.74</ele>
<time>2026-08-16T06:57:11.000Z</time>
</trkpt>
<trkpt lat="46.6042054" lon="13.6495905">
<ele>1507.90</ele>
<time>2026-08-16T06:57:37.000Z</time>
</trkpt>
<trkpt lat="46.6041518" lon="13.6498416">
<ele>1508.73</ele>
<time>2026-08-16T06:58:05.000Z</time>
</trkpt>
<trkpt lat="46.6040863" lon="13.6500855">
<ele>1505.45</ele>
<time>2026-08-16T06:58:40.000Z</time>
</trkpt>
<trkpt lat="46.6039335" lon="13.6502293">
<ele>1508.63</ele>
<time>2026-08-16T06:59:12.000Z</time>
</trkpt>
<trkpt lat="46.6038908" lon="13.6504872">
<ele>1512.17</ele>
<time>2026-08-16T07:00:16.000Z</time>
</trkpt>
<trkpt lat="46.6038147" lon="13.6507315">
<ele>1514.48</ele>
<time>2026-08-16T07:00:41.000Z</time>
</trkpt>
<trkpt lat="46.6037182" lon="13.6509719">
<ele>1516.73</ele>
<time>2026-08-16T07:00:59.000Z</time>
</trkpt>
<trkpt lat="46.6036103" lon="13.6511870">
<ele>1520.65</ele>
<time>2026-08-16T07:01:15.000Z</time>
</trkpt>
<trkpt lat="46.6035504" lon="13.6514352">
<ele>1522.80</ele>
<time>2026-08-16T07:01:30.000Z</time>
</trkpt>
<trkpt lat="46.6034994" lon="13.6516917">
<ele>1529.42</ele>
<time>2026-08-16T07:01:44.000Z</time>
</trkpt>
<trkpt lat="46.6034057" lon="13.6519270">
<ele>1535.97</ele>
<time>2026-08-16T07:02:06.000Z</time>
</trkpt>
<trkpt lat="46.6033383" lon="13.6521744">
<ele>1540.37</ele>
<time>2026-08-16T07:02:26.000Z</time>
</trkpt>
<trkpt lat="46.6032591" lon="13.6524235">
<ele>1544.43</ele>
<time>2026-08-16T07:03:17.000Z</time>
</trkpt>
<trkpt lat="46.6031406" lon="13.6522250">
<ele>1554.49</ele>
<time>2026-08-16T07:05:40.000Z</time>
</trkpt>
<trkpt lat="46.6029605" lon="13.6522782">
<ele>1570.03</ele>
<time>2026-08-16T07:07:56.000Z</time>
</trkpt>
<trkpt lat="46.6030551" lon="13.6520476">
<ele>1574.90</ele>
<time>2026-08-16T07:09:16.000Z</time>
</trkpt>
<trkpt lat="46.6029084" lon="13.6518835">
<ele>1583.99</ele>
<time>2026-08-16T07:10:18.000Z</time>
</trkpt>
<trkpt lat="46.6027877" lon="13.6516825">
<ele>1597.43</ele>
<time>2026-08-16T07:11:23.000Z</time>
</trkpt>
<trkpt lat="46.6025993" lon="13.6516991">
<ele>1616.19</ele>
<time>2026-08-16T07:12:54.000Z</time>
</trkpt>
<trkpt lat="46.6026517" lon="13.6514483">
<ele>1633.18</ele>
<time>2026-08-16T07:16:41.000Z</time>
</trkpt>
<trkpt lat="46.6026869" lon="13.6511854">
<ele>1633.28</ele>
<time>2026-08-16T07:16:55.000Z</time>
</trkpt>
<trkpt lat="46.6028540" lon="13.6510761">
<ele>1638.81</ele>
<time>2026-08-16T07:17:05.000Z</time>
</trkpt>
<trkpt lat="46.6029333" lon="13.6508367">
<ele>1648.71</ele>
<time>2026-08-16T07:17:42.000Z</time>
</trkpt>
<trkpt lat="46.6029088" lon="13.6505740">
<ele>1656.85</ele>
<time>2026-08-16T07:18:04.000Z</time>
</trkpt>
<trkpt lat="46.6028604" lon="13.6503118">
<ele>1662.95</ele>
<time>2026-08-16T07:18:30.000Z</time>
</trkpt>
<trkpt lat="46.6027788" lon="13.6500652">
<ele>1670.12</ele>
<time>2026-08-16T07:19:03.000Z</time>
</trkpt>
<trkpt lat="46.6026717" lon="13.6498435">
<ele>1676.37</ele>
<time>2026-08-16T07:19:33.000Z</time>
</trkpt>
<trkpt lat="46.6025653" lon="13.6500643">
<ele>1680.61</ele>
<time>2026-08-16T07:20:15.000Z</time>
</trkpt>
<trkpt lat="46.6024813" lon="13.6503100">
<ele>1687.76</ele>
<time>2026-08-16T07:20:31.000Z</time>
</trkpt>
<trkpt lat="46.6024255" lon="13.6505722">
<ele>1694.33</ele>
<time>2026-08-16T07:20:56.000Z</time>
</trkpt>
<trkpt lat="46.6023088" lon="13.6507764">
<ele>1699.55</ele>
<time>2026-08-16T07:21:17.000Z</time>
</trkpt>
<trkpt lat="46.6022386" lon="13.6510240">
<ele>1703.89</ele>
<time>2026-08-16T07:21:39.000Z</time>
</trkpt>
<trkpt lat="46.6021404" lon="13.6512493">
<ele>1707.46</ele>
<time>2026-08-16T07:22:05.000Z</time>
</trkpt>
<trkpt lat="46.6020674" lon="13.6514970">
<ele>1712.79</ele>
<time>2026-08-16T07:22:29.000Z</time>
</trkpt>
<trkpt lat="46.6019966" lon="13.6517439">
<ele>1720.13</ele>
<time>2026-08-16T07:22:54.000Z</time>
</trkpt>
<trkpt lat="46.6019239" lon="13.6519959">
<ele>1722.26</ele>
<time>2026-08-16T07:23:11.000Z</time>
</trkpt>
<trkpt lat="46.6018610" lon="13.6522429">
<ele>1725.42</ele>
<time>2026-08-16T07:23:28.000Z</time>
</trkpt>
<trkpt lat="46.6017429" lon="13.6524421">
<ele>1727.88</ele>
<time>2026-08-16T07:23:58.000Z</time>
</trkpt>
<trkpt lat="46.6017812" lon="13.6527005">
<ele>1732.07</ele>
<time>2026-08-16T07:24:52.000Z</time>
</trkpt>
<trkpt lat="46.6018022" lon="13.6524374">
<ele>1723.36</ele>
<time>2026-08-16T07:49:33.000Z</time>
</trkpt>
<trkpt lat="46.6018759" lon="13.6521982">
<ele>1722.16</ele>
<time>2026-08-16T07:49:58.000Z</time>
</trkpt>
<trkpt lat="46.6019485" lon="13.6519527">
<ele>1721.74</ele>
<time>2026-08-16T07:50:20.000Z</time>
</trkpt>
<trkpt lat="46.6020291" lon="13.6517046">
<ele>1719.66</ele>
<time>2026-08-16T07:50:39.000Z</time>
</trkpt>
<trkpt lat="46.6020899" lon="13.6514547">
<ele>1713.53</ele>
<time>2026-08-16T07:51:13.000Z</time>
</trkpt>
<trkpt lat="46.6021727" lon="13.6512182">
<ele>1707.60</ele>
<time>2026-08-16T07:51:39.000Z</time>
</trkpt>
<trkpt lat="46.6022771" lon="13.6509881">
<ele>1705.69</ele>
<time>2026-08-16T07:52:01.000Z</time>
</trkpt>
<trkpt lat="46.6023690" lon="13.6507587">
<ele>1700.22</ele>
<time>2026-08-16T07:52:21.000Z</time>
</trkpt>
<trkpt lat="46.6024187" lon="13.6505067">
<ele>1693.15</ele>
<time>2026-08-16T07:52:45.000Z</time>
</trkpt>
<trkpt lat="46.6025179" lon="13.6502822">
<ele>1687.69</ele>
<time>2026-08-16T07:53:06.000Z</time>
</trkpt>
<trkpt lat="46.6026080" lon="13.6500432">
<ele>1682.63</ele>
<time>2026-08-16T07:53:35.000Z</time>
</trkpt>
<trkpt lat="46.6027705" lon="13.6501690">
<ele>1671.24</ele>
<time>2026-08-16T07:55:24.000Z</time>
</trkpt>
<trkpt lat="46.6028437" lon="13.6504186">
<ele>1661.05</ele>
<time>2026-08-16T07:55:55.000Z</time>
</trkpt>
<trkpt lat="46.6028554" lon="13.6506901">
<ele>1653.66</ele>
<time>2026-08-16T07:56:22.000Z</time>
</trkpt>
<trkpt lat="46.6028796" lon="13.6509525">
<ele>1641.21</ele>
<time>2026-08-16T08:01:02.000Z</time>
</trkpt>
<trkpt lat="46.6027496" lon="13.6511348">
<ele>1638.76</ele>
<time>2026-08-16T08:01:23.000Z</time>
</trkpt>
<trkpt lat="46.6026535" lon="13.6513660">
<ele>1634.62</ele>
<time>2026-08-16T08:01:37.000Z</time>
</trkpt>
<trkpt lat="46.6025653" lon="13.6515946">
<ele>1625.32</ele>
<time>2026-08-16T08:02:37.000Z</time>
</trkpt>
<trkpt lat="46.6026065" lon="13.6518501">
<ele>1622.32</ele>
<time>2026-08-16T08:06:16.000Z</time>
</trkpt>
<trkpt lat="46.6025995" lon="13.6521117">
<ele>1616.15</ele>
<time>2026-08-16T08:08:30.000Z</time>
</trkpt>
<trkpt lat="46.6024888" lon="13.6523314">
<ele>1616.39</ele>
<time>2026-08-16T08:08:55.000Z</time>
</trkpt>
<trkpt lat="46.6024454" lon="13.6525867">
<ele>1620.19</ele>
<time>2026-08-16T08:10:38.000Z</time>
</trkpt>
<trkpt lat="46.6023878" lon="13.6528460">
<ele>1616.60</ele>
<time>2026-08-16T08:11:20.000Z</time>
</trkpt>
<trkpt lat="46.6023606" lon="13.6531104">
<ele>1620.08</ele>
<time>2026-08-16T08:11:45.000Z</time>
</trkpt>
<trkpt lat="46.6023949" lon="13.6533678">
<ele>1615.86</ele>
<time>2026-08-16T08:12:02.000Z</time>
</trkpt>
<trkpt lat="46.6023791" lon="13.6536361">
<ele>1615.14</ele>
<time>2026-08-16T08:12:19.000Z</time>
</trkpt>
<trkpt lat="46.6023664" lon="13.6539078">
<ele>1613.18</ele>
<time>2026-08-16T08:12:35.000Z</time>
</trkpt>
<trkpt lat="46.6023813" lon="13.6541694">
<ele>1603.97</ele>
<time>2026-08-16T08:13:02.000Z</time>
</trkpt>
<trkpt lat="46.6024082" lon="13.6544385">
<ele>1595.68</ele>
<time>2026-08-16T08:13:56.000Z</time>
</trkpt>
<trkpt lat="46.6024073" lon="13.6547060">
<ele>1590.66</ele>
<time>2026-08-16T08:14:33.000Z</time>
</trkpt>
<trkpt lat="46.6024600" lon="13.6549663">
<ele>1595.12</ele>
<time>2026-08-16T08:14:54.000Z</time>
</trkpt>
<trkpt lat="46.6025321" lon="13.6552100">
<ele>1595.34</ele>
<time>2026-08-16T08:15:10.000Z</time>
</trkpt>
<trkpt lat="46.6025673" lon="13.6554706">
<ele>1592.28</ele>
<time>2026-08-16T08:15:26.000Z</time>
</trkpt>
<trkpt lat="46.6026023" lon="13.6557325">
<ele>1590.20</ele>
<time>2026-08-16T08:15:47.000Z</time>
</trkpt>
<trkpt lat="46.6026122" lon="13.6560042">
<ele>1590.85</ele>
<time>2026-08-16T08:16:09.000Z</time>
</trkpt>
<trkpt lat="46.6027034" lon="13.6562367">
<ele>1590.90</ele>
<time>2026-08-16T08:16:25.000Z</time>
</trkpt>
<trkpt lat="46.6027865" lon="13.6564710">
<ele>1591.05</ele>
<time>2026-08-16T08:16:44.000Z</time>
</trkpt>
<trkpt lat="46.6028938" lon="13.6566901">
<ele>1590.11</ele>
<time>2026-08-16T08:17:08.000Z</time>
</trkpt>
<trkpt lat="46.6029530" lon="13.6569404">
<ele>1599.00</ele>
<time>2026-08-16T08:17:54.000Z</time>
</trkpt>
<trkpt lat="46.6029554" lon="13.6572105">
<ele>1604.64</ele>
<time>2026-08-16T08:18:11.000Z</time>
</trkpt>
<trkpt lat="46.6030513" lon="13.6574431">
<ele>1607.87</ele>
<time>2026-08-16T08:19:04.000Z</time>
</trkpt>
<trkpt lat="46.6030651" lon="13.6577043">
<ele>1608.46</ele>
<time>2026-08-16T08:19:40.000Z</time>
</trkpt>
<trkpt lat="46.6032080" lon="13.6578781">
<ele>1606.80</ele>
<time>2026-08-16T08:20:03.000Z</time>
</trkpt>
<trkpt lat="46.6032852" lon="13.6576353">
<ele>1601.38</ele>
<time>2026-08-16T08:20:27.000Z</time>
</trkpt>
<trkpt lat="46.6034683" lon="13.6575926">
<ele>1608.03</ele>
<time>2026-08-16T08:21:10.000Z</time>
</trkpt>
<trkpt lat="46.6036537" lon="13.6575633">
<ele>1617.36</ele>
<time>2026-08-16T08:21:34.000Z</time>
</trkpt>
<trkpt lat="46.6038462" lon="13.6575553">
<ele>1619.92</ele>
<time>2026-08-16T08:21:55.000Z</time>
</trkpt>
<trkpt lat="46.6038897" lon="13.6578190">
<ele>1629.86</ele>
<time>2026-08-16T08:22:36.000Z</time>
</trkpt>
<trkpt lat="46.6040678" lon="13.6578934">
<ele>1639.52</ele>
<time>2026-08-16T08:22:59.000Z</time>
</trkpt>
<trkpt lat="46.6040602" lon="13.6581576">
<ele>1649.41</ele>
<time>2026-08-16T08:23:32.000Z</time>
</trkpt>
<trkpt lat="46.6041367" lon="13.6583946">
<ele>1654.75</ele>
<time>2026-08-16T08:24:04.000Z</time>
</trkpt>
<trkpt lat="46.6043209" lon="13.6584262">
<ele>1664.53</ele>
<time>2026-08-16T08:24:28.000Z</time>
</trkpt>
<trkpt lat="46.6042324" lon="13.6586819">
<ele>1673.76</ele>
<time>2026-08-16T08:25:02.000Z</time>
</trkpt>
<trkpt lat="46.6041041" lon="13.6588894">
<ele>1678.44</ele>
<time>2026-08-16T08:25:20.000Z</time>
</trkpt>
<trkpt lat="46.6042014" lon="13.6591231">
<ele>1686.18</ele>
<time>2026-08-16T08:25:48.000Z</time>
</trkpt>
<trkpt lat="46.6041924" lon="13.6593945">
<ele>1699.79</ele>
<time>2026-08-16T08:26:23.000Z</time>
</trkpt>
<trkpt lat="46.6043254" lon="13.6595870">
<ele>1707.05</ele>
<time>2026-08-16T08:26:50.000Z</time>
</trkpt>
<trkpt lat="46.6043576" lon="13.6598485">
<ele>1718.29</ele>
<time>2026-08-16T08:27:26.000Z</time>
</trkpt>
<trkpt lat="46.6045168" lon="13.6599787">
<ele>1723.91</ele>
<time>2026-08-16T08:27:54.000Z</time>
</trkpt>
<trkpt lat="46.6046986" lon="13.6598912">
<ele>1731.39</ele>
<time>2026-08-16T08:28:11.000Z</time>
</trkpt>
<trkpt lat="46.6046174" lon="13.6601358">
<ele>1736.57</ele>
<time>2026-08-16T08:28:34.000Z</time>
</trkpt>
<trkpt lat="46.6045520" lon="13.6603853">
<ele>1740.03</ele>
<time>2026-08-16T08:28:51.000Z</time>
</trkpt>
<trkpt lat="46.6047322" lon="13.6603733">
<ele>1751.89</ele>
<time>2026-08-16T08:29:10.000Z</time>
</trkpt>
<trkpt lat="46.6049139" lon="13.6604056">
<ele>1757.47</ele>
<time>2026-08-16T08:29:31.000Z</time>
</trkpt>
<trkpt lat="46.6048458" lon="13.6606636">
<ele>1763.73</ele>
<time>2026-08-16T08:29:55.000Z</time>
</trkpt>
<trkpt lat="46.6049547" lon="13.6608778">
<ele>1776.53</ele>
<time>2026-08-16T08:30:25.000Z</time>
</trkpt>
<trkpt lat="46.6049237" lon="13.6611382">
<ele>1781.52</ele>
<time>2026-08-16T08:30:48.000Z</time>
</trkpt>
<trkpt lat="46.6051089" lon="13.6611328">
<ele>1788.97</ele>
<time>2026-08-16T08:31:07.000Z</time>
</trkpt>
<trkpt lat="46.6052476" lon="13.6613189">
<ele>1800.45</ele>
<time>2026-08-16T08:31:47.000Z</time>
</trkpt>
<trkpt lat="46.6053263" lon="13.6615557">
<ele>1813.42</ele>
<time>2026-08-16T08:32:19.000Z</time>
</trkpt>
<trkpt lat="46.6054901" lon="13.6616767">
<ele>1823.97</ele>
<time>2026-08-16T08:32:48.000Z</time>
</trkpt>
<trkpt lat="46.6055445" lon="13.6619385">
<ele>1834.02</ele>
<time>2026-08-16T08:33:14.000Z</time>
</trkpt>
<trkpt lat="46.6057255" lon="13.6619193">
<ele>1841.78</ele>
<time>2026-08-16T08:33:36.000Z</time>
</trkpt>
<trkpt lat="46.6056783" lon="13.6621869">
<ele>1843.07</ele>
<time>2026-08-16T08:33:53.000Z</time>
</trkpt>
<trkpt lat="46.6055942" lon="13.6624256">
<ele>1851.37</ele>
<time>2026-08-16T08:34:11.000Z</time>
</trkpt>
<trkpt lat="46.6055051" lon="13.6626724">
<ele>1856.92</ele>
<time>2026-08-16T08:34:27.000Z</time>
</trkpt>
<trkpt lat="46.6054345" lon="13.6629269">
<ele>1864.75</ele>
<time>2026-08-16T08:34:44.000Z</time>
</trkpt>
<trkpt lat="46.6053470" lon="13.6631724">
<ele>1869.10</ele>
<time>2026-08-16T08:35:01.000Z</time>
</trkpt>
<trkpt lat="46.6052930" lon="13.6634252">
<ele>1872.14</ele>
<time>2026-08-16T08:35:16.000Z</time>
</trkpt>
<trkpt lat="46.6052510" lon="13.6636888">
<ele>1876.94</ele>
<time>2026-08-16T08:35:33.000Z</time>
</trkpt>
<trkpt lat="46.6051660" lon="13.6639312">
<ele>1880.81</ele>
<time>2026-08-16T08:35:51.000Z</time>
</trkpt>
<trkpt lat="46.6049857" lon="13.6639801">
<ele>1889.15</ele>
<time>2026-08-16T08:36:14.000Z</time>
</trkpt>
<trkpt lat="46.6048119" lon="13.6640897">
<ele>1892.88</ele>
<time>2026-08-16T08:36:26.000Z</time>
</trkpt>
<trkpt lat="46.6046492" lon="13.6642349">
<ele>1892.76</ele>
<time>2026-08-16T08:36:38.000Z</time>
</trkpt>
<trkpt lat="46.6045166" lon="13.6644167">
<ele>1897.73</ele>
<time>2026-08-16T08:36:49.000Z</time>
</trkpt>
<trkpt lat="46.6044509" lon="13.6646875">
<ele>1895.84</ele>
<time>2026-08-16T08:37:10.000Z</time>
</trkpt>
<trkpt lat="46.6042755" lon="13.6647679">
<ele>1895.99</ele>
<time>2026-08-16T08:37:28.000Z</time>
</trkpt>
<trkpt lat="46.6040755" lon="13.6647600">
<ele>1902.55</ele>
<time>2026-08-16T08:37:40.000Z</time>
</trkpt>
<trkpt lat="46.6038875" lon="13.6647052">
<ele>1904.30</ele>
<time>2026-08-16T08:37:54.000Z</time>
</trkpt>
<trkpt lat="46.6037023" lon="13.6647303">
<ele>1909.60</ele>
<time>2026-08-16T08:38:06.000Z</time>
</trkpt>
<trkpt lat="46.6035675" lon="13.6649269">
<ele>1914.35</ele>
<time>2026-08-16T08:38:21.000Z</time>
</trkpt>
<trkpt lat="46.6035178" lon="13.6651944">
<ele>1920.39</ele>
<time>2026-08-16T08:38:36.000Z</time>
</trkpt>
<trkpt lat="46.6037012" lon="13.6651685">
<ele>1927.53</ele>
<time>2026-08-16T08:38:59.000Z</time>
</trkpt>
<trkpt lat="46.6036923" lon="13.6654376">
<ele>1938.50</ele>
<time>2026-08-16T08:39:33.000Z</time>
</trkpt>
<trkpt lat="46.6036288" lon="13.6656907">
<ele>1943.74</ele>
<time>2026-08-16T08:39:54.000Z</time>
</trkpt>
<trkpt lat="46.6035591" lon="13.6659405">
<ele>1949.96</ele>
<time>2026-08-16T08:40:12.000Z</time>
</trkpt>
<trkpt lat="46.6035330" lon="13.6662039">
<ele>1953.37</ele>
<time>2026-08-16T08:40:28.000Z</time>
</trkpt>
<trkpt lat="46.6033664" lon="13.6663253">
<ele>1957.42</ele>
<time>2026-08-16T08:40:45.000Z</time>
</trkpt>
<trkpt lat="46.6032419" lon="13.6665250">
<ele>1959.64</ele>
<time>2026-08-16T08:40:58.000Z</time>
</trkpt>
<trkpt lat="46.6030701" lon="13.6666183">
<ele>1961.22</ele>
<time>2026-08-16T08:41:15.000Z</time>
</trkpt>
<trkpt lat="46.6028818" lon="13.6665591">
<ele>1967.66</ele>
<time>2026-08-16T08:41:31.000Z</time>
</trkpt>
<trkpt lat="46.6027052" lon="13.6664548">
<ele>1967.83</ele>
<time>2026-08-16T08:41:45.000Z</time>
</trkpt>
<trkpt lat="46.6025207" lon="13.6664431">
<ele>1967.76</ele>
<time>2026-08-16T08:41:57.000Z</time>
</trkpt>
<trkpt lat="46.6023283" lon="13.6664354">
<ele>1970.57</ele>
<time>2026-08-16T08:42:09.000Z</time>
</trkpt>
<trkpt lat="46.6021896" lon="13.6666190">
<ele>1977.15</ele>
<time>2026-08-16T08:42:24.000Z</time>
</trkpt>
<trkpt lat="46.6020524" lon="13.6668078">
<ele>1984.03</ele>
<time>2026-08-16T08:42:45.000Z</time>
</trkpt>
<trkpt lat="46.6020528" lon="13.6670745">
<ele>1995.54</ele>
<time>2026-08-16T08:43:31.000Z</time>
</trkpt>
<trkpt lat="46.6022223" lon="13.6671804">
<ele>2003.27</ele>
<time>2026-08-16T08:43:53.000Z</time>
</trkpt>
<trkpt lat="46.6023301" lon="13.6673928">
<ele>2014.81</ele>
<time>2026-08-16T08:44:28.000Z</time>
</trkpt>
<trkpt lat="46.6025116" lon="13.6674259">
<ele>2018.97</ele>
<time>2026-08-16T08:44:50.000Z</time>
</trkpt>
<trkpt lat="46.6026473" lon="13.6676061">
<ele>2026.84</ele>
<time>2026-08-16T08:45:16.000Z</time>
</trkpt>
<trkpt lat="46.6026736" lon="13.6678705">
<ele>2037.05</ele>
<time>2026-08-16T08:45:56.000Z</time>
</trkpt>
<trkpt lat="46.6027984" lon="13.6680694">
<ele>2040.38</ele>
<time>2026-08-16T08:46:17.000Z</time>
</trkpt>
<trkpt lat="46.6029285" lon="13.6682561">
<ele>2051.73</ele>
<time>2026-08-16T08:46:51.000Z</time>
</trkpt>
<trkpt lat="46.6031110" lon="13.6683134">
<ele>2058.78</ele>
<time>2026-08-16T08:47:13.000Z</time>
</trkpt>
<trkpt lat="46.6032301" lon="13.6685124">
<ele>2072.81</ele>
<time>2026-08-16T08:47:51.000Z</time>
</trkpt>
<trkpt lat="46.6033962" lon="13.6686181">
<ele>2076.04</ele>
<time>2026-08-16T08:48:11.000Z</time>
</trkpt>
<trkpt lat="46.6032607" lon="13.6687986">
<ele>2085.81</ele>
<time>2026-08-16T08:48:40.000Z</time>
</trkpt>
<trkpt lat="46.6034389" lon="13.6688567">
<ele>2095.60</ele>
<time>2026-08-16T08:49:06.000Z</time>
</trkpt>
<trkpt lat="46.6033938" lon="13.6691117">
<ele>2107.25</ele>
<time>2026-08-16T08:49:37.000Z</time>
</trkpt>
<trkpt lat="46.6035768" lon="13.6691593">
<ele>2114.76</ele>
<time>2026-08-16T08:50:04.000Z</time>
</trkpt>
<trkpt lat="46.6037621" lon="13.6691856">
<ele>2121.42</ele>
<time>2026-08-16T08:50:26.000Z</time>
</trkpt>
<trkpt lat="46.6037411" lon="13.6694490">
<ele>2134.17</ele>
<time>2026-08-16T08:51:02.000Z</time>
</trkpt>
<trkpt lat="46.6036348" lon="13.6696712">
<ele>2142.74</ele>
<time>2026-08-16T08:51:24.000Z</time>
</trkpt>
<trkpt lat="46.6037011" lon="13.6699179">
<ele>2153.11</ele>
<time>2026-08-16T08:52:17.000Z</time>
</trkpt>
<trkpt lat="46.6037118" lon="13.6701859">
<ele>2157.99</ele>
<time>2026-08-16T08:52:48.000Z</time>
</trkpt>
<trkpt lat="46.6036220" lon="13.6704251">
<ele>2164.90</ele>
<time>2026-08-16T08:54:13.000Z</time>
</trkpt>
<trkpt lat="46.6035502" lon="13.6706767">
<ele>2164.08</ele>
<time>2026-08-16T08:54:53.000Z</time>
</trkpt>
<trkpt lat="46.6034421" lon="13.6708976">
<ele>2163.10</ele>
<time>2026-08-16T09:09:40.000Z</time>
</trkpt>
<trkpt lat="46.6032842" lon="13.6710489">
<ele>2159.15</ele>
<time>2026-08-16T09:09:54.000Z</time>
</trkpt>
<trkpt lat="46.6031149" lon="13.6711393">
<ele>2155.80</ele>
<time>2026-08-16T09:10:05.000Z</time>
</trkpt>
<trkpt lat="46.6029354" lon="13.6712556">
<ele>2154.21</ele>
<time>2026-08-16T09:10:17.000Z</time>
</trkpt>
<trkpt lat="46.6028498" lon="13.6714901">
<ele>2150.38</ele>
<time>2026-08-16T09:10:28.000Z</time>
</trkpt>
<trkpt lat="46.6027526" lon="13.6717367">
<ele>2149.78</ele>
<time>2026-08-16T09:10:39.000Z</time>
</trkpt>
<trkpt lat="46.6026067" lon="13.6719092">
<ele>2152.42</ele>
<time>2026-08-16T09:10:51.000Z</time>
</trkpt>
<trkpt lat="46.6024818" lon="13.6721297">
<ele>2155.88</ele>
<time>2026-08-16T09:11:01.000Z</time>
</trkpt>
<trkpt lat="46.6023394" lon="13.6722906">
<ele>2160.04</ele>
<time>2026-08-16T09:11:12.000Z</time>
</trkpt>
<trkpt lat="46.6023197" lon="13.6720250">
<ele>2163.39</ele>
<time>2026-08-16T09:12:27.000Z</time>
</trkpt>
<trkpt lat="46.6022309" lon="13.6722593">
<ele>2159.87</ele>
<time>2026-08-16T09:13:16.000Z</time>
</trkpt>
<trkpt lat="46.6023537" lon="13.6720555">
<ele>2162.93</ele>
<time>2026-08-16T09:15:02.000Z</time>
</trkpt>
<trkpt lat="46.6025057" lon="13.6719064">
<ele>2154.73</ele>
<time>2026-08-16T09:16:54.000Z</time>
</trkpt>
<trkpt lat="46.6026829" lon="13.6717945">
<ele>2151.11</ele>
<time>2026-08-16T09:17:08.000Z</time>
</trkpt>
<trkpt lat="46.6028285" lon="13.6716285">
<ele>2148.90</ele>
<time>2026-08-16T09:17:22.000Z</time>
</trkpt>
<trkpt lat="46.6029843" lon="13.6714798">
<ele>2148.26</ele>
<time>2026-08-16T09:17:35.000Z</time>
</trkpt>
<trkpt lat="46.6031271" lon="13.6713006">
<ele>2149.62</ele>
<time>2026-08-16T09:17:51.000Z</time>
</trkpt>
<trkpt lat="46.6032921" lon="13.6711580">
<ele>2152.57</ele>
<time>2026-08-16T09:18:07.000Z</time>
</trkpt>
<trkpt lat="46.6034627" lon="13.6710397">
<ele>2157.98</ele>
<time>2026-08-16T09:18:23.000Z</time>
</trkpt>
<trkpt lat="46.6035681" lon="13.6708131">
<ele>2162.33</ele>
<time>2026-08-16T09:18:42.000Z</time>
</trkpt>
<trkpt lat="46.6035565" lon="13.6705480">
<ele>2160.61</ele>
<time>2026-08-16T09:19:00.000Z</time>
</trkpt>
<trkpt lat="46.6036716" lon="13.6703294">
<ele>2161.25</ele>
<time>2026-08-16T09:19:35.000Z</time>
</trkpt>
<trkpt lat="46.6037698" lon="13.6701082">
<ele>2162.38</ele>
<time>2026-08-16T09:21:35.000Z</time>
</trkpt>
<trkpt lat="46.6038806" lon="13.6698892">
<ele>2156.08</ele>
<time>2026-08-16T09:22:29.000Z</time>
</trkpt>
<trkpt lat="46.6040077" lon="13.6696920">
<ele>2148.85</ele>
<time>2026-08-16T09:22:40.000Z</time>
</trkpt>
<trkpt lat="46.6041348" lon="13.6694889">
<ele>2144.55</ele>
<time>2026-08-16T09:22:51.000Z</time>
</trkpt>
<trkpt lat="46.6042971" lon="13.6693182">
<ele>2140.24</ele>
<time>2026-08-16T09:23:02.000Z</time>
</trkpt>
<trkpt lat="46.6044464" lon="13.6691566">
<ele>2139.09</ele>
<time>2026-08-16T09:23:10.000Z</time>
</trkpt>
<trkpt lat="46.6046105" lon="13.6690467">
<ele>2141.27</ele>
<time>2026-08-16T09:23:31.000Z</time>
</trkpt>
<trkpt lat="46.6047875" lon="13.6689651">
<ele>2136.49</ele>
<time>2026-08-16T09:23:44.000Z</time>
</trkpt>
<trkpt lat="46.6049719" lon="13.6688963">
<ele>2134.31</ele>
<time>2026-08-16T09:24:00.000Z</time>
</trkpt>
<trkpt lat="46.6051442" lon="13.6688092">
<ele>2131.91</ele>
<time>2026-08-16T09:25:02.000Z</time>
</trkpt>
<trkpt lat="46.6052952" lon="13.6686597">
<ele>2126.98</ele>
<time>2026-08-16T09:25:33.000Z</time>
</trkpt>
<trkpt lat="46.6054222" lon="13.6684723">
<ele>2109.94</ele>
<time>2026-08-16T09:26:23.000Z</time>
</trkpt>
<trkpt lat="46.6054590" lon="13.6682060">
<ele>2102.13</ele>
<time>2026-08-16T09:26:42.000Z</time>
</trkpt>
<trkpt lat="46.6055184" lon="13.6679542">
<ele>2095.43</ele>
<time>2026-08-16T09:27:23.000Z</time>
</trkpt>
<trkpt lat="46.6056203" lon="13.6677282">
<ele>2087.33</ele>
<time>2026-08-16T09:27:36.000Z</time>
</trkpt>
<trkpt lat="46.6057084" lon="13.6674870">
<ele>2080.21</ele>
<time>2026-08-16T09:27:47.000Z</time>
</trkpt>
<trkpt lat="46.6058220" lon="13.6672699">
<ele>2071.50</ele>
<time>2026-08-16T09:28:00.000Z</time>
</trkpt>
<trkpt lat="46.6059422" lon="13.6670693">
<ele>2064.89</ele>
<time>2026-08-16T09:28:18.000Z</time>
</trkpt>
<trkpt lat="46.6060411" lon="13.6668435">
<ele>2056.65</ele>
<time>2026-08-16T09:28:39.000Z</time>
</trkpt>
<trkpt lat="46.6061738" lon="13.6666366">
<ele>2052.06</ele>
<time>2026-08-16T09:29:15.000Z</time>
</trkpt>
<trkpt lat="46.6062921" lon="13.6664284">
<ele>2046.62</ele>
<time>2026-08-16T09:29:31.000Z</time>
</trkpt>
<trkpt lat="46.6063927" lon="13.6662090">
<ele>2039.62</ele>
<time>2026-08-16T09:29:46.000Z</time>
</trkpt>
<trkpt lat="46.6064953" lon="13.6659839">
<ele>2037.15</ele>
<time>2026-08-16T09:29:58.000Z</time>
</trkpt>
<trkpt lat="46.6066519" lon="13.6658179">
<ele>2035.50</ele>
<time>2026-08-16T09:30:11.000Z</time>
</trkpt>
<trkpt lat="46.6068125" lon="13.6656636">
<ele>2038.09</ele>
<time>2026-08-16T09:30:24.000Z</time>
</trkpt>
<trkpt lat="46.6069398" lon="13.6654712">
<ele>2041.02</ele>
<time>2026-08-16T09:30:38.000Z</time>
</trkpt>
<trkpt lat="46.6070222" lon="13.6652332">
<ele>2046.13</ele>
<time>2026-08-16T09:30:58.000Z</time>
</trkpt>
<trkpt lat="46.6071350" lon="13.6650168">
<ele>2051.79</ele>
<time>2026-08-16T09:31:21.000Z</time>
</trkpt>
<trkpt lat="46.6072640" lon="13.6648300">
<ele>2050.08</ele>
<time>2026-08-16T09:31:57.000Z</time>
</trkpt>
<trkpt lat="46.6073867" lon="13.6646371">
<ele>2050.66</ele>
<time>2026-08-16T09:32:22.000Z</time>
</trkpt>
<trkpt lat="46.6075568" lon="13.6645341">
<ele>2060.12</ele>
<time>2026-08-16T09:32:49.000Z</time>
</trkpt>
<trkpt lat="46.6077320" lon="13.6644500">
<ele>2061.25</ele>
<time>2026-08-16T09:33:05.000Z</time>
</trkpt>
<trkpt lat="46.6078283" lon="13.6642170">
<ele>2061.12</ele>
<time>2026-08-16T09:33:20.000Z</time>
</trkpt>
<trkpt lat="46.6079940" lon="13.6640823">
<ele>2064.58</ele>
<time>2026-08-16T09:34:11.000Z</time>
</trkpt>
<trkpt lat="46.6080864" lon="13.6638373">
<ele>2056.80</ele>
<time>2026-08-16T09:34:25.000Z</time>
</trkpt>
<trkpt lat="46.6081748" lon="13.6636071">
<ele>2050.60</ele>
<time>2026-08-16T09:34:37.000Z</time>
</trkpt>
<trkpt lat="46.6082360" lon="13.6633580">
<ele>2053.77</ele>
<time>2026-08-16T09:34:51.000Z</time>
</trkpt>
<trkpt lat="46.6082897" lon="13.6631077">
<ele>2054.99</ele>
<time>2026-08-16T09:35:04.000Z</time>
</trkpt>
<trkpt lat="46.6084150" lon="13.6629046">
<ele>2050.83</ele>
<time>2026-08-16T09:35:40.000Z</time>
</trkpt>
<trkpt lat="46.6085416" lon="13.6627167">
<ele>2045.86</ele>
<time>2026-08-16T09:36:11.000Z</time>
</trkpt>
<trkpt lat="46.6086942" lon="13.6625674">
<ele>2037.38</ele>
<time>2026-08-16T09:36:28.000Z</time>
</trkpt>
<trkpt lat="46.6088645" lon="13.6624737">
<ele>2027.07</ele>
<time>2026-08-16T09:36:45.000Z</time>
</trkpt>
<trkpt lat="46.6090038" lon="13.6622960">
<ele>2021.60</ele>
<time>2026-08-16T09:36:55.000Z</time>
</trkpt>
<trkpt lat="46.6091352" lon="13.6620981">
<ele>2019.56</ele>
<time>2026-08-16T09:37:07.000Z</time>
</trkpt>
<trkpt lat="46.6092528" lon="13.6618776">
<ele>2017.79</ele>
<time>2026-08-16T09:37:21.000Z</time>
</trkpt>
<trkpt lat="46.6093660" lon="13.6616597">
<ele>2014.80</ele>
<time>2026-08-16T09:37:37.000Z</time>
</trkpt>
<trkpt lat="46.6094322" lon="13.6614151">
<ele>2019.92</ele>
<time>2026-08-16T09:38:02.000Z</time>
</trkpt>
<trkpt lat="46.6095886" lon="13.6612721">
<ele>2013.31</ele>
<time>2026-08-16T09:41:24.000Z</time>
</trkpt>
<trkpt lat="46.6097656" lon="13.6611959">
<ele>1998.59</ele>
<time>2026-08-16T09:42:12.000Z</time>
</trkpt>
<trkpt lat="46.6099319" lon="13.6610838">
<ele>1982.94</ele>
<time>2026-08-16T09:42:43.000Z</time>
</trkpt>
<trkpt lat="46.6100894" lon="13.6609338">
<ele>1965.86</ele>
<time>2026-08-16T09:43:16.000Z</time>
</trkpt>
<trkpt lat="46.6102582" lon="13.6608137">
<ele>1953.36</ele>
<time>2026-08-16T09:44:13.000Z</time>
</trkpt>
<trkpt lat="46.6104278" lon="13.6607215">
<ele>1946.69</ele>
<time>2026-08-16T09:44:33.000Z</time>
</trkpt>
<trkpt lat="46.6106111" lon="13.6607270">
<ele>1930.31</ele>
<time>2026-08-16T09:45:03.000Z</time>
</trkpt>
<trkpt lat="46.6107919" lon="13.6606872">
<ele>1914.72</ele>
<time>2026-08-16T09:45:37.000Z</time>
</trkpt>
<trkpt lat="46.6109683" lon="13.6606350">
<ele>1900.95</ele>
<time>2026-08-16T09:46:03.000Z</time>
</trkpt>
<trkpt lat="46.6111499" lon="13.6606166">
<ele>1886.54</ele>
<time>2026-08-16T09:46:26.000Z</time>
</trkpt>
<trkpt lat="46.6113163" lon="13.6605063">
<ele>1877.47</ele>
<time>2026-08-16T09:49:19.000Z</time>
</trkpt>
<trkpt lat="46.6114219" lon="13.6602849">
<ele>1872.80</ele>
<time>2026-08-16T09:49:36.000Z</time>
</trkpt>
<trkpt lat="46.6115893" lon="13.6601529">
<ele>1857.96</ele>
<time>2026-08-16T09:50:14.000Z</time>
</trkpt>
<trkpt lat="46.6117291" lon="13.6599753">
<ele>1847.51</ele>
<time>2026-08-16T09:50:33.000Z</time>
</trkpt>
<trkpt lat="46.6118829" lon="13.6598393">
<ele>1834.21</ele>
<time>2026-08-16T09:50:56.000Z</time>
</trkpt>
<trkpt lat="46.6120018" lon="13.6596355">
<ele>1820.04</ele>
<time>2026-08-16T09:51:24.000Z</time>
</trkpt>
<trkpt lat="46.6121600" lon="13.6594932">
<ele>1815.16</ele>
<time>2026-08-16T09:51:41.000Z</time>
</trkpt>
<trkpt lat="46.6122427" lon="13.6592602">
<ele>1806.85</ele>
<time>2026-08-16T09:51:59.000Z</time>
</trkpt>
<trkpt lat="46.6123153" lon="13.6590099">
<ele>1800.13</ele>
<time>2026-08-16T09:52:25.000Z</time>
</trkpt>
<trkpt lat="46.6124555" lon="13.6588455">
<ele>1800.13</ele>
<time>2026-08-16T09:52:45.000Z</time>
</trkpt>
<trkpt lat="46.6126246" lon="13.6587381">
<ele>1790.50</ele>
<time>2026-08-16T09:53:05.000Z</time>
</trkpt>
<trkpt lat="46.6127450" lon="13.6585201">
<ele>1782.60</ele>
<time>2026-08-16T09:53:27.000Z</time>
</trkpt>
<trkpt lat="46.6127625" lon="13.6582504">
<ele>1771.95</ele>
<time>2026-08-16T09:53:44.000Z</time>
</trkpt>
<trkpt lat="46.6128888" lon="13.6580395">
<ele>1758.91</ele>
<time>2026-08-16T09:54:24.000Z</time>
</trkpt>
<trkpt lat="46.6130465" lon="13.6579127">
<ele>1750.87</ele>
<time>2026-08-16T09:54:50.000Z</time>
</trkpt>
<trkpt lat="46.6131981" lon="13.6577698">
<ele>1736.01</ele>
<time>2026-08-16T09:55:25.000Z</time>
</trkpt>
<trkpt lat="46.6132895" lon="13.6575421">
<ele>1727.46</ele>
<time>2026-08-16T09:55:46.000Z</time>
</trkpt>
<trkpt lat="46.6134098" lon="13.6573410">
<ele>1703.52</ele>
<time>2026-08-16T09:57:01.000Z</time>
</trkpt>
<trkpt lat="46.6135646" lon="13.6572049">
<ele>1688.00</ele>
<time>2026-08-16T09:57:31.000Z</time>
</trkpt>
<trkpt lat="46.6136818" lon="13.6569916">
<ele>1670.70</ele>
<time>2026-08-16T09:58:35.000Z</time>
</trkpt>
<trkpt lat="46.6136314" lon="13.6567320">
<ele>1661.50</ele>
<time>2026-08-16T09:58:55.000Z</time>
</trkpt>
<trkpt lat="46.6135266" lon="13.6565131">
<ele>1657.39</ele>
<time>2026-08-16T09:59:38.000Z</time>
</trkpt>
<trkpt lat="46.6134496" lon="13.6562590">
<ele>1645.93</ele>
<time>2026-08-16T09:59:59.000Z</time>
</trkpt>
<trkpt lat="46.6135734" lon="13.6560647">
<ele>1632.64</ele>
<time>2026-08-16T10:00:26.000Z</time>
</trkpt>
<trkpt lat="46.6136884" lon="13.6558379">
<ele>1617.80</ele>
<time>2026-08-16T10:01:19.000Z</time>
</trkpt>
<trkpt lat="46.6138223" lon="13.6556328">
<ele>1609.18</ele>
<time>2026-08-16T10:01:33.000Z</time>
</trkpt>
<trkpt lat="46.6139401" lon="13.6554336">
<ele>1602.87</ele>
<time>2026-08-16T10:01:45.000Z</time>
</trkpt>
<trkpt lat="46.6140422" lon="13.6552075">
<ele>1595.15</ele>
<time>2026-08-16T10:01:56.000Z</time>
</trkpt>
<trkpt lat="46.6140814" lon="13.6549464">
<ele>1585.56</ele>
<time>2026-08-16T10:02:10.000Z</time>
</trkpt>
<trkpt lat="46.6142065" lon="13.6547330">
<ele>1580.12</ele>
<time>2026-08-16T10:02:22.000Z</time>
</trkpt>
<trkpt lat="46.6143086" lon="13.6545161">
<ele>1573.76</ele>
<time>2026-08-16T10:02:32.000Z</time>
</trkpt>
<trkpt lat="46.6143779" lon="13.6542460">
<ele>1563.21</ele>
<time>2026-08-16T10:02:43.000Z</time>
</trkpt>
<trkpt lat="46.6144159" lon="13.6539854">
<ele>1558.86</ele>
<time>2026-08-16T10:02:51.000Z</time>
</trkpt>
<trkpt lat="46.6144787" lon="13.6537337">
<ele>1552.81</ele>
<time>2026-08-16T10:03:09.000Z</time>
</trkpt>
<trkpt lat="46.6146044" lon="13.6535332">
<ele>1544.30</ele>
<time>2026-08-16T10:03:21.000Z</time>
</trkpt>
<trkpt lat="46.6147390" lon="13.6533125">
<ele>1539.03</ele>
<time>2026-08-16T10:03:32.000Z</time>
</trkpt>
<trkpt lat="46.6148421" lon="13.6530828">
<ele>1531.48</ele>
<time>2026-08-16T10:03:41.000Z</time>
</trkpt>
<trkpt lat="46.6149180" lon="13.6528152">
<ele>1530.56</ele>
<time>2026-08-16T10:03:55.000Z</time>
</trkpt>
<trkpt lat="46.6150006" lon="13.6525702">
<ele>1527.48</ele>
<time>2026-08-16T10:04:04.000Z</time>
</trkpt>
<trkpt lat="46.6150554" lon="13.6522991">
<ele>1525.86</ele>
<time>2026-08-16T10:04:13.000Z</time>
</trkpt>
<trkpt lat="46.6150988" lon="13.6520210">
<ele>1521.59</ele>
<time>2026-08-16T10:04:23.000Z</time>
</trkpt>
<trkpt lat="46.6152712" lon="13.6519149">
<ele>1514.09</ele>
<time>2026-08-16T10:04:39.000Z</time>
</trkpt>
<trkpt lat="46.6154489" lon="13.6519756">
<ele>1507.15</ele>
<time>2026-08-16T10:04:51.000Z</time>
</trkpt>
<trkpt lat="46.6156229" lon="13.6518499">
<ele>1503.22</ele>
<time>2026-08-16T10:04:59.000Z</time>
</trkpt>
<trkpt lat="46.6157911" lon="13.6517482">
<ele>1495.87</ele>
<time>2026-08-16T10:05:17.000Z</time>
</trkpt>
<trkpt lat="46.6159769" lon="13.6517116">
<ele>1487.65</ele>
<time>2026-08-16T10:05:30.000Z</time>
</trkpt>
<trkpt lat="46.6161454" lon="13.6518149">
<ele>1478.95</ele>
<time>2026-08-16T10:05:41.000Z</time>
</trkpt>
<trkpt lat="46.6163128" lon="13.6516938">
<ele>1474.75</ele>
<time>2026-08-16T10:05:50.000Z</time>
</trkpt>
<trkpt lat="46.6164762" lon="13.6515395">
<ele>1460.75</ele>
<time>2026-08-16T10:06:10.000Z</time>
</trkpt>
<trkpt lat="46.6166665" lon="13.6514458">
<ele>1453.06</ele>
<time>2026-08-16T10:06:22.000Z</time>
</trkpt>
<trkpt lat="46.6168033" lon="13.6512512">
<ele>1438.11</ele>
<time>2026-08-16T10:06:54.000Z</time>
</trkpt>
<trkpt lat="46.6169683" lon="13.6513723">
<ele>1431.48</ele>
<time>2026-08-16T10:07:19.000Z</time>
</trkpt>
<trkpt lat="46.6169502" lon="13.6516457">
<ele>1426.85</ele>
<time>2026-08-16T10:07:38.000Z</time>
</trkpt>
<trkpt lat="46.6168698" lon="13.6518858">
<ele>1417.37</ele>
<time>2026-08-16T10:07:51.000Z</time>
</trkpt>
<trkpt lat="46.6167917" lon="13.6521382">
<ele>1416.53</ele>
<time>2026-08-16T10:08:09.000Z</time>
</trkpt>
<trkpt lat="46.6167171" lon="13.6524018">
<ele>1415.34</ele>
<time>2026-08-16T10:08:21.000Z</time>
</trkpt>
<trkpt lat="46.6166953" lon="13.6526730">
<ele>1413.42</ele>
<time>2026-08-16T10:08:33.000Z</time>
</trkpt>
<trkpt lat="46.6166676" lon="13.6529591">
<ele>1410.99</ele>
<time>2026-08-16T10:08:45.000Z</time>
</trkpt>
<trkpt lat="46.6166437" lon="13.6532255">
<ele>1407.35</ele>
<time>2026-08-16T10:08:55.000Z</time>
</trkpt>
<trkpt lat="46.6165770" lon="13.6534772">
<ele>1402.53</ele>
<time>2026-08-16T10:09:11.000Z</time>
</trkpt>
<trkpt lat="46.6165611" lon="13.6537542">
<ele>1400.53</ele>
<time>2026-08-16T10:09:20.000Z</time>
</trkpt>
<trkpt lat="46.6166617" lon="13.6539845">
<ele>1398.84</ele>
<time>2026-08-16T10:09:33.000Z</time>
</trkpt>
<trkpt lat="46.6167910" lon="13.6541801">
<ele>1394.56</ele>
<time>2026-08-16T10:09:51.000Z</time>
</trkpt>
<trkpt lat="46.6169580" lon="13.6542922">
<ele>1389.08</ele>
<time>2026-08-16T10:10:22.000Z</time>
</trkpt>
<trkpt lat="46.6171426" lon="13.6542532">
<ele>1380.81</ele>
<time>2026-08-16T10:10:41.000Z</time>
</trkpt>
<trkpt lat="46.6171716" lon="13.6545261">
<ele>1372.26</ele>
<time>2026-08-16T10:11:03.000Z</time>
</trkpt>
<trkpt lat="46.6171722" lon="13.6548064">
<ele>1365.58</ele>
<time>2026-08-16T10:11:15.000Z</time>
</trkpt>
<trkpt lat="46.6173443" lon="13.6549270">
<ele>1354.17</ele>
<time>2026-08-16T10:11:35.000Z</time>
</trkpt>
<trkpt lat="46.6174973" lon="13.6547509">
<ele>1351.68</ele>
<time>2026-08-16T10:11:43.000Z</time>
</trkpt>
<trkpt lat="46.6176567" lon="13.6546033">
<ele>1342.95</ele>
<time>2026-08-16T10:12:07.000Z</time>
</trkpt>
<trkpt lat="46.6177746" lon="13.6543896">
<ele>1325.00</ele>
<time>2026-08-16T10:12:35.000Z</time>
</trkpt>
<trkpt lat="46.6179503" lon="13.6543057">
<ele>1321.65</ele>
<time>2026-08-16T10:12:46.000Z</time>
</trkpt>
<trkpt lat="46.6181375" lon="13.6542740">
<ele>1316.91</ele>
<time>2026-08-16T10:12:57.000Z</time>
</trkpt>
<trkpt lat="46.6183007" lon="13.6541396">
<ele>1305.97</ele>
<time>2026-08-16T10:13:11.000Z</time>
</trkpt>
<trkpt lat="46.6184700" lon="13.6540152">
<ele>1292.09</ele>
<time>2026-08-16T10:14:50.000Z</time>
</trkpt>
<trkpt lat="46.6186480" lon="13.6540702">
<ele>1293.46</ele>
<time>2026-08-16T10:15:00.000Z</time>
</trkpt>
<trkpt lat="46.6188331" lon="13.6540047">
<ele>1290.24</ele>
<time>2026-08-16T10:15:08.000Z</time>
</trkpt>
<trkpt lat="46.6190042" lon="13.6538668">
<ele>1283.28</ele>
<time>2026-08-16T10:15:26.000Z</time>
</trkpt>
<trkpt lat="46.6191286" lon="13.6536633">
<ele>1277.99</ele>
<time>2026-08-16T10:16:05.000Z</time>
</trkpt>
<trkpt lat="46.6190152" lon="13.6538689">
<ele>1269.67</ele>
<time>2026-08-16T10:18:56.000Z</time>
</trkpt>
<trkpt lat="46.6189011" lon="13.6540769">
<ele>1266.44</ele>
<time>2026-08-16T10:19:15.000Z</time>
</trkpt>
<trkpt lat="46.6190349" lon="13.6538756">
<ele>1268.09</ele>
<time>2026-08-16T10:19:37.000Z</time>
</trkpt>
<trkpt lat="46.6191046" lon="13.6536138">
<ele>1268.66</ele>
<time>2026-08-16T10:19:50.000Z</time>
</trkpt>
<trkpt lat="46.6191944" lon="13.6533752">
<ele>1267.24</ele>
<time>2026-08-16T10:20:02.000Z</time>
</trkpt>
<trkpt lat="46.6192933" lon="13.6531529">
<ele>1267.06</ele>
<time>2026-08-16T10:20:14.000Z</time>
</trkpt>
<trkpt lat="46.6194532" lon="13.6530323">
<ele>1267.62</ele>
<time>2026-08-16T10:20:26.000Z</time>
</trkpt>
<trkpt lat="46.6196279" lon="13.6529411">
<ele>1270.14</ele>
<time>2026-08-16T10:20:37.000Z</time>
</trkpt>
<trkpt lat="46.6197740" lon="13.6527840">
<ele>1270.13</ele>
<time>2026-08-16T10:20:49.000Z</time>
</trkpt>
<trkpt lat="46.6198414" lon="13.6525250">
<ele>1268.49</ele>
<time>2026-08-16T10:21:02.000Z</time>
</trkpt>
<trkpt lat="46.6198495" lon="13.6522604">
<ele>1267.08</ele>
<time>2026-08-16T10:21:22.000Z</time>
</trkpt>
<trkpt lat="46.6199661" lon="13.6524840">
<ele>1260.33</ele>
<time>2026-08-16T10:22:02.000Z</time>
</trkpt>
<trkpt lat="46.6200500" lon="13.6527240">
<ele>1253.50</ele>
<time>2026-08-16T10:22:18.000Z</time>
</trkpt>
<trkpt lat="46.6201766" lon="13.6525279">
<ele>1245.03</ele>
<time>2026-08-16T10:22:36.000Z</time>
</trkpt>
<trkpt lat="46.6202015" lon="13.6522636">
<ele>1238.17</ele>
<time>2026-08-16T10:22:48.000Z</time>
</trkpt>
<trkpt lat="46.6201511" lon="13.6519971">
<ele>1237.04</ele>
<time>2026-08-16T10:23:00.000Z</time>
</trkpt>
<trkpt lat="46.6202853" lon="13.6518202">
<ele>1225.86</ele>
<time>2026-08-16T10:23:38.000Z</time>
</trkpt>
<trkpt lat="46.6203987" lon="13.6520483">
<ele>1218.01</ele>
<time>2026-08-16T10:24:03.000Z</time>
</trkpt>
<trkpt lat="46.6205072" lon="13.6522666">
<ele>1211.82</ele>
<time>2026-08-16T10:24:26.000Z</time>
</trkpt>
<trkpt lat="46.6205706" lon="13.6525120">
<ele>1206.03</ele>
<time>2026-08-16T10:24:36.000Z</time>
</trkpt>
<trkpt lat="46.6207322" lon="13.6526270">
<ele>1201.44</ele>
<time>2026-08-16T10:24:52.000Z</time>
</trkpt>
<trkpt lat="46.6208971" lon="13.6525144">
<ele>1191.21</ele>
<time>2026-08-16T10:25:21.000Z</time>
</trkpt>
<trkpt lat="46.6210826" lon="13.6525134">
<ele>1177.88</ele>
<time>2026-08-16T10:25:43.000Z</time>
</trkpt>
<trkpt lat="46.6212320" lon="13.6526855">
<ele>1169.64</ele>
<time>2026-08-16T10:26:05.000Z</time>
</trkpt>
<trkpt lat="46.6213864" lon="13.6528323">
<ele>1160.03</ele>
<time>2026-08-16T10:26:18.000Z</time>
</trkpt>
<trkpt lat="46.6215467" lon="13.6529729">
<ele>1155.17</ele>
<time>2026-08-16T10:26:46.000Z</time>
</trkpt>
<trkpt lat="46.6217307" lon="13.6530196">
<ele>1149.50</ele>
<time>2026-08-16T10:27:06.000Z</time>
</trkpt>
<trkpt lat="46.6218640" lon="13.6532053">
<ele>1130.85</ele>
<time>2026-08-16T10:27:52.000Z</time>
</trkpt>
<trkpt lat="46.6220366" lon="13.6531203">
<ele>1126.58</ele>
<time>2026-08-16T10:28:08.000Z</time>
</trkpt>
<trkpt lat="46.6219914" lon="13.6528595">
<ele>1117.03</ele>
<time>2026-08-16T10:28:40.000Z</time>
</trkpt>
<trkpt lat="46.6219588" lon="13.6525965">
<ele>1111.95</ele>
<time>2026-08-16T10:29:00.000Z</time>
</trkpt>
<trkpt lat="46.6219964" lon="13.6523345">
<ele>1108.28</ele>
<time>2026-08-16T10:29:16.000Z</time>
</trkpt>
<trkpt lat="46.6221298" lon="13.6521566">
<ele>1098.65</ele>
<time>2026-08-16T10:29:51.000Z</time>
</trkpt>
<trkpt lat="46.6221061" lon="13.6518781">
<ele>1089.38</ele>
<time>2026-08-16T10:30:08.000Z</time>
</trkpt>
<trkpt lat="46.6221805" lon="13.6521223">
<ele>1077.41</ele>
<time>2026-08-16T10:30:46.000Z</time>
</trkpt>
<trkpt lat="46.6223066" lon="13.6523127">
<ele>1068.56</ele>
<time>2026-08-16T10:31:05.000Z</time>
</trkpt>
<trkpt lat="46.6224805" lon="13.6524095">
<ele>1058.37</ele>
<time>2026-08-16T10:31:29.000Z</time>
</trkpt>
<trkpt lat="46.6225578" lon="13.6526545">
<ele>1055.53</ele>
<time>2026-08-16T10:31:46.000Z</time>
</trkpt>
<trkpt lat="46.6226060" lon="13.6529080">
<ele>1044.31</ele>
<time>2026-08-16T10:32:03.000Z</time>
</trkpt>
<trkpt lat="46.6227980" lon="13.6528813">
<ele>1044.03</ele>
<time>2026-08-16T10:32:16.000Z</time>
</trkpt>
<trkpt lat="46.6229158" lon="13.6526651">
<ele>1036.89</ele>
<time>2026-08-16T10:32:25.000Z</time>
</trkpt>
<trkpt lat="46.6229264" lon="13.6523940">
<ele>1032.65</ele>
<time>2026-08-16T10:32:48.000Z</time>
</trkpt>
<trkpt lat="46.6229661" lon="13.6521329">
<ele>1021.51</ele>
<time>2026-08-16T10:32:59.000Z</time>
</trkpt>
<trkpt lat="46.6231146" lon="13.6522889">
<ele>1007.93</ele>
<time>2026-08-16T10:33:24.000Z</time>
</trkpt>
<trkpt lat="46.6232532" lon="13.6524564">
<ele>998.15</ele>
<time>2026-08-16T10:33:41.000Z</time>
</trkpt>
<trkpt lat="46.6234419" lon="13.6525375">
<ele>989.82</ele>
<time>2026-08-16T10:34:05.000Z</time>
</trkpt>
<trkpt lat="46.6235244" lon="13.6522903">
<ele>984.04</ele>
<time>2026-08-16T10:34:17.000Z</time>
</trkpt>
<trkpt lat="46.6235294" lon="13.6520243">
<ele>976.20</ele>
<time>2026-08-16T10:34:26.000Z</time>
</trkpt>
<trkpt lat="46.6236655" lon="13.6518421">
<ele>973.34</ele>
<time>2026-08-16T10:34:57.000Z</time>
</trkpt>
<trkpt lat="46.6238185" lon="13.6519887">
<ele>969.50</ele>
<time>2026-08-16T10:35:10.000Z</time>
</trkpt>
<trkpt lat="46.6239019" lon="13.6522288">
<ele>966.22</ele>
<time>2026-08-16T10:35:34.000Z</time>
</trkpt>
<trkpt lat="46.6240216" lon="13.6524431">
<ele>964.46</ele>
<time>2026-08-16T10:35:45.000Z</time>
</trkpt>
<trkpt lat="46.6241075" lon="13.6526841">
<ele>951.34</ele>
<time>2026-08-16T10:36:02.000Z</time>
</trkpt>
<trkpt lat="46.6242030" lon="13.6529373">
<ele>944.87</ele>
<time>2026-08-16T10:36:14.000Z</time>
</trkpt>
<trkpt lat="46.6243302" lon="13.6531264">
<ele>940.46</ele>
<time>2026-08-16T10:36:24.000Z</time>
</trkpt>
<trkpt lat="46.6244982" lon="13.6532253">
<ele>937.26</ele>
<time>2026-08-16T10:36:38.000Z</time>
</trkpt>
<trkpt lat="46.6246729" lon="13.6531414">
<ele>940.50</ele>
<time>2026-08-16T10:36:49.000Z</time>
</trkpt>
<trkpt lat="46.6248631" lon="13.6530885">
<ele>941.66</ele>
<time>2026-08-16T10:36:59.000Z</time>
</trkpt>
<trkpt lat="46.6250431" lon="13.6530796">
<ele>939.46</ele>
<time>2026-08-16T10:37:14.000Z</time>
</trkpt>
<trkpt lat="46.6252244" lon="13.6530933">
<ele>934.41</ele>
<time>2026-08-16T10:37:23.000Z</time>
</trkpt>
<trkpt lat="46.6254213" lon="13.6530814">
<ele>932.15</ele>
<time>2026-08-16T10:37:35.000Z</time>
</trkpt>
<trkpt lat="46.6256156" lon="13.6530374">
<ele>929.18</ele>
<time>2026-08-16T10:37:46.000Z</time>
</trkpt>
<trkpt lat="46.6257893" lon="13.6529234">
<ele>925.97</ele>
<time>2026-08-16T10:37:56.000Z</time>
</trkpt>
<trkpt lat="46.6259481" lon="13.6527863">
<ele>923.08</ele>
<time>2026-08-16T10:38:07.000Z</time>
</trkpt>
<trkpt lat="46.6260657" lon="13.6525741">
<ele>916.13</ele>
<time>2026-08-16T10:38:37.000Z</time>
</trkpt>
<trkpt lat="46.6261849" lon="13.6523498">
<ele>916.41</ele>
<time>2026-08-16T10:38:47.000Z</time>
</trkpt>
<trkpt lat="46.6262486" lon="13.6521008">
<ele>914.65</ele>
<time>2026-08-16T10:38:59.000Z</time>
</trkpt>
<trkpt lat="46.6262030" lon="13.6518256">
<ele>913.46</ele>
<time>2026-08-16T10:39:22.000Z</time>
</trkpt>
<trkpt lat="46.6261765" lon="13.6515421">
<ele>913.29</ele>
<time>2026-08-16T10:39:33.000Z</time>
</trkpt>
<trkpt lat="46.6261617" lon="13.6512707">
<ele>913.73</ele>
<time>2026-08-16T10:39:44.000Z</time>
</trkpt>
<trkpt lat="46.6261404" lon="13.6509999">
<ele>913.94</ele>
<time>2026-08-16T10:39:55.000Z</time>
</trkpt>
<trkpt lat="46.6261451" lon="13.6507312">
<ele>912.96</ele>
<time>2026-08-16T10:40:07.000Z</time>
</trkpt>
<trkpt lat="46.6261986" lon="13.6504757">
<ele>912.61</ele>
<time>2026-08-16T10:40:19.000Z</time>
</trkpt>
<trkpt lat="46.6263783" lon="13.6504147">
<ele>916.50</ele>
<time>2026-08-16T10:40:31.000Z</time>
</trkpt>
<trkpt lat="46.6265615" lon="13.6503402">
<ele>912.13</ele>
<time>2026-08-16T10:40:45.000Z</time>
</trkpt>
<trkpt lat="46.6266467" lon="13.6505856">
<ele>910.86</ele>
<time>2026-08-16T10:41:09.000Z</time>
</trkpt>
<extensions>
<om:oruxmapsextensions>
<om:ext type="NAME" subtype="0"><![CDATA[Segment: 1]]></om:ext>
</om:oruxmapsextensions>
</extensions>
</trkseg>
</trk>
</gpx>
