<?xml version="1.0" encoding="UTF-8" standalone="no" ?>
<gpx xmlns="http://www.topografix.com/GPX/1/1" creator="OruxMaps v.10.7.4 GP" version="1.1" xmlns:gpxtpx="http://www.garmin.com/xmlschemas/TrackPointExtension/v2" xmlns:xsi="http://www.w3.org/2001/XMLSchema-instance" xmlns:om="http://www.oruxmaps.com/oruxmapsextensions/1/0" xsi:schemaLocation="http://www.topografix.com/GPX/1/1 http://www.topografix.com/GPX/1/1/gpx.xsd">
<!-- owner: e57cf051988575 -->
<metadata>
<name><![CDATA[2026-08-15 05:17:31 Hochalmspitze, Schneewinkelspitzs]]></name>
<link href="https://www.oruxmaps.com">
<text>OruxMaps GP</text>
</link>
<time>2026-08-15T03:17:31.398Z</time><bounds maxlat="47.0158238" maxlon="13.3414647" minlat="46.9805238" minlon="13.3010257"/>
</metadata>
<wpt lat="46.9807079" lon="13.3356541">
<ele>1639.58</ele>
<time>2026-08-15T03:17:31.583Z</time>
<name><![CDATA[]]></name>
<sym>Waypoint</sym>
<type>Starting Point</type>
<extensions>
<om:oruxmapsextensions>
<om:ext type="ICON" subtype="0">38</om:ext>
</om:oruxmapsextensions>
</extensions>
</wpt>
<wpt lat="46.9805936" lon="13.3356980">
<ele>1634.77</ele>
<time>2026-08-15T14:31:21.866Z</time>
<name><![CDATA[]]></name>
<desc><![CDATA[<p><br /><h3>Name: Segment: 1</h3><br />Type: Hiking<br/>Start time: 05:17 15 Aug 2026<br/>Finish time: 16:30 15 Aug 2026<br/>Distance: 15.4km (11:12)<br/>Moving time: 06:44<br/>Average speed: 1.37 km/h<br/>Speed in Movement: 2.28 km/h<br/>Maximum Speed: 8.73 km/h<br/>Minimum altitude: 1632 m<br/>Maximum altitude: 3363 m<br/>Ascent speed: 594.6 m/h<br/>Descent speed: 531.2 m/h<br/>Elevation gain: 1884 m<br/>Elevation loss: 1884 m<br/>Ascent time: 03:10<br/>Descent time: 03:32<br/></p>]]></desc>
<sym>Waypoint</sym>
<type>Finishing Point</type>
<extensions>
<om:oruxmapsextensions>
<om:ext type="ICON" subtype="0">15</om:ext>
</om:oruxmapsextensions>
</extensions>
</wpt>
<trk>
<name><![CDATA[2026-08-15 05:17:31 Hochalmspitze, Schneewinkelspitzs]]></name>
<desc><![CDATA[<p>Type: Hiking<br/>Start time: 05:17 15 Aug 2026<br/>Finish time: 16:30 15 Aug 2026<br/>Distance: 15.4 km (11:12)<br/>Moving time: 06:44<br/>Average speed: 1.37 km/h<br/>Speed in Movement: 2.28 km/h<br/>Maximum Speed: 8.73 km/h<br/>Minimum altitude: 1632 m<br/>Maximum altitude: 3363 m<br/>Ascent speed: 594.6 m/h<br/>Descent speed: 531.2 m/h<br/>Elevation gain: 1884 m<br/>Elevation loss: 1884 m<br/>Ascent time: 03:10<br/>Descent time: 03:32<br/></p><hr align="center" width="480" style="height: 2px; width: 517px"/>]]></desc>
<type>Hiking</type>
<extensions>
<om:oruxmapsextensions>
<om:ext type="TYPE" subtype="0">5</om:ext>
<om:ext type="DIFFICULTY">0</om:ext>
</om:oruxmapsextensions>
</extensions>
<trkseg>
<trkpt lat="46.9807079" lon="13.3356541">
<ele>1639.58</ele>
<time>2026-08-15T03:17:31.000Z</time>
</trkpt>
<trkpt lat="46.9805238" lon="13.3356277">
<ele>1633.00</ele>
<time>2026-08-15T03:17:54.000Z</time>
</trkpt>
<trkpt lat="46.9806076" lon="13.3353943">
<ele>1631.63</ele>
<time>2026-08-15T03:18:27.000Z</time>
</trkpt>
<trkpt lat="46.9807078" lon="13.3351701">
<ele>1634.73</ele>
<time>2026-08-15T03:18:35.000Z</time>
</trkpt>
<trkpt lat="46.9807803" lon="13.3349163">
<ele>1634.52</ele>
<time>2026-08-15T03:18:44.000Z</time>
</trkpt>
<trkpt lat="46.9808910" lon="13.3346989">
<ele>1635.75</ele>
<time>2026-08-15T03:18:53.000Z</time>
</trkpt>
<trkpt lat="46.9809841" lon="13.3344725">
<ele>1639.29</ele>
<time>2026-08-15T03:19:09.000Z</time>
</trkpt>
<trkpt lat="46.9811181" lon="13.3342927">
<ele>1637.74</ele>
<time>2026-08-15T03:19:23.000Z</time>
</trkpt>
<trkpt lat="46.9812691" lon="13.3341160">
<ele>1638.30</ele>
<time>2026-08-15T03:19:33.000Z</time>
</trkpt>
<trkpt lat="46.9814004" lon="13.3339350">
<ele>1640.46</ele>
<time>2026-08-15T03:19:42.000Z</time>
</trkpt>
<trkpt lat="46.9815388" lon="13.3337652">
<ele>1642.09</ele>
<time>2026-08-15T03:20:15.000Z</time>
</trkpt>
<trkpt lat="46.9816301" lon="13.3335259">
<ele>1643.96</ele>
<time>2026-08-15T03:20:33.000Z</time>
</trkpt>
<trkpt lat="46.9817351" lon="13.3333006">
<ele>1644.55</ele>
<time>2026-08-15T03:20:48.000Z</time>
</trkpt>
<trkpt lat="46.9818268" lon="13.3330567">
<ele>1646.36</ele>
<time>2026-08-15T03:21:02.000Z</time>
</trkpt>
<trkpt lat="46.9820084" lon="13.3329639">
<ele>1649.66</ele>
<time>2026-08-15T03:21:15.000Z</time>
</trkpt>
<trkpt lat="46.9821802" lon="13.3330816">
<ele>1655.17</ele>
<time>2026-08-15T03:21:29.000Z</time>
</trkpt>
<trkpt lat="46.9823566" lon="13.3331865">
<ele>1659.04</ele>
<time>2026-08-15T03:21:42.000Z</time>
</trkpt>
<trkpt lat="46.9823763" lon="13.3329198">
<ele>1662.35</ele>
<time>2026-08-15T03:21:58.000Z</time>
</trkpt>
<trkpt lat="46.9823991" lon="13.3326506">
<ele>1668.14</ele>
<time>2026-08-15T03:22:09.000Z</time>
</trkpt>
<trkpt lat="46.9825939" lon="13.3326287">
<ele>1670.01</ele>
<time>2026-08-15T03:22:23.000Z</time>
</trkpt>
<trkpt lat="46.9827925" lon="13.3326213">
<ele>1670.84</ele>
<time>2026-08-15T03:22:36.000Z</time>
</trkpt>
<trkpt lat="46.9829815" lon="13.3326486">
<ele>1672.15</ele>
<time>2026-08-15T03:22:49.000Z</time>
</trkpt>
<trkpt lat="46.9831724" lon="13.3327295">
<ele>1675.28</ele>
<time>2026-08-15T03:23:04.000Z</time>
</trkpt>
<trkpt lat="46.9833146" lon="13.3328970">
<ele>1680.79</ele>
<time>2026-08-15T03:23:20.000Z</time>
</trkpt>
<trkpt lat="46.9833152" lon="13.3331717">
<ele>1677.50</ele>
<time>2026-08-15T03:23:36.000Z</time>
</trkpt>
<trkpt lat="46.9833326" lon="13.3334505">
<ele>1683.81</ele>
<time>2026-08-15T03:23:52.000Z</time>
</trkpt>
<trkpt lat="46.9833515" lon="13.3337278">
<ele>1686.18</ele>
<time>2026-08-15T03:24:17.000Z</time>
</trkpt>
<trkpt lat="46.9833891" lon="13.3340042">
<ele>1692.99</ele>
<time>2026-08-15T03:24:33.000Z</time>
</trkpt>
<trkpt lat="46.9834318" lon="13.3342652">
<ele>1693.72</ele>
<time>2026-08-15T03:24:48.000Z</time>
</trkpt>
<trkpt lat="46.9834673" lon="13.3345249">
<ele>1699.21</ele>
<time>2026-08-15T03:25:04.000Z</time>
</trkpt>
<trkpt lat="46.9835343" lon="13.3347844">
<ele>1700.68</ele>
<time>2026-08-15T03:25:21.000Z</time>
</trkpt>
<trkpt lat="46.9836437" lon="13.3350013">
<ele>1695.75</ele>
<time>2026-08-15T03:25:37.000Z</time>
</trkpt>
<trkpt lat="46.9837706" lon="13.3352007">
<ele>1701.00</ele>
<time>2026-08-15T03:25:51.000Z</time>
</trkpt>
<trkpt lat="46.9838763" lon="13.3349550">
<ele>1711.54</ele>
<time>2026-08-15T03:26:09.000Z</time>
</trkpt>
<trkpt lat="46.9840333" lon="13.3351148">
<ele>1716.16</ele>
<time>2026-08-15T03:26:34.000Z</time>
</trkpt>
<trkpt lat="46.9841041" lon="13.3353803">
<ele>1713.19</ele>
<time>2026-08-15T03:26:49.000Z</time>
</trkpt>
<trkpt lat="46.9841991" lon="13.3356152">
<ele>1715.92</ele>
<time>2026-08-15T03:27:03.000Z</time>
</trkpt>
<trkpt lat="46.9843011" lon="13.3358528">
<ele>1718.09</ele>
<time>2026-08-15T03:27:18.000Z</time>
</trkpt>
<trkpt lat="46.9844033" lon="13.3360855">
<ele>1717.39</ele>
<time>2026-08-15T03:27:40.000Z</time>
</trkpt>
<trkpt lat="46.9844905" lon="13.3363359">
<ele>1730.60</ele>
<time>2026-08-15T03:27:49.000Z</time>
</trkpt>
<trkpt lat="46.9845837" lon="13.3366001">
<ele>1735.20</ele>
<time>2026-08-15T03:28:02.000Z</time>
</trkpt>
<trkpt lat="46.9847110" lon="13.3367922">
<ele>1734.35</ele>
<time>2026-08-15T03:28:16.000Z</time>
</trkpt>
<trkpt lat="46.9847785" lon="13.3370427">
<ele>1734.50</ele>
<time>2026-08-15T03:28:29.000Z</time>
</trkpt>
<trkpt lat="46.9848512" lon="13.3372849">
<ele>1738.26</ele>
<time>2026-08-15T03:28:45.000Z</time>
</trkpt>
<trkpt lat="46.9849082" lon="13.3375407">
<ele>1742.97</ele>
<time>2026-08-15T03:29:00.000Z</time>
</trkpt>
<trkpt lat="46.9849495" lon="13.3378125">
<ele>1747.60</ele>
<time>2026-08-15T03:29:16.000Z</time>
</trkpt>
<trkpt lat="46.9849865" lon="13.3380787">
<ele>1750.81</ele>
<time>2026-08-15T03:29:31.000Z</time>
</trkpt>
<trkpt lat="46.9849814" lon="13.3383578">
<ele>1754.41</ele>
<time>2026-08-15T03:29:44.000Z</time>
</trkpt>
<trkpt lat="46.9850648" lon="13.3386010">
<ele>1754.55</ele>
<time>2026-08-15T03:30:11.000Z</time>
</trkpt>
<trkpt lat="46.9851359" lon="13.3388481">
<ele>1760.18</ele>
<time>2026-08-15T03:30:32.000Z</time>
</trkpt>
<trkpt lat="46.9852930" lon="13.3389922">
<ele>1760.51</ele>
<time>2026-08-15T03:30:55.000Z</time>
</trkpt>
<trkpt lat="46.9853362" lon="13.3387309">
<ele>1765.83</ele>
<time>2026-08-15T03:32:09.000Z</time>
</trkpt>
<trkpt lat="46.9853846" lon="13.3390046">
<ele>1768.10</ele>
<time>2026-08-15T03:32:28.000Z</time>
</trkpt>
<trkpt lat="46.9853593" lon="13.3392802">
<ele>1772.73</ele>
<time>2026-08-15T03:32:44.000Z</time>
</trkpt>
<trkpt lat="46.9854970" lon="13.3394514">
<ele>1775.50</ele>
<time>2026-08-15T03:33:38.000Z</time>
</trkpt>
<trkpt lat="46.9856779" lon="13.3394038">
<ele>1779.67</ele>
<time>2026-08-15T03:33:59.000Z</time>
</trkpt>
<trkpt lat="46.9858623" lon="13.3394230">
<ele>1783.65</ele>
<time>2026-08-15T03:34:43.000Z</time>
</trkpt>
<trkpt lat="46.9860484" lon="13.3394287">
<ele>1789.07</ele>
<time>2026-08-15T03:35:03.000Z</time>
</trkpt>
<trkpt lat="46.9862232" lon="13.3394978">
<ele>1797.95</ele>
<time>2026-08-15T03:35:42.000Z</time>
</trkpt>
<trkpt lat="46.9863766" lon="13.3396447">
<ele>1817.41</ele>
<time>2026-08-15T03:36:31.000Z</time>
</trkpt>
<trkpt lat="46.9864987" lon="13.3398441">
<ele>1822.05</ele>
<time>2026-08-15T03:36:55.000Z</time>
</trkpt>
<trkpt lat="46.9866324" lon="13.3400502">
<ele>1824.66</ele>
<time>2026-08-15T03:37:13.000Z</time>
</trkpt>
<trkpt lat="46.9867828" lon="13.3402141">
<ele>1831.46</ele>
<time>2026-08-15T03:37:26.000Z</time>
</trkpt>
<trkpt lat="46.9869620" lon="13.3402464">
<ele>1835.06</ele>
<time>2026-08-15T03:37:46.000Z</time>
</trkpt>
<trkpt lat="46.9870691" lon="13.3404595">
<ele>1841.91</ele>
<time>2026-08-15T03:38:33.000Z</time>
</trkpt>
<trkpt lat="46.9871536" lon="13.3407086">
<ele>1843.18</ele>
<time>2026-08-15T03:38:52.000Z</time>
</trkpt>
<trkpt lat="46.9872931" lon="13.3409078">
<ele>1852.68</ele>
<time>2026-08-15T03:39:13.000Z</time>
</trkpt>
<trkpt lat="46.9873487" lon="13.3411630">
<ele>1856.33</ele>
<time>2026-08-15T03:39:35.000Z</time>
</trkpt>
<trkpt lat="46.9874490" lon="13.3413851">
<ele>1855.63</ele>
<time>2026-08-15T03:39:50.000Z</time>
</trkpt>
<trkpt lat="46.9876278" lon="13.3414647">
<ele>1861.09</ele>
<time>2026-08-15T03:40:16.000Z</time>
</trkpt>
<trkpt lat="46.9877916" lon="13.3413324">
<ele>1873.78</ele>
<time>2026-08-15T03:40:49.000Z</time>
</trkpt>
<trkpt lat="46.9879709" lon="13.3412833">
<ele>1877.07</ele>
<time>2026-08-15T03:41:14.000Z</time>
</trkpt>
<trkpt lat="46.9881423" lon="13.3411773">
<ele>1883.18</ele>
<time>2026-08-15T03:42:01.000Z</time>
</trkpt>
<trkpt lat="46.9883171" lon="13.3410760">
<ele>1889.75</ele>
<time>2026-08-15T03:42:26.000Z</time>
</trkpt>
<trkpt lat="46.9884014" lon="13.3408285">
<ele>1900.66</ele>
<time>2026-08-15T03:42:52.000Z</time>
</trkpt>
<trkpt lat="46.9883945" lon="13.3405517">
<ele>1902.56</ele>
<time>2026-08-15T03:43:54.000Z</time>
</trkpt>
<trkpt lat="46.9884244" lon="13.3402908">
<ele>1909.49</ele>
<time>2026-08-15T03:44:09.000Z</time>
</trkpt>
<trkpt lat="46.9884176" lon="13.3400242">
<ele>1911.36</ele>
<time>2026-08-15T03:44:28.000Z</time>
</trkpt>
<trkpt lat="46.9884163" lon="13.3397561">
<ele>1916.99</ele>
<time>2026-08-15T03:44:49.000Z</time>
</trkpt>
<trkpt lat="46.9885928" lon="13.3396785">
<ele>1924.88</ele>
<time>2026-08-15T03:45:33.000Z</time>
</trkpt>
<trkpt lat="46.9885760" lon="13.3394079">
<ele>1933.60</ele>
<time>2026-08-15T03:46:01.000Z</time>
</trkpt>
<trkpt lat="46.9886146" lon="13.3391484">
<ele>1939.26</ele>
<time>2026-08-15T03:46:24.000Z</time>
</trkpt>
<trkpt lat="46.9885851" lon="13.3388782">
<ele>1940.21</ele>
<time>2026-08-15T03:46:46.000Z</time>
</trkpt>
<trkpt lat="46.9885511" lon="13.3386166">
<ele>1945.46</ele>
<time>2026-08-15T03:47:05.000Z</time>
</trkpt>
<trkpt lat="46.9885601" lon="13.3383522">
<ele>1949.21</ele>
<time>2026-08-15T03:47:32.000Z</time>
</trkpt>
<trkpt lat="46.9885808" lon="13.3380728">
<ele>1949.95</ele>
<time>2026-08-15T03:47:54.000Z</time>
</trkpt>
<trkpt lat="46.9885604" lon="13.3378069">
<ele>1954.82</ele>
<time>2026-08-15T03:48:18.000Z</time>
</trkpt>
<trkpt lat="46.9885140" lon="13.3375434">
<ele>1960.61</ele>
<time>2026-08-15T03:48:42.000Z</time>
</trkpt>
<trkpt lat="46.9884391" lon="13.3372968">
<ele>1963.16</ele>
<time>2026-08-15T03:49:16.000Z</time>
</trkpt>
<trkpt lat="46.9883410" lon="13.3370736">
<ele>1966.73</ele>
<time>2026-08-15T03:49:55.000Z</time>
</trkpt>
<trkpt lat="46.9882849" lon="13.3368101">
<ele>1971.37</ele>
<time>2026-08-15T03:50:23.000Z</time>
</trkpt>
<trkpt lat="46.9882006" lon="13.3365711">
<ele>1975.54</ele>
<time>2026-08-15T03:50:49.000Z</time>
</trkpt>
<trkpt lat="46.9881176" lon="13.3363347">
<ele>1976.55</ele>
<time>2026-08-15T03:51:07.000Z</time>
</trkpt>
<trkpt lat="46.9880878" lon="13.3360628">
<ele>1979.92</ele>
<time>2026-08-15T03:51:28.000Z</time>
</trkpt>
<trkpt lat="46.9880685" lon="13.3357927">
<ele>1989.55</ele>
<time>2026-08-15T03:51:59.000Z</time>
</trkpt>
<trkpt lat="46.9880357" lon="13.3355175">
<ele>1996.45</ele>
<time>2026-08-15T03:52:40.000Z</time>
</trkpt>
<trkpt lat="46.9880098" lon="13.3352429">
<ele>2000.30</ele>
<time>2026-08-15T03:53:10.000Z</time>
</trkpt>
<trkpt lat="46.9880467" lon="13.3349815">
<ele>2005.90</ele>
<time>2026-08-15T03:53:41.000Z</time>
</trkpt>
<trkpt lat="46.9880633" lon="13.3347145">
<ele>2010.88</ele>
<time>2026-08-15T03:54:03.000Z</time>
</trkpt>
<trkpt lat="46.9880365" lon="13.3344356">
<ele>2014.41</ele>
<time>2026-08-15T03:54:20.000Z</time>
</trkpt>
<trkpt lat="46.9880026" lon="13.3341677">
<ele>2011.90</ele>
<time>2026-08-15T03:54:42.000Z</time>
</trkpt>
<trkpt lat="46.9880449" lon="13.3339070">
<ele>2017.51</ele>
<time>2026-08-15T03:55:03.000Z</time>
</trkpt>
<trkpt lat="46.9881423" lon="13.3336850">
<ele>2020.86</ele>
<time>2026-08-15T03:55:33.000Z</time>
</trkpt>
<trkpt lat="46.9881919" lon="13.3334305">
<ele>2029.06</ele>
<time>2026-08-15T03:56:05.000Z</time>
</trkpt>
<trkpt lat="46.9883010" lon="13.3332017">
<ele>2034.40</ele>
<time>2026-08-15T03:56:41.000Z</time>
</trkpt>
<trkpt lat="46.9883062" lon="13.3329271">
<ele>2037.24</ele>
<time>2026-08-15T03:57:05.000Z</time>
</trkpt>
<trkpt lat="46.9883295" lon="13.3326515">
<ele>2044.48</ele>
<time>2026-08-15T03:57:22.000Z</time>
</trkpt>
<trkpt lat="46.9884322" lon="13.3324212">
<ele>2048.69</ele>
<time>2026-08-15T03:57:37.000Z</time>
</trkpt>
<trkpt lat="46.9885267" lon="13.3321901">
<ele>2047.93</ele>
<time>2026-08-15T03:57:54.000Z</time>
</trkpt>
<trkpt lat="46.9886071" lon="13.3319382">
<ele>2048.25</ele>
<time>2026-08-15T03:58:15.000Z</time>
</trkpt>
<trkpt lat="46.9887685" lon="13.3318019">
<ele>2046.13</ele>
<time>2026-08-15T03:58:37.000Z</time>
</trkpt>
<trkpt lat="46.9889483" lon="13.3317439">
<ele>2053.91</ele>
<time>2026-08-15T03:58:59.000Z</time>
</trkpt>
<trkpt lat="46.9890609" lon="13.3315310">
<ele>2065.36</ele>
<time>2026-08-15T03:59:37.000Z</time>
</trkpt>
<trkpt lat="46.9890923" lon="13.3312502">
<ele>2065.50</ele>
<time>2026-08-15T04:00:08.000Z</time>
</trkpt>
<trkpt lat="46.9891728" lon="13.3309984">
<ele>2069.69</ele>
<time>2026-08-15T04:00:28.000Z</time>
</trkpt>
<trkpt lat="46.9892997" lon="13.3307826">
<ele>2073.46</ele>
<time>2026-08-15T04:00:48.000Z</time>
</trkpt>
<trkpt lat="46.9894746" lon="13.3306890">
<ele>2078.53</ele>
<time>2026-08-15T04:01:04.000Z</time>
</trkpt>
<trkpt lat="46.9896564" lon="13.3306737">
<ele>2078.48</ele>
<time>2026-08-15T04:01:24.000Z</time>
</trkpt>
<trkpt lat="46.9897554" lon="13.3304341">
<ele>2083.89</ele>
<time>2026-08-15T04:01:45.000Z</time>
</trkpt>
<trkpt lat="46.9898973" lon="13.3302432">
<ele>2091.04</ele>
<time>2026-08-15T04:02:02.000Z</time>
</trkpt>
<trkpt lat="46.9899295" lon="13.3299827">
<ele>2094.23</ele>
<time>2026-08-15T04:02:20.000Z</time>
</trkpt>
<trkpt lat="46.9901067" lon="13.3299268">
<ele>2100.00</ele>
<time>2026-08-15T04:02:43.000Z</time>
</trkpt>
<trkpt lat="46.9902868" lon="13.3298861">
<ele>2099.32</ele>
<time>2026-08-15T04:02:59.000Z</time>
</trkpt>
<trkpt lat="46.9904144" lon="13.3300743">
<ele>2104.77</ele>
<time>2026-08-15T04:03:19.000Z</time>
</trkpt>
<trkpt lat="46.9905525" lon="13.3298907">
<ele>2113.91</ele>
<time>2026-08-15T04:03:44.000Z</time>
</trkpt>
<trkpt lat="46.9907295" lon="13.3298170">
<ele>2118.78</ele>
<time>2026-08-15T04:04:34.000Z</time>
</trkpt>
<trkpt lat="46.9909105" lon="13.3298516">
<ele>2135.14</ele>
<time>2026-08-15T04:05:29.000Z</time>
</trkpt>
<trkpt lat="46.9910916" lon="13.3298921">
<ele>2152.87</ele>
<time>2026-08-15T04:06:05.000Z</time>
</trkpt>
<trkpt lat="46.9912622" lon="13.3299985">
<ele>2163.72</ele>
<time>2026-08-15T04:06:43.000Z</time>
</trkpt>
<trkpt lat="46.9914047" lon="13.3298362">
<ele>2166.57</ele>
<time>2026-08-15T04:07:03.000Z</time>
</trkpt>
<trkpt lat="46.9915762" lon="13.3297435">
<ele>2175.30</ele>
<time>2026-08-15T04:07:32.000Z</time>
</trkpt>
<trkpt lat="46.9917634" lon="13.3297398">
<ele>2182.59</ele>
<time>2026-08-15T04:08:01.000Z</time>
</trkpt>
<trkpt lat="46.9919445" lon="13.3297204">
<ele>2182.84</ele>
<time>2026-08-15T04:08:24.000Z</time>
</trkpt>
<trkpt lat="46.9921161" lon="13.3298002">
<ele>2186.34</ele>
<time>2026-08-15T04:08:45.000Z</time>
</trkpt>
<trkpt lat="46.9922946" lon="13.3297209">
<ele>2187.14</ele>
<time>2026-08-15T04:09:05.000Z</time>
</trkpt>
<trkpt lat="46.9923817" lon="13.3294859">
<ele>2195.70</ele>
<time>2026-08-15T04:09:21.000Z</time>
</trkpt>
<trkpt lat="46.9923749" lon="13.3292154">
<ele>2198.45</ele>
<time>2026-08-15T04:09:44.000Z</time>
</trkpt>
<trkpt lat="46.9922885" lon="13.3289653">
<ele>2201.05</ele>
<time>2026-08-15T04:10:51.000Z</time>
</trkpt>
<trkpt lat="46.9924025" lon="13.3291762">
<ele>2199.28</ele>
<time>2026-08-15T04:13:20.000Z</time>
</trkpt>
<trkpt lat="46.9924879" lon="13.3294092">
<ele>2198.18</ele>
<time>2026-08-15T04:13:37.000Z</time>
</trkpt>
<trkpt lat="46.9926683" lon="13.3293839">
<ele>2210.18</ele>
<time>2026-08-15T04:14:39.000Z</time>
</trkpt>
<trkpt lat="46.9928515" lon="13.3293557">
<ele>2210.23</ele>
<time>2026-08-15T04:15:10.000Z</time>
</trkpt>
<trkpt lat="46.9930284" lon="13.3294069">
<ele>2213.55</ele>
<time>2026-08-15T04:15:26.000Z</time>
</trkpt>
<trkpt lat="46.9932094" lon="13.3293496">
<ele>2215.76</ele>
<time>2026-08-15T04:15:42.000Z</time>
</trkpt>
<trkpt lat="46.9931940" lon="13.3296146">
<ele>2223.12</ele>
<time>2026-08-15T04:16:27.000Z</time>
</trkpt>
<trkpt lat="46.9933430" lon="13.3297825">
<ele>2235.46</ele>
<time>2026-08-15T04:17:16.000Z</time>
</trkpt>
<trkpt lat="46.9935307" lon="13.3298074">
<ele>2240.07</ele>
<time>2026-08-15T04:17:37.000Z</time>
</trkpt>
<trkpt lat="46.9937138" lon="13.3298984">
<ele>2240.76</ele>
<time>2026-08-15T04:18:00.000Z</time>
</trkpt>
<trkpt lat="46.9936712" lon="13.3301662">
<ele>2247.45</ele>
<time>2026-08-15T04:18:26.000Z</time>
</trkpt>
<trkpt lat="46.9937559" lon="13.3304090">
<ele>2249.25</ele>
<time>2026-08-15T04:18:49.000Z</time>
</trkpt>
<trkpt lat="46.9939310" lon="13.3303441">
<ele>2254.54</ele>
<time>2026-08-15T04:19:16.000Z</time>
</trkpt>
<trkpt lat="46.9941090" lon="13.3302637">
<ele>2260.41</ele>
<time>2026-08-15T04:19:39.000Z</time>
</trkpt>
<trkpt lat="46.9942903" lon="13.3302848">
<ele>2265.71</ele>
<time>2026-08-15T04:20:00.000Z</time>
</trkpt>
<trkpt lat="46.9944323" lon="13.3304683">
<ele>2268.07</ele>
<time>2026-08-15T04:20:24.000Z</time>
</trkpt>
<trkpt lat="46.9945738" lon="13.3306494">
<ele>2277.05</ele>
<time>2026-08-15T04:21:04.000Z</time>
</trkpt>
<trkpt lat="46.9947555" lon="13.3306415">
<ele>2281.61</ele>
<time>2026-08-15T04:21:29.000Z</time>
</trkpt>
<trkpt lat="46.9949352" lon="13.3305987">
<ele>2286.29</ele>
<time>2026-08-15T04:22:00.000Z</time>
</trkpt>
<trkpt lat="46.9951137" lon="13.3306536">
<ele>2293.01</ele>
<time>2026-08-15T04:22:23.000Z</time>
</trkpt>
<trkpt lat="46.9952956" lon="13.3306900">
<ele>2298.38</ele>
<time>2026-08-15T04:22:44.000Z</time>
</trkpt>
<trkpt lat="46.9954704" lon="13.3306075">
<ele>2303.27</ele>
<time>2026-08-15T04:23:02.000Z</time>
</trkpt>
<trkpt lat="46.9956323" lon="13.3304816">
<ele>2302.34</ele>
<time>2026-08-15T04:23:28.000Z</time>
</trkpt>
<trkpt lat="46.9958103" lon="13.3304047">
<ele>2312.58</ele>
<time>2026-08-15T04:23:48.000Z</time>
</trkpt>
<trkpt lat="46.9959929" lon="13.3303684">
<ele>2317.13</ele>
<time>2026-08-15T04:24:05.000Z</time>
</trkpt>
<trkpt lat="46.9961045" lon="13.3301508">
<ele>2322.01</ele>
<time>2026-08-15T04:24:29.000Z</time>
</trkpt>
<trkpt lat="46.9962719" lon="13.3300537">
<ele>2319.69</ele>
<time>2026-08-15T04:24:56.000Z</time>
</trkpt>
<trkpt lat="46.9964052" lon="13.3298744">
<ele>2328.57</ele>
<time>2026-08-15T04:25:15.000Z</time>
</trkpt>
<trkpt lat="46.9965461" lon="13.3296952">
<ele>2335.18</ele>
<time>2026-08-15T04:25:39.000Z</time>
</trkpt>
<trkpt lat="46.9967231" lon="13.3297793">
<ele>2342.15</ele>
<time>2026-08-15T04:26:03.000Z</time>
</trkpt>
<trkpt lat="46.9968924" lon="13.3296746">
<ele>2351.72</ele>
<time>2026-08-15T04:27:23.000Z</time>
</trkpt>
<trkpt lat="46.9970677" lon="13.3296065">
<ele>2351.34</ele>
<time>2026-08-15T04:27:46.000Z</time>
</trkpt>
<trkpt lat="46.9972476" lon="13.3295558">
<ele>2363.55</ele>
<time>2026-08-15T04:28:25.000Z</time>
</trkpt>
<trkpt lat="46.9974058" lon="13.3296833">
<ele>2371.05</ele>
<time>2026-08-15T04:29:09.000Z</time>
</trkpt>
<trkpt lat="46.9975937" lon="13.3296892">
<ele>2379.59</ele>
<time>2026-08-15T04:29:38.000Z</time>
</trkpt>
<trkpt lat="46.9977636" lon="13.3295838">
<ele>2387.73</ele>
<time>2026-08-15T04:30:14.000Z</time>
</trkpt>
<trkpt lat="46.9979380" lon="13.3296503">
<ele>2394.63</ele>
<time>2026-08-15T04:30:52.000Z</time>
</trkpt>
<trkpt lat="46.9980925" lon="13.3295009">
<ele>2404.62</ele>
<time>2026-08-15T04:31:32.000Z</time>
</trkpt>
<trkpt lat="46.9981936" lon="13.3297208">
<ele>2412.26</ele>
<time>2026-08-15T04:32:14.000Z</time>
</trkpt>
<trkpt lat="46.9983722" lon="13.3296865">
<ele>2427.14</ele>
<time>2026-08-15T04:33:02.000Z</time>
</trkpt>
<trkpt lat="46.9985549" lon="13.3295998">
<ele>2435.20</ele>
<time>2026-08-15T04:33:35.000Z</time>
</trkpt>
<trkpt lat="46.9987242" lon="13.3297194">
<ele>2444.14</ele>
<time>2026-08-15T04:34:16.000Z</time>
</trkpt>
<trkpt lat="46.9989040" lon="13.3297235">
<ele>2448.54</ele>
<time>2026-08-15T04:34:38.000Z</time>
</trkpt>
<trkpt lat="46.9989493" lon="13.3299808">
<ele>2457.03</ele>
<time>2026-08-15T04:35:18.000Z</time>
</trkpt>
<trkpt lat="46.9991312" lon="13.3299640">
<ele>2466.68</ele>
<time>2026-08-15T04:35:51.000Z</time>
</trkpt>
<trkpt lat="46.9993123" lon="13.3299976">
<ele>2475.26</ele>
<time>2026-08-15T04:36:25.000Z</time>
</trkpt>
<trkpt lat="46.9995037" lon="13.3300287">
<ele>2481.37</ele>
<time>2026-08-15T04:37:04.000Z</time>
</trkpt>
<trkpt lat="46.9996816" lon="13.3301034">
<ele>2494.07</ele>
<time>2026-08-15T04:37:52.000Z</time>
</trkpt>
<trkpt lat="46.9998662" lon="13.3300812">
<ele>2503.51</ele>
<time>2026-08-15T04:38:33.000Z</time>
</trkpt>
<trkpt lat="47.0000448" lon="13.3301269">
<ele>2500.29</ele>
<time>2026-08-15T04:38:51.000Z</time>
</trkpt>
<trkpt lat="47.0002365" lon="13.3301737">
<ele>2510.07</ele>
<time>2026-08-15T04:39:18.000Z</time>
</trkpt>
<trkpt lat="47.0004203" lon="13.3302095">
<ele>2509.75</ele>
<time>2026-08-15T04:39:35.000Z</time>
</trkpt>
<trkpt lat="47.0005942" lon="13.3301399">
<ele>2518.46</ele>
<time>2026-08-15T04:40:03.000Z</time>
</trkpt>
<trkpt lat="47.0007240" lon="13.3299539">
<ele>2518.69</ele>
<time>2026-08-15T04:40:30.000Z</time>
</trkpt>
<trkpt lat="47.0009021" lon="13.3298953">
<ele>2525.40</ele>
<time>2026-08-15T04:40:54.000Z</time>
</trkpt>
<trkpt lat="47.0010489" lon="13.3297415">
<ele>2531.16</ele>
<time>2026-08-15T04:41:14.000Z</time>
</trkpt>
<trkpt lat="47.0012063" lon="13.3296040">
<ele>2537.99</ele>
<time>2026-08-15T04:41:34.000Z</time>
</trkpt>
<trkpt lat="47.0013910" lon="13.3296121">
<ele>2548.40</ele>
<time>2026-08-15T04:42:03.000Z</time>
</trkpt>
<trkpt lat="47.0015681" lon="13.3295602">
<ele>2559.68</ele>
<time>2026-08-15T04:42:27.000Z</time>
</trkpt>
<trkpt lat="47.0017337" lon="13.3294505">
<ele>2558.62</ele>
<time>2026-08-15T04:42:56.000Z</time>
</trkpt>
<trkpt lat="47.0019023" lon="13.3293553">
<ele>2563.68</ele>
<time>2026-08-15T04:43:23.000Z</time>
</trkpt>
<trkpt lat="47.0020397" lon="13.3291671">
<ele>2572.03</ele>
<time>2026-08-15T04:44:09.000Z</time>
</trkpt>
<trkpt lat="47.0022163" lon="13.3292221">
<ele>2577.89</ele>
<time>2026-08-15T04:44:39.000Z</time>
</trkpt>
<trkpt lat="47.0023783" lon="13.3290893">
<ele>2585.20</ele>
<time>2026-08-15T04:45:18.000Z</time>
</trkpt>
<trkpt lat="47.0025264" lon="13.3292514">
<ele>2595.72</ele>
<time>2026-08-15T04:45:44.000Z</time>
</trkpt>
<trkpt lat="47.0027057" lon="13.3292914">
<ele>2602.83</ele>
<time>2026-08-15T04:46:19.000Z</time>
</trkpt>
<trkpt lat="47.0028861" lon="13.3293037">
<ele>2607.72</ele>
<time>2026-08-15T04:46:48.000Z</time>
</trkpt>
<trkpt lat="47.0030391" lon="13.3291631">
<ele>2618.41</ele>
<time>2026-08-15T04:47:13.000Z</time>
</trkpt>
<trkpt lat="47.0032175" lon="13.3291243">
<ele>2631.57</ele>
<time>2026-08-15T04:47:53.000Z</time>
</trkpt>
<trkpt lat="47.0034036" lon="13.3290746">
<ele>2645.31</ele>
<time>2026-08-15T04:48:46.000Z</time>
</trkpt>
<trkpt lat="47.0035847" lon="13.3290330">
<ele>2650.37</ele>
<time>2026-08-15T04:49:15.000Z</time>
</trkpt>
<trkpt lat="47.0037675" lon="13.3290397">
<ele>2648.78</ele>
<time>2026-08-15T04:49:44.000Z</time>
</trkpt>
<trkpt lat="47.0039489" lon="13.3290985">
<ele>2643.30</ele>
<time>2026-08-15T04:50:01.000Z</time>
</trkpt>
<trkpt lat="47.0041360" lon="13.3291379">
<ele>2657.02</ele>
<time>2026-08-15T04:50:52.000Z</time>
</trkpt>
<trkpt lat="47.0043153" lon="13.3292090">
<ele>2658.07</ele>
<time>2026-08-15T04:51:10.000Z</time>
</trkpt>
<trkpt lat="47.0044967" lon="13.3291779">
<ele>2660.31</ele>
<time>2026-08-15T04:51:34.000Z</time>
</trkpt>
<trkpt lat="47.0046890" lon="13.3292345">
<ele>2655.36</ele>
<time>2026-08-15T04:51:53.000Z</time>
</trkpt>
<trkpt lat="47.0048748" lon="13.3292498">
<ele>2655.98</ele>
<time>2026-08-15T04:52:16.000Z</time>
</trkpt>
<trkpt lat="47.0050606" lon="13.3292460">
<ele>2662.58</ele>
<time>2026-08-15T04:52:37.000Z</time>
</trkpt>
<trkpt lat="47.0052438" lon="13.3291867">
<ele>2680.60</ele>
<time>2026-08-15T04:53:21.000Z</time>
</trkpt>
<trkpt lat="47.0053920" lon="13.3290351">
<ele>2695.41</ele>
<time>2026-08-15T04:53:54.000Z</time>
</trkpt>
<trkpt lat="47.0055583" lon="13.3289254">
<ele>2698.37</ele>
<time>2026-08-15T04:55:03.000Z</time>
</trkpt>
<trkpt lat="47.0057423" lon="13.3288915">
<ele>2706.26</ele>
<time>2026-08-15T04:55:29.000Z</time>
</trkpt>
<trkpt lat="47.0058044" lon="13.3286344">
<ele>2717.61</ele>
<time>2026-08-15T04:56:18.000Z</time>
</trkpt>
<trkpt lat="47.0058108" lon="13.3283707">
<ele>2726.86</ele>
<time>2026-08-15T04:57:00.000Z</time>
</trkpt>
<trkpt lat="47.0058815" lon="13.3281210">
<ele>2735.53</ele>
<time>2026-08-15T04:57:38.000Z</time>
</trkpt>
<trkpt lat="47.0059314" lon="13.3278666">
<ele>2739.86</ele>
<time>2026-08-15T04:58:06.000Z</time>
</trkpt>
<trkpt lat="47.0060295" lon="13.3276332">
<ele>2746.62</ele>
<time>2026-08-15T04:58:41.000Z</time>
</trkpt>
<trkpt lat="47.0062220" lon="13.3275848">
<ele>2752.25</ele>
<time>2026-08-15T04:59:06.000Z</time>
</trkpt>
<trkpt lat="47.0064019" lon="13.3275655">
<ele>2745.52</ele>
<time>2026-08-15T04:59:24.000Z</time>
</trkpt>
<trkpt lat="47.0064849" lon="13.3278060">
<ele>2746.82</ele>
<time>2026-08-15T05:00:13.000Z</time>
</trkpt>
<trkpt lat="47.0065879" lon="13.3280226">
<ele>2747.64</ele>
<time>2026-08-15T05:00:34.000Z</time>
</trkpt>
<trkpt lat="47.0066473" lon="13.3282744">
<ele>2754.45</ele>
<time>2026-08-15T05:00:53.000Z</time>
</trkpt>
<trkpt lat="47.0068353" lon="13.3282957">
<ele>2761.71</ele>
<time>2026-08-15T05:01:26.000Z</time>
</trkpt>
<trkpt lat="47.0070054" lon="13.3283952">
<ele>2776.65</ele>
<time>2026-08-15T05:02:00.000Z</time>
</trkpt>
<trkpt lat="47.0071149" lon="13.3286055">
<ele>2784.81</ele>
<time>2026-08-15T05:02:44.000Z</time>
</trkpt>
<trkpt lat="47.0072850" lon="13.3287105">
<ele>2794.01</ele>
<time>2026-08-15T05:03:22.000Z</time>
</trkpt>
<trkpt lat="47.0074446" lon="13.3288638">
<ele>2804.35</ele>
<time>2026-08-15T05:04:04.000Z</time>
</trkpt>
<trkpt lat="47.0076226" lon="13.3288130">
<ele>2809.83</ele>
<time>2026-08-15T05:04:34.000Z</time>
</trkpt>
<trkpt lat="47.0077489" lon="13.3290026">
<ele>2814.91</ele>
<time>2026-08-15T05:04:57.000Z</time>
</trkpt>
<trkpt lat="47.0079307" lon="13.3289946">
<ele>2816.42</ele>
<time>2026-08-15T05:05:20.000Z</time>
</trkpt>
<trkpt lat="47.0081226" lon="13.3289921">
<ele>2824.83</ele>
<time>2026-08-15T05:06:06.000Z</time>
</trkpt>
<trkpt lat="47.0083014" lon="13.3289524">
<ele>2830.16</ele>
<time>2026-08-15T05:06:45.000Z</time>
</trkpt>
<trkpt lat="47.0084822" lon="13.3289440">
<ele>2844.49</ele>
<time>2026-08-15T05:07:38.000Z</time>
</trkpt>
<trkpt lat="47.0086663" lon="13.3288908">
<ele>2847.77</ele>
<time>2026-08-15T05:08:13.000Z</time>
</trkpt>
<trkpt lat="47.0088518" lon="13.3288588">
<ele>2855.02</ele>
<time>2026-08-15T05:08:41.000Z</time>
</trkpt>
<trkpt lat="47.0090143" lon="13.3287356">
<ele>2865.42</ele>
<time>2026-08-15T05:09:15.000Z</time>
</trkpt>
<trkpt lat="47.0092024" lon="13.3287713">
<ele>2868.95</ele>
<time>2026-08-15T05:09:46.000Z</time>
</trkpt>
<trkpt lat="47.0093297" lon="13.3289581">
<ele>2880.30</ele>
<time>2026-08-15T05:10:21.000Z</time>
</trkpt>
<trkpt lat="47.0095070" lon="13.3290406">
<ele>2892.94</ele>
<time>2026-08-15T05:11:11.000Z</time>
</trkpt>
<trkpt lat="47.0096105" lon="13.3292597">
<ele>2901.26</ele>
<time>2026-08-15T05:11:56.000Z</time>
</trkpt>
<trkpt lat="47.0097893" lon="13.3293397">
<ele>2911.35</ele>
<time>2026-08-15T05:13:04.000Z</time>
</trkpt>
<trkpt lat="47.0099213" lon="13.3295356">
<ele>2907.78</ele>
<time>2026-08-15T05:13:37.000Z</time>
</trkpt>
<trkpt lat="47.0101042" lon="13.3295282">
<ele>2918.72</ele>
<time>2026-08-15T05:14:23.000Z</time>
</trkpt>
<trkpt lat="47.0102824" lon="13.3296257">
<ele>2922.40</ele>
<time>2026-08-15T05:14:59.000Z</time>
</trkpt>
<trkpt lat="47.0104187" lon="13.3298105">
<ele>2932.22</ele>
<time>2026-08-15T05:15:44.000Z</time>
</trkpt>
<trkpt lat="47.0105866" lon="13.3299096">
<ele>2941.39</ele>
<time>2026-08-15T05:16:21.000Z</time>
</trkpt>
<trkpt lat="47.0106892" lon="13.3301289">
<ele>2953.15</ele>
<time>2026-08-15T05:17:06.000Z</time>
</trkpt>
<trkpt lat="47.0108118" lon="13.3303263">
<ele>2962.34</ele>
<time>2026-08-15T05:18:04.000Z</time>
</trkpt>
<trkpt lat="47.0108741" lon="13.3305738">
<ele>2969.42</ele>
<time>2026-08-15T05:18:44.000Z</time>
</trkpt>
<trkpt lat="47.0110048" lon="13.3307625">
<ele>2968.18</ele>
<time>2026-08-15T05:19:27.000Z</time>
</trkpt>
<trkpt lat="47.0111474" lon="13.3309299">
<ele>2976.82</ele>
<time>2026-08-15T05:19:54.000Z</time>
</trkpt>
<trkpt lat="47.0113131" lon="13.3310365">
<ele>2982.68</ele>
<time>2026-08-15T05:20:25.000Z</time>
</trkpt>
<trkpt lat="47.0115001" lon="13.3309982">
<ele>2989.14</ele>
<time>2026-08-15T05:21:02.000Z</time>
</trkpt>
<trkpt lat="47.0116598" lon="13.3308666">
<ele>2994.86</ele>
<time>2026-08-15T05:21:53.000Z</time>
</trkpt>
<trkpt lat="47.0118324" lon="13.3307771">
<ele>2999.56</ele>
<time>2026-08-15T05:24:34.000Z</time>
</trkpt>
<trkpt lat="47.0118218" lon="13.3310427">
<ele>3007.75</ele>
<time>2026-08-15T05:36:46.000Z</time>
</trkpt>
<trkpt lat="47.0119264" lon="13.3312754">
<ele>3006.25</ele>
<time>2026-08-15T05:37:32.000Z</time>
</trkpt>
<trkpt lat="47.0120244" lon="13.3315023">
<ele>3014.32</ele>
<time>2026-08-15T05:42:05.000Z</time>
</trkpt>
<trkpt lat="47.0122061" lon="13.3315234">
<ele>3039.32</ele>
<time>2026-08-15T05:49:35.000Z</time>
</trkpt>
<trkpt lat="47.0123773" lon="13.3316062">
<ele>3063.26</ele>
<time>2026-08-15T05:55:28.000Z</time>
</trkpt>
<trkpt lat="47.0124788" lon="13.3313873">
<ele>3095.31</ele>
<time>2026-08-15T06:03:32.000Z</time>
</trkpt>
<trkpt lat="47.0126178" lon="13.3312189">
<ele>3126.34</ele>
<time>2026-08-15T06:12:17.000Z</time>
</trkpt>
<trkpt lat="47.0126279" lon="13.3309538">
<ele>3134.00</ele>
<time>2026-08-15T06:16:42.000Z</time>
</trkpt>
<trkpt lat="47.0126498" lon="13.3306917">
<ele>3141.45</ele>
<time>2026-08-15T06:21:12.000Z</time>
</trkpt>
<trkpt lat="47.0126861" lon="13.3304311">
<ele>3144.17</ele>
<time>2026-08-15T06:21:53.000Z</time>
</trkpt>
<trkpt lat="47.0127329" lon="13.3301763">
<ele>3146.36</ele>
<time>2026-08-15T06:22:40.000Z</time>
</trkpt>
<trkpt lat="47.0128418" lon="13.3299622">
<ele>3153.21</ele>
<time>2026-08-15T06:33:50.000Z</time>
</trkpt>
<trkpt lat="47.0129232" lon="13.3297186">
<ele>3154.89</ele>
<time>2026-08-15T06:34:41.000Z</time>
</trkpt>
<trkpt lat="47.0130255" lon="13.3295012">
<ele>3157.53</ele>
<time>2026-08-15T06:35:43.000Z</time>
</trkpt>
<trkpt lat="47.0130828" lon="13.3292446">
<ele>3159.20</ele>
<time>2026-08-15T06:38:28.000Z</time>
</trkpt>
<trkpt lat="47.0131798" lon="13.3290093">
<ele>3165.02</ele>
<time>2026-08-15T06:38:51.000Z</time>
</trkpt>
<trkpt lat="47.0132547" lon="13.3287650">
<ele>3168.16</ele>
<time>2026-08-15T06:39:29.000Z</time>
</trkpt>
<trkpt lat="47.0133200" lon="13.3285180">
<ele>3172.26</ele>
<time>2026-08-15T06:40:16.000Z</time>
</trkpt>
<trkpt lat="47.0133373" lon="13.3282540">
<ele>3181.02</ele>
<time>2026-08-15T06:40:44.000Z</time>
</trkpt>
<trkpt lat="47.0134181" lon="13.3280176">
<ele>3188.35</ele>
<time>2026-08-15T06:41:14.000Z</time>
</trkpt>
<trkpt lat="47.0134611" lon="13.3277547">
<ele>3189.42</ele>
<time>2026-08-15T06:41:49.000Z</time>
</trkpt>
<trkpt lat="47.0134786" lon="13.3274861">
<ele>3194.93</ele>
<time>2026-08-15T06:42:28.000Z</time>
</trkpt>
<trkpt lat="47.0135200" lon="13.3272250">
<ele>3205.05</ele>
<time>2026-08-15T06:42:54.000Z</time>
</trkpt>
<trkpt lat="47.0135929" lon="13.3269805">
<ele>3211.31</ele>
<time>2026-08-15T06:43:28.000Z</time>
</trkpt>
<trkpt lat="47.0136569" lon="13.3267306">
<ele>3224.98</ele>
<time>2026-08-15T06:44:04.000Z</time>
</trkpt>
<trkpt lat="47.0137473" lon="13.3264975">
<ele>3229.61</ele>
<time>2026-08-15T06:44:30.000Z</time>
</trkpt>
<trkpt lat="47.0138774" lon="13.3263061">
<ele>3236.80</ele>
<time>2026-08-15T06:44:57.000Z</time>
</trkpt>
<trkpt lat="47.0139862" lon="13.3260790">
<ele>3241.20</ele>
<time>2026-08-15T06:46:52.000Z</time>
</trkpt>
<trkpt lat="47.0141399" lon="13.3259412">
<ele>3240.40</ele>
<time>2026-08-15T06:47:19.000Z</time>
</trkpt>
<trkpt lat="47.0143020" lon="13.3258209">
<ele>3244.16</ele>
<time>2026-08-15T06:48:43.000Z</time>
</trkpt>
<trkpt lat="47.0144588" lon="13.3256843">
<ele>3247.29</ele>
<time>2026-08-15T06:49:45.000Z</time>
</trkpt>
<trkpt lat="47.0146078" lon="13.3255344">
<ele>3249.79</ele>
<time>2026-08-15T06:54:44.000Z</time>
</trkpt>
<trkpt lat="47.0147769" lon="13.3254125">
<ele>3248.64</ele>
<time>2026-08-15T06:55:28.000Z</time>
</trkpt>
<trkpt lat="47.0148778" lon="13.3251874">
<ele>3258.01</ele>
<time>2026-08-15T06:57:36.000Z</time>
</trkpt>
<trkpt lat="47.0150443" lon="13.3250866">
<ele>3257.21</ele>
<time>2026-08-15T06:58:58.000Z</time>
</trkpt>
<trkpt lat="47.0151958" lon="13.3249433">
<ele>3261.89</ele>
<time>2026-08-15T07:02:45.000Z</time>
</trkpt>
<trkpt lat="47.0151807" lon="13.3246719">
<ele>3277.00</ele>
<time>2026-08-15T07:03:34.000Z</time>
</trkpt>
<trkpt lat="47.0151956" lon="13.3244045">
<ele>3280.33</ele>
<time>2026-08-15T07:04:23.000Z</time>
</trkpt>
<trkpt lat="47.0152432" lon="13.3241491">
<ele>3284.12</ele>
<time>2026-08-15T07:04:44.000Z</time>
</trkpt>
<trkpt lat="47.0152661" lon="13.3238770">
<ele>3292.93</ele>
<time>2026-08-15T07:05:09.000Z</time>
</trkpt>
<trkpt lat="47.0153323" lon="13.3236197">
<ele>3300.61</ele>
<time>2026-08-15T07:05:54.000Z</time>
</trkpt>
<trkpt lat="47.0153521" lon="13.3233533">
<ele>3305.75</ele>
<time>2026-08-15T07:06:16.000Z</time>
</trkpt>
<trkpt lat="47.0153863" lon="13.3230803">
<ele>3309.96</ele>
<time>2026-08-15T07:06:44.000Z</time>
</trkpt>
<trkpt lat="47.0154161" lon="13.3228085">
<ele>3314.21</ele>
<time>2026-08-15T07:07:08.000Z</time>
</trkpt>
<trkpt lat="47.0155092" lon="13.3225795">
<ele>3321.22</ele>
<time>2026-08-15T07:07:41.000Z</time>
</trkpt>
<trkpt lat="47.0156125" lon="13.3223589">
<ele>3327.04</ele>
<time>2026-08-15T07:08:14.000Z</time>
</trkpt>
<trkpt lat="47.0156917" lon="13.3221157">
<ele>3332.45</ele>
<time>2026-08-15T07:08:38.000Z</time>
</trkpt>
<trkpt lat="47.0157797" lon="13.3218793">
<ele>3338.77</ele>
<time>2026-08-15T07:09:02.000Z</time>
</trkpt>
<trkpt lat="47.0158238" lon="13.3216215">
<ele>3341.32</ele>
<time>2026-08-15T07:09:26.000Z</time>
</trkpt>
<trkpt lat="47.0157181" lon="13.3214002">
<ele>3340.33</ele>
<time>2026-08-15T07:09:51.000Z</time>
</trkpt>
<trkpt lat="47.0156371" lon="13.3211459">
<ele>3345.71</ele>
<time>2026-08-15T07:10:07.000Z</time>
</trkpt>
<trkpt lat="47.0155296" lon="13.3209270">
<ele>3346.52</ele>
<time>2026-08-15T07:10:34.000Z</time>
</trkpt>
<trkpt lat="47.0154656" lon="13.3206754">
<ele>3356.54</ele>
<time>2026-08-15T07:11:23.000Z</time>
</trkpt>
<trkpt lat="47.0154103" lon="13.3204199">
<ele>3362.60</ele>
<time>2026-08-15T07:12:03.000Z</time>
</trkpt>
<trkpt lat="47.0153954" lon="13.3201515">
<ele>3362.98</ele>
<time>2026-08-15T07:13:49.000Z</time>
</trkpt>
<trkpt lat="47.0154068" lon="13.3204201">
<ele>3363.73</ele>
<time>2026-08-15T07:22:59.000Z</time>
</trkpt>
<trkpt lat="47.0154141" lon="13.3201488">
<ele>3361.36</ele>
<time>2026-08-15T08:22:30.000Z</time>
</trkpt>
<trkpt lat="47.0152794" lon="13.3199659">
<ele>3340.21</ele>
<time>2026-08-15T08:28:18.000Z</time>
</trkpt>
<trkpt lat="47.0152647" lon="13.3196953">
<ele>3325.35</ele>
<time>2026-08-15T08:31:35.000Z</time>
</trkpt>
<trkpt lat="47.0151251" lon="13.3195251">
<ele>3301.31</ele>
<time>2026-08-15T08:37:50.000Z</time>
</trkpt>
<trkpt lat="47.0150509" lon="13.3192819">
<ele>3295.94</ele>
<time>2026-08-15T08:41:18.000Z</time>
</trkpt>
<trkpt lat="47.0149604" lon="13.3190514">
<ele>3295.63</ele>
<time>2026-08-15T08:43:20.000Z</time>
</trkpt>
<trkpt lat="47.0149230" lon="13.3187885">
<ele>3288.50</ele>
<time>2026-08-15T08:45:32.000Z</time>
</trkpt>
<trkpt lat="47.0147642" lon="13.3186626">
<ele>3267.06</ele>
<time>2026-08-15T08:47:59.000Z</time>
</trkpt>
<trkpt lat="47.0148030" lon="13.3183974">
<ele>3269.71</ele>
<time>2026-08-15T08:49:21.000Z</time>
</trkpt>
<trkpt lat="47.0146663" lon="13.3182249">
<ele>3265.71</ele>
<time>2026-08-15T08:50:52.000Z</time>
</trkpt>
<trkpt lat="47.0145053" lon="13.3181057">
<ele>3257.40</ele>
<time>2026-08-15T08:55:47.000Z</time>
</trkpt>
<trkpt lat="47.0143654" lon="13.3179315">
<ele>3247.34</ele>
<time>2026-08-15T08:57:38.000Z</time>
</trkpt>
<trkpt lat="47.0142217" lon="13.3177623">
<ele>3242.16</ele>
<time>2026-08-15T08:58:38.000Z</time>
</trkpt>
<trkpt lat="47.0140939" lon="13.3175717">
<ele>3236.14</ele>
<time>2026-08-15T09:02:13.000Z</time>
</trkpt>
<trkpt lat="47.0139360" lon="13.3174387">
<ele>3228.68</ele>
<time>2026-08-15T09:04:58.000Z</time>
</trkpt>
<trkpt lat="47.0137744" lon="13.3173024">
<ele>3221.93</ele>
<time>2026-08-15T09:06:39.000Z</time>
</trkpt>
<trkpt lat="47.0136236" lon="13.3171557">
<ele>3215.94</ele>
<time>2026-08-15T09:07:44.000Z</time>
</trkpt>
<trkpt lat="47.0134425" lon="13.3171284">
<ele>3200.49</ele>
<time>2026-08-15T09:09:54.000Z</time>
</trkpt>
<trkpt lat="47.0133220" lon="13.3173249">
<ele>3189.09</ele>
<time>2026-08-15T09:14:52.000Z</time>
</trkpt>
<trkpt lat="47.0131403" lon="13.3173463">
<ele>3176.56</ele>
<time>2026-08-15T09:15:53.000Z</time>
</trkpt>
<trkpt lat="47.0129625" lon="13.3172710">
<ele>3174.57</ele>
<time>2026-08-15T09:29:46.000Z</time>
</trkpt>
<trkpt lat="47.0127929" lon="13.3171721">
<ele>3168.82</ele>
<time>2026-08-15T09:30:39.000Z</time>
</trkpt>
<trkpt lat="47.0126079" lon="13.3171585">
<ele>3165.33</ele>
<time>2026-08-15T09:30:59.000Z</time>
</trkpt>
<trkpt lat="47.0124264" lon="13.3171962">
<ele>3147.62</ele>
<time>2026-08-15T09:32:32.000Z</time>
</trkpt>
<trkpt lat="47.0122536" lon="13.3171043">
<ele>3144.63</ele>
<time>2026-08-15T09:32:52.000Z</time>
</trkpt>
<trkpt lat="47.0120743" lon="13.3170635">
<ele>3150.26</ele>
<time>2026-08-15T09:34:15.000Z</time>
</trkpt>
<trkpt lat="47.0119131" lon="13.3169392">
<ele>3146.86</ele>
<time>2026-08-15T09:35:41.000Z</time>
</trkpt>
<trkpt lat="47.0117839" lon="13.3167529">
<ele>3144.64</ele>
<time>2026-08-15T09:36:40.000Z</time>
</trkpt>
<trkpt lat="47.0116503" lon="13.3165618">
<ele>3138.74</ele>
<time>2026-08-15T09:37:32.000Z</time>
</trkpt>
<trkpt lat="47.0115686" lon="13.3163228">
<ele>3131.93</ele>
<time>2026-08-15T09:38:24.000Z</time>
</trkpt>
<trkpt lat="47.0114950" lon="13.3160714">
<ele>3126.83</ele>
<time>2026-08-15T09:38:46.000Z</time>
</trkpt>
<trkpt lat="47.0114099" lon="13.3158382">
<ele>3124.29</ele>
<time>2026-08-15T09:39:28.000Z</time>
</trkpt>
<trkpt lat="47.0113327" lon="13.3155867">
<ele>3117.98</ele>
<time>2026-08-15T09:40:14.000Z</time>
</trkpt>
<trkpt lat="47.0112861" lon="13.3153267">
<ele>3117.14</ele>
<time>2026-08-15T09:40:31.000Z</time>
</trkpt>
<trkpt lat="47.0113561" lon="13.3150700">
<ele>3119.30</ele>
<time>2026-08-15T09:42:24.000Z</time>
</trkpt>
<trkpt lat="47.0114179" lon="13.3148095">
<ele>3112.92</ele>
<time>2026-08-15T09:42:42.000Z</time>
</trkpt>
<trkpt lat="47.0113066" lon="13.3150207">
<ele>3115.79</ele>
<time>2026-08-15T09:43:36.000Z</time>
</trkpt>
<trkpt lat="47.0112503" lon="13.3152721">
<ele>3119.05</ele>
<time>2026-08-15T09:43:51.000Z</time>
</trkpt>
<trkpt lat="47.0112520" lon="13.3155370">
<ele>3117.48</ele>
<time>2026-08-15T09:50:31.000Z</time>
</trkpt>
<trkpt lat="47.0111827" lon="13.3157836">
<ele>3110.79</ele>
<time>2026-08-15T09:51:08.000Z</time>
</trkpt>
<trkpt lat="47.0111870" lon="13.3160603">
<ele>3106.82</ele>
<time>2026-08-15T09:51:39.000Z</time>
</trkpt>
<trkpt lat="47.0111359" lon="13.3163177">
<ele>3101.42</ele>
<time>2026-08-15T09:52:13.000Z</time>
</trkpt>
<trkpt lat="47.0109995" lon="13.3164984">
<ele>3093.05</ele>
<time>2026-08-15T09:53:07.000Z</time>
</trkpt>
<trkpt lat="47.0108843" lon="13.3167055">
<ele>3087.04</ele>
<time>2026-08-15T09:53:36.000Z</time>
</trkpt>
<trkpt lat="47.0107642" lon="13.3169080">
<ele>3082.56</ele>
<time>2026-08-15T09:53:57.000Z</time>
</trkpt>
<trkpt lat="47.0107237" lon="13.3171692">
<ele>3080.23</ele>
<time>2026-08-15T09:54:15.000Z</time>
</trkpt>
<trkpt lat="47.0106260" lon="13.3173924">
<ele>3080.63</ele>
<time>2026-08-15T09:55:48.000Z</time>
</trkpt>
<trkpt lat="47.0105874" lon="13.3171261">
<ele>3076.56</ele>
<time>2026-08-15T09:59:00.000Z</time>
</trkpt>
<trkpt lat="47.0103985" lon="13.3171562">
<ele>3066.71</ele>
<time>2026-08-15T09:59:36.000Z</time>
</trkpt>
<trkpt lat="47.0102936" lon="13.3169354">
<ele>3062.84</ele>
<time>2026-08-15T10:00:14.000Z</time>
</trkpt>
<trkpt lat="47.0101637" lon="13.3167525">
<ele>3055.89</ele>
<time>2026-08-15T10:01:19.000Z</time>
</trkpt>
<trkpt lat="47.0100735" lon="13.3165126">
<ele>3043.37</ele>
<time>2026-08-15T10:01:58.000Z</time>
</trkpt>
<trkpt lat="47.0099526" lon="13.3163144">
<ele>3033.40</ele>
<time>2026-08-15T10:02:29.000Z</time>
</trkpt>
<trkpt lat="47.0098483" lon="13.3160936">
<ele>3026.32</ele>
<time>2026-08-15T10:02:46.000Z</time>
</trkpt>
<trkpt lat="47.0097183" lon="13.3159052">
<ele>3020.41</ele>
<time>2026-08-15T10:03:11.000Z</time>
</trkpt>
<trkpt lat="47.0096251" lon="13.3156689">
<ele>3017.04</ele>
<time>2026-08-15T10:03:41.000Z</time>
</trkpt>
<trkpt lat="47.0095125" lon="13.3154619">
<ele>3006.49</ele>
<time>2026-08-15T10:04:27.000Z</time>
</trkpt>
<trkpt lat="47.0093750" lon="13.3152910">
<ele>2992.50</ele>
<time>2026-08-15T10:06:24.000Z</time>
</trkpt>
<trkpt lat="47.0093195" lon="13.3150264">
<ele>2979.52</ele>
<time>2026-08-15T10:07:18.000Z</time>
</trkpt>
<trkpt lat="47.0092329" lon="13.3147922">
<ele>2965.95</ele>
<time>2026-08-15T10:07:55.000Z</time>
</trkpt>
<trkpt lat="47.0091766" lon="13.3145386">
<ele>2965.25</ele>
<time>2026-08-15T10:08:30.000Z</time>
</trkpt>
<trkpt lat="47.0090948" lon="13.3143003">
<ele>2963.23</ele>
<time>2026-08-15T10:09:01.000Z</time>
</trkpt>
<trkpt lat="47.0090072" lon="13.3140695">
<ele>2960.74</ele>
<time>2026-08-15T10:09:26.000Z</time>
</trkpt>
<trkpt lat="47.0088505" lon="13.3139196">
<ele>2955.76</ele>
<time>2026-08-15T10:10:02.000Z</time>
</trkpt>
<trkpt lat="47.0087026" lon="13.3137627">
<ele>2947.45</ele>
<time>2026-08-15T10:10:27.000Z</time>
</trkpt>
<trkpt lat="47.0085252" lon="13.3136929">
<ele>2940.41</ele>
<time>2026-08-15T10:11:07.000Z</time>
</trkpt>
<trkpt lat="47.0083598" lon="13.3135876">
<ele>2928.93</ele>
<time>2026-08-15T10:13:31.000Z</time>
</trkpt>
<trkpt lat="47.0082182" lon="13.3137564">
<ele>2914.64</ele>
<time>2026-08-15T10:16:48.000Z</time>
</trkpt>
<trkpt lat="47.0081025" lon="13.3139759">
<ele>2903.59</ele>
<time>2026-08-15T10:17:38.000Z</time>
</trkpt>
<trkpt lat="47.0079645" lon="13.3141551">
<ele>2890.10</ele>
<time>2026-08-15T10:18:37.000Z</time>
</trkpt>
<trkpt lat="47.0078197" lon="13.3139986">
<ele>2881.72</ele>
<time>2026-08-15T10:19:07.000Z</time>
</trkpt>
<trkpt lat="47.0077961" lon="13.3137355">
<ele>2874.98</ele>
<time>2026-08-15T10:19:33.000Z</time>
</trkpt>
<trkpt lat="47.0077487" lon="13.3134782">
<ele>2869.28</ele>
<time>2026-08-15T10:20:22.000Z</time>
</trkpt>
<trkpt lat="47.0076121" lon="13.3132975">
<ele>2863.34</ele>
<time>2026-08-15T10:20:52.000Z</time>
</trkpt>
<trkpt lat="47.0074545" lon="13.3131634">
<ele>2859.37</ele>
<time>2026-08-15T10:29:38.000Z</time>
</trkpt>
<trkpt lat="47.0074196" lon="13.3129043">
<ele>2863.83</ele>
<time>2026-08-15T10:31:07.000Z</time>
</trkpt>
<trkpt lat="47.0072929" lon="13.3127166">
<ele>2861.92</ele>
<time>2026-08-15T10:32:11.000Z</time>
</trkpt>
<trkpt lat="47.0071655" lon="13.3125177">
<ele>2863.67</ele>
<time>2026-08-15T10:34:05.000Z</time>
</trkpt>
<trkpt lat="47.0070521" lon="13.3123065">
<ele>2865.75</ele>
<time>2026-08-15T10:35:54.000Z</time>
</trkpt>
<trkpt lat="47.0068767" lon="13.3122383">
<ele>2857.83</ele>
<time>2026-08-15T10:36:21.000Z</time>
</trkpt>
<trkpt lat="47.0066927" lon="13.3122092">
<ele>2853.77</ele>
<time>2026-08-15T10:36:44.000Z</time>
</trkpt>
<trkpt lat="47.0065339" lon="13.3120719">
<ele>2855.76</ele>
<time>2026-08-15T10:37:07.000Z</time>
</trkpt>
<trkpt lat="47.0064847" lon="13.3118034">
<ele>2858.51</ele>
<time>2026-08-15T10:37:27.000Z</time>
</trkpt>
<trkpt lat="47.0064887" lon="13.3115246">
<ele>2863.04</ele>
<time>2026-08-15T10:37:49.000Z</time>
</trkpt>
<trkpt lat="47.0064186" lon="13.3112814">
<ele>2867.34</ele>
<time>2026-08-15T10:38:30.000Z</time>
</trkpt>
<trkpt lat="47.0064165" lon="13.3110093">
<ele>2875.19</ele>
<time>2026-08-15T10:39:23.000Z</time>
</trkpt>
<trkpt lat="47.0064036" lon="13.3107330">
<ele>2878.65</ele>
<time>2026-08-15T10:39:47.000Z</time>
</trkpt>
<trkpt lat="47.0063716" lon="13.3104647">
<ele>2885.03</ele>
<time>2026-08-15T10:40:08.000Z</time>
</trkpt>
<trkpt lat="47.0062823" lon="13.3102289">
<ele>2883.28</ele>
<time>2026-08-15T10:41:07.000Z</time>
</trkpt>
<trkpt lat="47.0061882" lon="13.3099922">
<ele>2881.65</ele>
<time>2026-08-15T10:41:35.000Z</time>
</trkpt>
<trkpt lat="47.0062298" lon="13.3097329">
<ele>2882.07</ele>
<time>2026-08-15T10:42:12.000Z</time>
</trkpt>
<trkpt lat="47.0061862" lon="13.3094698">
<ele>2888.34</ele>
<time>2026-08-15T10:42:56.000Z</time>
</trkpt>
<trkpt lat="47.0060716" lon="13.3092659">
<ele>2888.04</ele>
<time>2026-08-15T10:44:29.000Z</time>
</trkpt>
<trkpt lat="47.0059657" lon="13.3090438">
<ele>2887.79</ele>
<time>2026-08-15T10:44:58.000Z</time>
</trkpt>
<trkpt lat="47.0058796" lon="13.3088002">
<ele>2880.79</ele>
<time>2026-08-15T10:45:35.000Z</time>
</trkpt>
<trkpt lat="47.0057465" lon="13.3086133">
<ele>2876.60</ele>
<time>2026-08-15T10:45:59.000Z</time>
</trkpt>
<trkpt lat="47.0056717" lon="13.3083649">
<ele>2873.76</ele>
<time>2026-08-15T10:46:26.000Z</time>
</trkpt>
<trkpt lat="47.0056448" lon="13.3080980">
<ele>2875.83</ele>
<time>2026-08-15T10:47:15.000Z</time>
</trkpt>
<trkpt lat="47.0056023" lon="13.3078264">
<ele>2878.24</ele>
<time>2026-08-15T10:47:39.000Z</time>
</trkpt>
<trkpt lat="47.0056429" lon="13.3075597">
<ele>2883.74</ele>
<time>2026-08-15T10:48:31.000Z</time>
</trkpt>
<trkpt lat="47.0055787" lon="13.3073113">
<ele>2879.97</ele>
<time>2026-08-15T10:49:00.000Z</time>
</trkpt>
<trkpt lat="47.0054918" lon="13.3070659">
<ele>2880.20</ele>
<time>2026-08-15T10:49:27.000Z</time>
</trkpt>
<trkpt lat="47.0053798" lon="13.3068583">
<ele>2879.46</ele>
<time>2026-08-15T10:49:44.000Z</time>
</trkpt>
<trkpt lat="47.0053796" lon="13.3065884">
<ele>2881.15</ele>
<time>2026-08-15T10:50:20.000Z</time>
</trkpt>
<trkpt lat="47.0053904" lon="13.3063191">
<ele>2885.63</ele>
<time>2026-08-15T10:51:17.000Z</time>
</trkpt>
<trkpt lat="47.0053525" lon="13.3060539">
<ele>2894.96</ele>
<time>2026-08-15T10:51:46.000Z</time>
</trkpt>
<trkpt lat="47.0052845" lon="13.3058072">
<ele>2907.35</ele>
<time>2026-08-15T10:52:45.000Z</time>
</trkpt>
<trkpt lat="47.0051860" lon="13.3055732">
<ele>2911.42</ele>
<time>2026-08-15T10:53:23.000Z</time>
</trkpt>
<trkpt lat="47.0050595" lon="13.3053787">
<ele>2917.94</ele>
<time>2026-08-15T10:53:44.000Z</time>
</trkpt>
<trkpt lat="47.0049342" lon="13.3051862">
<ele>2920.69</ele>
<time>2026-08-15T10:54:02.000Z</time>
</trkpt>
<trkpt lat="47.0048259" lon="13.3049669">
<ele>2923.63</ele>
<time>2026-08-15T10:54:29.000Z</time>
</trkpt>
<trkpt lat="47.0047202" lon="13.3047514">
<ele>2930.37</ele>
<time>2026-08-15T10:54:58.000Z</time>
</trkpt>
<trkpt lat="47.0045481" lon="13.3046459">
<ele>2930.94</ele>
<time>2026-08-15T10:55:23.000Z</time>
</trkpt>
<trkpt lat="47.0043979" lon="13.3044866">
<ele>2937.99</ele>
<time>2026-08-15T10:55:56.000Z</time>
</trkpt>
<trkpt lat="47.0044524" lon="13.3042309">
<ele>2946.92</ele>
<time>2026-08-15T10:56:40.000Z</time>
</trkpt>
<trkpt lat="47.0044286" lon="13.3039521">
<ele>2957.10</ele>
<time>2026-08-15T10:57:12.000Z</time>
</trkpt>
<trkpt lat="47.0042800" lon="13.3037802">
<ele>2963.67</ele>
<time>2026-08-15T10:57:50.000Z</time>
</trkpt>
<trkpt lat="47.0041906" lon="13.3035471">
<ele>2976.21</ele>
<time>2026-08-15T10:58:38.000Z</time>
</trkpt>
<trkpt lat="47.0040749" lon="13.3033405">
<ele>2985.32</ele>
<time>2026-08-15T10:59:12.000Z</time>
</trkpt>
<trkpt lat="47.0040110" lon="13.3030852">
<ele>2994.17</ele>
<time>2026-08-15T11:00:03.000Z</time>
</trkpt>
<trkpt lat="47.0039551" lon="13.3028315">
<ele>2994.79</ele>
<time>2026-08-15T11:00:19.000Z</time>
</trkpt>
<trkpt lat="47.0039056" lon="13.3025635">
<ele>2993.36</ele>
<time>2026-08-15T11:00:36.000Z</time>
</trkpt>
<trkpt lat="47.0038427" lon="13.3023138">
<ele>2994.61</ele>
<time>2026-08-15T11:00:51.000Z</time>
</trkpt>
<trkpt lat="47.0038199" lon="13.3020493">
<ele>3001.15</ele>
<time>2026-08-15T11:01:09.000Z</time>
</trkpt>
<trkpt lat="47.0037783" lon="13.3017737">
<ele>3005.87</ele>
<time>2026-08-15T11:01:27.000Z</time>
</trkpt>
<trkpt lat="47.0037303" lon="13.3015171">
<ele>3006.89</ele>
<time>2026-08-15T11:02:04.000Z</time>
</trkpt>
<trkpt lat="47.0036304" lon="13.3012891">
<ele>3011.47</ele>
<time>2026-08-15T11:02:21.000Z</time>
</trkpt>
<trkpt lat="47.0036169" lon="13.3010257">
<ele>3014.92</ele>
<time>2026-08-15T11:03:35.000Z</time>
</trkpt>
<trkpt lat="47.0036152" lon="13.3012959">
<ele>3008.36</ele>
<time>2026-08-15T11:14:52.000Z</time>
</trkpt>
<trkpt lat="47.0036300" lon="13.3015628">
<ele>3008.83</ele>
<time>2026-08-15T12:02:00.000Z</time>
</trkpt>
<trkpt lat="47.0036898" lon="13.3018172">
<ele>3002.47</ele>
<time>2026-08-15T12:02:20.000Z</time>
</trkpt>
<trkpt lat="47.0037346" lon="13.3020789">
<ele>2999.40</ele>
<time>2026-08-15T12:02:44.000Z</time>
</trkpt>
<trkpt lat="47.0037852" lon="13.3023365">
<ele>2993.98</ele>
<time>2026-08-15T12:03:05.000Z</time>
</trkpt>
<trkpt lat="47.0038127" lon="13.3026017">
<ele>2989.95</ele>
<time>2026-08-15T12:03:26.000Z</time>
</trkpt>
<trkpt lat="47.0038607" lon="13.3028787">
<ele>2990.17</ele>
<time>2026-08-15T12:03:49.000Z</time>
</trkpt>
<trkpt lat="47.0039456" lon="13.3031276">
<ele>2988.18</ele>
<time>2026-08-15T12:04:16.000Z</time>
</trkpt>
<trkpt lat="47.0040307" lon="13.3033684">
<ele>2988.39</ele>
<time>2026-08-15T12:05:08.000Z</time>
</trkpt>
<trkpt lat="47.0042135" lon="13.3034456">
<ele>2983.76</ele>
<time>2026-08-15T12:05:35.000Z</time>
</trkpt>
<trkpt lat="47.0042679" lon="13.3037009">
<ele>2969.62</ele>
<time>2026-08-15T12:07:00.000Z</time>
</trkpt>
<trkpt lat="47.0042938" lon="13.3039627">
<ele>2957.15</ele>
<time>2026-08-15T12:08:00.000Z</time>
</trkpt>
<trkpt lat="47.0043514" lon="13.3042202">
<ele>2947.12</ele>
<time>2026-08-15T12:08:48.000Z</time>
</trkpt>
<trkpt lat="47.0044327" lon="13.3044638">
<ele>2936.88</ele>
<time>2026-08-15T12:09:35.000Z</time>
</trkpt>
<trkpt lat="47.0045970" lon="13.3045972">
<ele>2931.83</ele>
<time>2026-08-15T12:10:18.000Z</time>
</trkpt>
<trkpt lat="47.0046831" lon="13.3048448">
<ele>2928.15</ele>
<time>2026-08-15T12:11:48.000Z</time>
</trkpt>
<trkpt lat="47.0048359" lon="13.3049994">
<ele>2920.54</ele>
<time>2026-08-15T12:12:16.000Z</time>
</trkpt>
<trkpt lat="47.0049837" lon="13.3051734">
<ele>2917.43</ele>
<time>2026-08-15T12:12:36.000Z</time>
</trkpt>
<trkpt lat="47.0050963" lon="13.3053801">
<ele>2912.35</ele>
<time>2026-08-15T12:12:58.000Z</time>
</trkpt>
<trkpt lat="47.0052074" lon="13.3056037">
<ele>2908.95</ele>
<time>2026-08-15T12:13:27.000Z</time>
</trkpt>
<trkpt lat="47.0052270" lon="13.3058669">
<ele>2900.53</ele>
<time>2026-08-15T12:14:25.000Z</time>
</trkpt>
<trkpt lat="47.0053223" lon="13.3061006">
<ele>2894.00</ele>
<time>2026-08-15T12:14:49.000Z</time>
</trkpt>
<trkpt lat="47.0053696" lon="13.3063567">
<ele>2885.53</ele>
<time>2026-08-15T12:15:41.000Z</time>
</trkpt>
<trkpt lat="47.0054231" lon="13.3066086">
<ele>2877.64</ele>
<time>2026-08-15T12:16:27.000Z</time>
</trkpt>
<trkpt lat="47.0054641" lon="13.3068774">
<ele>2875.65</ele>
<time>2026-08-15T12:16:58.000Z</time>
</trkpt>
<trkpt lat="47.0053796" lon="13.3071245">
<ele>2870.08</ele>
<time>2026-08-15T12:19:34.000Z</time>
</trkpt>
<trkpt lat="47.0053354" lon="13.3073822">
<ele>2861.73</ele>
<time>2026-08-15T12:21:05.000Z</time>
</trkpt>
<trkpt lat="47.0052047" lon="13.3075665">
<ele>2853.19</ele>
<time>2026-08-15T12:21:51.000Z</time>
</trkpt>
<trkpt lat="47.0051929" lon="13.3078304">
<ele>2842.36</ele>
<time>2026-08-15T12:22:54.000Z</time>
</trkpt>
<trkpt lat="47.0051055" lon="13.3080753">
<ele>2830.14</ele>
<time>2026-08-15T12:23:36.000Z</time>
</trkpt>
<trkpt lat="47.0050353" lon="13.3083208">
<ele>2819.73</ele>
<time>2026-08-15T12:24:29.000Z</time>
</trkpt>
<trkpt lat="47.0050402" lon="13.3085920">
<ele>2815.17</ele>
<time>2026-08-15T12:25:31.000Z</time>
</trkpt>
<trkpt lat="47.0049585" lon="13.3088315">
<ele>2806.37</ele>
<time>2026-08-15T12:26:09.000Z</time>
</trkpt>
<trkpt lat="47.0048606" lon="13.3090548">
<ele>2794.30</ele>
<time>2026-08-15T12:26:57.000Z</time>
</trkpt>
<trkpt lat="47.0047610" lon="13.3092829">
<ele>2785.85</ele>
<time>2026-08-15T12:27:36.000Z</time>
</trkpt>
<trkpt lat="47.0045845" lon="13.3093416">
<ele>2774.39</ele>
<time>2026-08-15T12:28:33.000Z</time>
</trkpt>
<trkpt lat="47.0044685" lon="13.3095511">
<ele>2763.54</ele>
<time>2026-08-15T12:29:27.000Z</time>
</trkpt>
<trkpt lat="47.0043318" lon="13.3097289">
<ele>2755.51</ele>
<time>2026-08-15T12:29:59.000Z</time>
</trkpt>
<trkpt lat="47.0042470" lon="13.3099627">
<ele>2741.40</ele>
<time>2026-08-15T12:30:43.000Z</time>
</trkpt>
<trkpt lat="47.0042039" lon="13.3102188">
<ele>2742.37</ele>
<time>2026-08-15T12:31:27.000Z</time>
</trkpt>
<trkpt lat="47.0040607" lon="13.3103832">
<ele>2736.72</ele>
<time>2026-08-15T12:31:52.000Z</time>
</trkpt>
<trkpt lat="47.0040976" lon="13.3106457">
<ele>2731.78</ele>
<time>2026-08-15T12:32:20.000Z</time>
</trkpt>
<trkpt lat="47.0040134" lon="13.3108859">
<ele>2723.71</ele>
<time>2026-08-15T12:32:55.000Z</time>
</trkpt>
<trkpt lat="47.0039625" lon="13.3111508">
<ele>2718.67</ele>
<time>2026-08-15T12:33:24.000Z</time>
</trkpt>
<trkpt lat="47.0039911" lon="13.3114269">
<ele>2709.54</ele>
<time>2026-08-15T12:34:01.000Z</time>
</trkpt>
<trkpt lat="47.0039462" lon="13.3116967">
<ele>2710.64</ele>
<time>2026-08-15T12:34:18.000Z</time>
</trkpt>
<trkpt lat="47.0039154" lon="13.3119662">
<ele>2706.30</ele>
<time>2026-08-15T12:34:33.000Z</time>
</trkpt>
<trkpt lat="47.0038375" lon="13.3122338">
<ele>2699.52</ele>
<time>2026-08-15T12:34:52.000Z</time>
</trkpt>
<trkpt lat="47.0037487" lon="13.3124716">
<ele>2696.26</ele>
<time>2026-08-15T12:35:16.000Z</time>
</trkpt>
<trkpt lat="47.0037460" lon="13.3127427">
<ele>2691.30</ele>
<time>2026-08-15T12:35:36.000Z</time>
</trkpt>
<trkpt lat="47.0036892" lon="13.3130017">
<ele>2687.40</ele>
<time>2026-08-15T12:35:59.000Z</time>
</trkpt>
<trkpt lat="47.0035865" lon="13.3132356">
<ele>2678.79</ele>
<time>2026-08-15T12:36:24.000Z</time>
</trkpt>
<trkpt lat="47.0035234" lon="13.3135008">
<ele>2673.61</ele>
<time>2026-08-15T12:37:40.000Z</time>
</trkpt>
<trkpt lat="47.0034627" lon="13.3137583">
<ele>2671.60</ele>
<time>2026-08-15T12:38:02.000Z</time>
</trkpt>
<trkpt lat="47.0033696" lon="13.3139905">
<ele>2670.18</ele>
<time>2026-08-15T12:38:45.000Z</time>
</trkpt>
<trkpt lat="47.0032349" lon="13.3138099">
<ele>2655.33</ele>
<time>2026-08-15T12:40:02.000Z</time>
</trkpt>
<trkpt lat="47.0030753" lon="13.3139363">
<ele>2654.25</ele>
<time>2026-08-15T12:40:18.000Z</time>
</trkpt>
<trkpt lat="47.0030073" lon="13.3141838">
<ele>2652.86</ele>
<time>2026-08-15T12:40:36.000Z</time>
</trkpt>
<trkpt lat="47.0029742" lon="13.3144477">
<ele>2648.64</ele>
<time>2026-08-15T12:41:10.000Z</time>
</trkpt>
<trkpt lat="47.0028356" lon="13.3146267">
<ele>2646.50</ele>
<time>2026-08-15T12:41:27.000Z</time>
</trkpt>
<trkpt lat="47.0026578" lon="13.3145633">
<ele>2632.94</ele>
<time>2026-08-15T12:42:02.000Z</time>
</trkpt>
<trkpt lat="47.0025829" lon="13.3148041">
<ele>2624.11</ele>
<time>2026-08-15T12:42:26.000Z</time>
</trkpt>
<trkpt lat="47.0024004" lon="13.3147787">
<ele>2620.28</ele>
<time>2026-08-15T12:46:46.000Z</time>
</trkpt>
<trkpt lat="47.0022183" lon="13.3147264">
<ele>2609.50</ele>
<time>2026-08-15T12:47:26.000Z</time>
</trkpt>
<trkpt lat="47.0020499" lon="13.3148322">
<ele>2602.56</ele>
<time>2026-08-15T12:47:43.000Z</time>
</trkpt>
<trkpt lat="47.0018538" lon="13.3148425">
<ele>2598.74</ele>
<time>2026-08-15T12:47:57.000Z</time>
</trkpt>
<trkpt lat="47.0016787" lon="13.3149159">
<ele>2595.90</ele>
<time>2026-08-15T12:48:19.000Z</time>
</trkpt>
<trkpt lat="47.0017146" lon="13.3151841">
<ele>2590.74</ele>
<time>2026-08-15T12:48:58.000Z</time>
</trkpt>
<trkpt lat="47.0016004" lon="13.3153923">
<ele>2586.59</ele>
<time>2026-08-15T12:49:17.000Z</time>
</trkpt>
<trkpt lat="47.0015340" lon="13.3156490">
<ele>2585.31</ele>
<time>2026-08-15T12:49:30.000Z</time>
</trkpt>
<trkpt lat="47.0015507" lon="13.3159173">
<ele>2580.26</ele>
<time>2026-08-15T12:49:47.000Z</time>
</trkpt>
<trkpt lat="47.0015559" lon="13.3161936">
<ele>2582.84</ele>
<time>2026-08-15T12:49:59.000Z</time>
</trkpt>
<trkpt lat="47.0015434" lon="13.3164569">
<ele>2580.67</ele>
<time>2026-08-15T12:50:19.000Z</time>
</trkpt>
<trkpt lat="47.0014948" lon="13.3167135">
<ele>2570.59</ele>
<time>2026-08-15T12:50:40.000Z</time>
</trkpt>
<trkpt lat="47.0014633" lon="13.3169779">
<ele>2565.95</ele>
<time>2026-08-15T12:51:16.000Z</time>
</trkpt>
<trkpt lat="47.0013790" lon="13.3172163">
<ele>2564.09</ele>
<time>2026-08-15T12:51:30.000Z</time>
</trkpt>
<trkpt lat="47.0012020" lon="13.3172722">
<ele>2555.20</ele>
<time>2026-08-15T12:52:04.000Z</time>
</trkpt>
<trkpt lat="47.0010369" lon="13.3173948">
<ele>2548.16</ele>
<time>2026-08-15T12:52:26.000Z</time>
</trkpt>
<trkpt lat="47.0009914" lon="13.3176501">
<ele>2542.31</ele>
<time>2026-08-15T12:52:51.000Z</time>
</trkpt>
<trkpt lat="47.0008674" lon="13.3178457">
<ele>2537.16</ele>
<time>2026-08-15T12:53:13.000Z</time>
</trkpt>
<trkpt lat="47.0008897" lon="13.3181222">
<ele>2533.69</ele>
<time>2026-08-15T12:53:37.000Z</time>
</trkpt>
<trkpt lat="47.0008194" lon="13.3183737">
<ele>2526.21</ele>
<time>2026-08-15T12:54:07.000Z</time>
</trkpt>
<trkpt lat="47.0008866" lon="13.3186199">
<ele>2518.01</ele>
<time>2026-08-15T12:54:38.000Z</time>
</trkpt>
<trkpt lat="47.0009512" lon="13.3188825">
<ele>2521.01</ele>
<time>2026-08-15T12:55:02.000Z</time>
</trkpt>
<trkpt lat="47.0008862" lon="13.3191326">
<ele>2514.26</ele>
<time>2026-08-15T12:55:20.000Z</time>
</trkpt>
<trkpt lat="47.0007974" lon="13.3193788">
<ele>2511.36</ele>
<time>2026-08-15T12:55:35.000Z</time>
</trkpt>
<trkpt lat="47.0006187" lon="13.3193429">
<ele>2495.54</ele>
<time>2026-08-15T12:56:08.000Z</time>
</trkpt>
<trkpt lat="47.0004426" lon="13.3192491">
<ele>2487.42</ele>
<time>2026-08-15T12:56:33.000Z</time>
</trkpt>
<trkpt lat="47.0003060" lon="13.3194395">
<ele>2483.84</ele>
<time>2026-08-15T12:56:52.000Z</time>
</trkpt>
<trkpt lat="47.0002183" lon="13.3196819">
<ele>2481.16</ele>
<time>2026-08-15T12:57:08.000Z</time>
</trkpt>
<trkpt lat="47.0001932" lon="13.3199494">
<ele>2477.22</ele>
<time>2026-08-15T12:57:22.000Z</time>
</trkpt>
<trkpt lat="47.0001304" lon="13.3201989">
<ele>2474.47</ele>
<time>2026-08-15T12:57:37.000Z</time>
</trkpt>
<trkpt lat="47.0000810" lon="13.3204646">
<ele>2467.50</ele>
<time>2026-08-15T12:57:53.000Z</time>
</trkpt>
<trkpt lat="47.0000016" lon="13.3207070">
<ele>2466.11</ele>
<time>2026-08-15T12:58:07.000Z</time>
</trkpt>
<trkpt lat="46.9999326" lon="13.3209590">
<ele>2460.47</ele>
<time>2026-08-15T12:58:19.000Z</time>
</trkpt>
<trkpt lat="46.9998203" lon="13.3211867">
<ele>2452.78</ele>
<time>2026-08-15T12:58:38.000Z</time>
</trkpt>
<trkpt lat="46.9998322" lon="13.3214520">
<ele>2446.38</ele>
<time>2026-08-15T12:58:57.000Z</time>
</trkpt>
<trkpt lat="46.9998266" lon="13.3217281">
<ele>2449.45</ele>
<time>2026-08-15T12:59:10.000Z</time>
</trkpt>
<trkpt lat="46.9999131" lon="13.3219596">
<ele>2446.53</ele>
<time>2026-08-15T13:00:13.000Z</time>
</trkpt>
<trkpt lat="46.9998716" lon="13.3222203">
<ele>2448.99</ele>
<time>2026-08-15T13:19:16.000Z</time>
</trkpt>
<trkpt lat="46.9996984" lon="13.3223320">
<ele>2441.20</ele>
<time>2026-08-15T13:19:38.000Z</time>
</trkpt>
<trkpt lat="46.9996061" lon="13.3225613">
<ele>2437.15</ele>
<time>2026-08-15T13:19:54.000Z</time>
</trkpt>
<trkpt lat="46.9995367" lon="13.3228162">
<ele>2432.86</ele>
<time>2026-08-15T13:20:17.000Z</time>
</trkpt>
<trkpt lat="46.9993733" lon="13.3229644">
<ele>2431.30</ele>
<time>2026-08-15T13:20:33.000Z</time>
</trkpt>
<trkpt lat="46.9991888" lon="13.3230248">
<ele>2419.78</ele>
<time>2026-08-15T13:20:59.000Z</time>
</trkpt>
<trkpt lat="46.9990996" lon="13.3232545">
<ele>2415.73</ele>
<time>2026-08-15T13:21:15.000Z</time>
</trkpt>
<trkpt lat="46.9989464" lon="13.3234052">
<ele>2411.90</ele>
<time>2026-08-15T13:21:31.000Z</time>
</trkpt>
<trkpt lat="46.9988210" lon="13.3236270">
<ele>2409.96</ele>
<time>2026-08-15T13:21:46.000Z</time>
</trkpt>
<trkpt lat="46.9986954" lon="13.3238251">
<ele>2409.81</ele>
<time>2026-08-15T13:21:55.000Z</time>
</trkpt>
<trkpt lat="46.9985747" lon="13.3240354">
<ele>2408.49</ele>
<time>2026-08-15T13:22:11.000Z</time>
</trkpt>
<trkpt lat="46.9984643" lon="13.3242552">
<ele>2405.50</ele>
<time>2026-08-15T13:22:28.000Z</time>
</trkpt>
<trkpt lat="46.9983451" lon="13.3244558">
<ele>2398.89</ele>
<time>2026-08-15T13:22:52.000Z</time>
</trkpt>
<trkpt lat="46.9982548" lon="13.3246860">
<ele>2397.52</ele>
<time>2026-08-15T13:23:09.000Z</time>
</trkpt>
<trkpt lat="46.9982131" lon="13.3249438">
<ele>2397.07</ele>
<time>2026-08-15T13:23:26.000Z</time>
</trkpt>
<trkpt lat="46.9982828" lon="13.3251910">
<ele>2398.09</ele>
<time>2026-08-15T13:24:05.000Z</time>
</trkpt>
<trkpt lat="46.9981112" lon="13.3252961">
<ele>2392.44</ele>
<time>2026-08-15T13:25:58.000Z</time>
</trkpt>
<trkpt lat="46.9980178" lon="13.3255244">
<ele>2393.23</ele>
<time>2026-08-15T13:26:15.000Z</time>
</trkpt>
<trkpt lat="46.9979794" lon="13.3257938">
<ele>2390.33</ele>
<time>2026-08-15T13:26:32.000Z</time>
</trkpt>
<trkpt lat="46.9979249" lon="13.3260655">
<ele>2390.96</ele>
<time>2026-08-15T13:26:49.000Z</time>
</trkpt>
<trkpt lat="46.9978748" lon="13.3263215">
<ele>2388.31</ele>
<time>2026-08-15T13:27:03.000Z</time>
</trkpt>
<trkpt lat="46.9978113" lon="13.3265839">
<ele>2386.63</ele>
<time>2026-08-15T13:27:20.000Z</time>
</trkpt>
<trkpt lat="46.9977225" lon="13.3268165">
<ele>2385.10</ele>
<time>2026-08-15T13:27:31.000Z</time>
</trkpt>
<trkpt lat="46.9976164" lon="13.3270420">
<ele>2377.87</ele>
<time>2026-08-15T13:27:54.000Z</time>
</trkpt>
<trkpt lat="46.9975430" lon="13.3272881">
<ele>2377.64</ele>
<time>2026-08-15T13:28:09.000Z</time>
</trkpt>
<trkpt lat="46.9975380" lon="13.3275736">
<ele>2376.67</ele>
<time>2026-08-15T13:28:25.000Z</time>
</trkpt>
<trkpt lat="46.9975441" lon="13.3278415">
<ele>2376.94</ele>
<time>2026-08-15T13:28:43.000Z</time>
</trkpt>
<trkpt lat="46.9974926" lon="13.3281252">
<ele>2377.07</ele>
<time>2026-08-15T13:28:58.000Z</time>
</trkpt>
<trkpt lat="46.9974532" lon="13.3283951">
<ele>2368.37</ele>
<time>2026-08-15T13:29:19.000Z</time>
</trkpt>
<trkpt lat="46.9974028" lon="13.3286544">
<ele>2363.19</ele>
<time>2026-08-15T13:29:42.000Z</time>
</trkpt>
<trkpt lat="46.9973325" lon="13.3289029">
<ele>2365.98</ele>
<time>2026-08-15T13:30:36.000Z</time>
</trkpt>
<trkpt lat="46.9971676" lon="13.3290344">
<ele>2361.17</ele>
<time>2026-08-15T13:32:04.000Z</time>
</trkpt>
<trkpt lat="46.9970855" lon="13.3292721">
<ele>2361.27</ele>
<time>2026-08-15T13:32:18.000Z</time>
</trkpt>
<trkpt lat="46.9969564" lon="13.3294605">
<ele>2359.27</ele>
<time>2026-08-15T13:32:36.000Z</time>
</trkpt>
<trkpt lat="46.9968292" lon="13.3296472">
<ele>2357.40</ele>
<time>2026-08-15T13:32:53.000Z</time>
</trkpt>
<trkpt lat="46.9966421" lon="13.3296515">
<ele>2350.61</ele>
<time>2026-08-15T13:33:39.000Z</time>
</trkpt>
<trkpt lat="46.9964892" lon="13.3298053">
<ele>2348.94</ele>
<time>2026-08-15T13:33:58.000Z</time>
</trkpt>
<trkpt lat="46.9963467" lon="13.3300004">
<ele>2344.26</ele>
<time>2026-08-15T13:34:14.000Z</time>
</trkpt>
<trkpt lat="46.9961798" lon="13.3301014">
<ele>2338.99</ele>
<time>2026-08-15T13:34:30.000Z</time>
</trkpt>
<trkpt lat="46.9960514" lon="13.3303011">
<ele>2329.13</ele>
<time>2026-08-15T13:34:49.000Z</time>
</trkpt>
<trkpt lat="46.9958884" lon="13.3304148">
<ele>2321.96</ele>
<time>2026-08-15T13:35:08.000Z</time>
</trkpt>
<trkpt lat="46.9957130" lon="13.3304792">
<ele>2316.19</ele>
<time>2026-08-15T13:35:26.000Z</time>
</trkpt>
<trkpt lat="46.9955418" lon="13.3305932">
<ele>2310.89</ele>
<time>2026-08-15T13:35:39.000Z</time>
</trkpt>
<trkpt lat="46.9953855" lon="13.3307284">
<ele>2309.44</ele>
<time>2026-08-15T13:35:54.000Z</time>
</trkpt>
<trkpt lat="46.9952003" lon="13.3307204">
<ele>2310.12</ele>
<time>2026-08-15T13:36:05.000Z</time>
</trkpt>
<trkpt lat="46.9950333" lon="13.3306184">
<ele>2301.23</ele>
<time>2026-08-15T13:36:19.000Z</time>
</trkpt>
<trkpt lat="46.9948384" lon="13.3305899">
<ele>2297.84</ele>
<time>2026-08-15T13:37:02.000Z</time>
</trkpt>
<trkpt lat="46.9946562" lon="13.3305741">
<ele>2298.52</ele>
<time>2026-08-15T13:37:16.000Z</time>
</trkpt>
<trkpt lat="46.9945005" lon="13.3304172">
<ele>2283.97</ele>
<time>2026-08-15T13:37:44.000Z</time>
</trkpt>
<trkpt lat="46.9943192" lon="13.3303167">
<ele>2275.24</ele>
<time>2026-08-15T13:38:05.000Z</time>
</trkpt>
<trkpt lat="46.9941342" lon="13.3303004">
<ele>2277.05</ele>
<time>2026-08-15T13:38:18.000Z</time>
</trkpt>
<trkpt lat="46.9939520" lon="13.3303273">
<ele>2269.78</ele>
<time>2026-08-15T13:38:44.000Z</time>
</trkpt>
<trkpt lat="46.9937697" lon="13.3303794">
<ele>2264.20</ele>
<time>2026-08-15T13:39:07.000Z</time>
</trkpt>
<trkpt lat="46.9936177" lon="13.3302268">
<ele>2260.56</ele>
<time>2026-08-15T13:39:24.000Z</time>
</trkpt>
<trkpt lat="46.9936901" lon="13.3299684">
<ele>2247.88</ele>
<time>2026-08-15T13:39:42.000Z</time>
</trkpt>
<trkpt lat="46.9935485" lon="13.3297993">
<ele>2245.52</ele>
<time>2026-08-15T13:39:59.000Z</time>
</trkpt>
<trkpt lat="46.9933616" lon="13.3297544">
<ele>2240.72</ele>
<time>2026-08-15T13:40:14.000Z</time>
</trkpt>
<trkpt lat="46.9931810" lon="13.3297906">
<ele>2233.26</ele>
<time>2026-08-15T13:40:32.000Z</time>
</trkpt>
<trkpt lat="46.9932114" lon="13.3295224">
<ele>2228.86</ele>
<time>2026-08-15T13:40:57.000Z</time>
</trkpt>
<trkpt lat="46.9930514" lon="13.3293744">
<ele>2223.73</ele>
<time>2026-08-15T13:41:33.000Z</time>
</trkpt>
<trkpt lat="46.9928627" lon="13.3293263">
<ele>2220.91</ele>
<time>2026-08-15T13:41:48.000Z</time>
</trkpt>
<trkpt lat="46.9926709" lon="13.3293527">
<ele>2218.20</ele>
<time>2026-08-15T13:42:02.000Z</time>
</trkpt>
<trkpt lat="46.9925793" lon="13.3295960">
<ele>2211.62</ele>
<time>2026-08-15T13:42:56.000Z</time>
</trkpt>
<trkpt lat="46.9924637" lon="13.3293908">
<ele>2209.13</ele>
<time>2026-08-15T13:43:11.000Z</time>
</trkpt>
<trkpt lat="46.9923528" lon="13.3291719">
<ele>2209.24</ele>
<time>2026-08-15T13:43:21.000Z</time>
</trkpt>
<trkpt lat="46.9922274" lon="13.3289827">
<ele>2206.06</ele>
<time>2026-08-15T13:43:40.000Z</time>
</trkpt>
<trkpt lat="46.9923586" lon="13.3291762">
<ele>2205.19</ele>
<time>2026-08-15T13:45:39.000Z</time>
</trkpt>
<trkpt lat="46.9924217" lon="13.3294341">
<ele>2200.75</ele>
<time>2026-08-15T13:46:59.000Z</time>
</trkpt>
<trkpt lat="46.9923420" lon="13.3296787">
<ele>2202.30</ele>
<time>2026-08-15T13:47:16.000Z</time>
</trkpt>
<trkpt lat="46.9921731" lon="13.3297840">
<ele>2196.11</ele>
<time>2026-08-15T13:47:31.000Z</time>
</trkpt>
<trkpt lat="46.9919883" lon="13.3297620">
<ele>2193.92</ele>
<time>2026-08-15T13:47:44.000Z</time>
</trkpt>
<trkpt lat="46.9917998" lon="13.3297383">
<ele>2186.03</ele>
<time>2026-08-15T13:48:20.000Z</time>
</trkpt>
<trkpt lat="46.9916099" lon="13.3297330">
<ele>2179.79</ele>
<time>2026-08-15T13:48:39.000Z</time>
</trkpt>
<trkpt lat="46.9914143" lon="13.3297420">
<ele>2177.60</ele>
<time>2026-08-15T13:48:54.000Z</time>
</trkpt>
<trkpt lat="46.9913009" lon="13.3299492">
<ele>2172.66</ele>
<time>2026-08-15T13:49:15.000Z</time>
</trkpt>
<trkpt lat="46.9911204" lon="13.3299560">
<ele>2161.03</ele>
<time>2026-08-15T13:49:46.000Z</time>
</trkpt>
<trkpt lat="46.9909811" lon="13.3297765">
<ele>2153.48</ele>
<time>2026-08-15T13:50:03.000Z</time>
</trkpt>
<trkpt lat="46.9907999" lon="13.3298370">
<ele>2137.92</ele>
<time>2026-08-15T13:50:40.000Z</time>
</trkpt>
<trkpt lat="46.9906795" lon="13.3300393">
<ele>2123.58</ele>
<time>2026-08-15T13:51:11.000Z</time>
</trkpt>
<trkpt lat="46.9905097" lon="13.3299203">
<ele>2117.31</ele>
<time>2026-08-15T13:51:32.000Z</time>
</trkpt>
<trkpt lat="46.9903284" lon="13.3299236">
<ele>2107.68</ele>
<time>2026-08-15T13:52:02.000Z</time>
</trkpt>
<trkpt lat="46.9901458" lon="13.3299319">
<ele>2106.74</ele>
<time>2026-08-15T13:52:18.000Z</time>
</trkpt>
<trkpt lat="46.9899585" lon="13.3299529">
<ele>2100.95</ele>
<time>2026-08-15T13:52:37.000Z</time>
</trkpt>
<trkpt lat="46.9899005" lon="13.3302037">
<ele>2097.37</ele>
<time>2026-08-15T13:52:56.000Z</time>
</trkpt>
<trkpt lat="46.9897646" lon="13.3303775">
<ele>2094.68</ele>
<time>2026-08-15T13:53:38.000Z</time>
</trkpt>
<trkpt lat="46.9896863" lon="13.3306200">
<ele>2089.04</ele>
<time>2026-08-15T13:54:02.000Z</time>
</trkpt>
<trkpt lat="46.9895066" lon="13.3306943">
<ele>2084.47</ele>
<time>2026-08-15T13:54:44.000Z</time>
</trkpt>
<trkpt lat="46.9893419" lon="13.3308089">
<ele>2083.20</ele>
<time>2026-08-15T13:55:37.000Z</time>
</trkpt>
<trkpt lat="46.9892094" lon="13.3310083">
<ele>2077.93</ele>
<time>2026-08-15T13:56:10.000Z</time>
</trkpt>
<trkpt lat="46.9891347" lon="13.3312499">
<ele>2076.99</ele>
<time>2026-08-15T13:56:23.000Z</time>
</trkpt>
<trkpt lat="46.9890889" lon="13.3315107">
<ele>2065.35</ele>
<time>2026-08-15T13:56:57.000Z</time>
</trkpt>
<trkpt lat="46.9889706" lon="13.3317179">
<ele>2059.10</ele>
<time>2026-08-15T13:57:11.000Z</time>
</trkpt>
<trkpt lat="46.9887873" lon="13.3318028">
<ele>2063.11</ele>
<time>2026-08-15T13:57:27.000Z</time>
</trkpt>
<trkpt lat="46.9886555" lon="13.3319887">
<ele>2053.58</ele>
<time>2026-08-15T13:57:51.000Z</time>
</trkpt>
<trkpt lat="46.9885025" lon="13.3321440">
<ele>2053.02</ele>
<time>2026-08-15T13:58:09.000Z</time>
</trkpt>
<trkpt lat="46.9884281" lon="13.3323868">
<ele>2052.55</ele>
<time>2026-08-15T13:58:29.000Z</time>
</trkpt>
<trkpt lat="46.9883503" lon="13.3326406">
<ele>2052.18</ele>
<time>2026-08-15T13:58:50.000Z</time>
</trkpt>
<trkpt lat="46.9883202" lon="13.3329132">
<ele>2047.23</ele>
<time>2026-08-15T13:59:07.000Z</time>
</trkpt>
<trkpt lat="46.9883071" lon="13.3331855">
<ele>2044.99</ele>
<time>2026-08-15T13:59:21.000Z</time>
</trkpt>
<trkpt lat="46.9881968" lon="13.3334063">
<ele>2041.21</ele>
<time>2026-08-15T13:59:40.000Z</time>
</trkpt>
<trkpt lat="46.9881215" lon="13.3336608">
<ele>2031.37</ele>
<time>2026-08-15T13:59:59.000Z</time>
</trkpt>
<trkpt lat="46.9880492" lon="13.3339069">
<ele>2024.97</ele>
<time>2026-08-15T14:00:19.000Z</time>
</trkpt>
<trkpt lat="46.9880186" lon="13.3341750">
<ele>2018.95</ele>
<time>2026-08-15T14:00:37.000Z</time>
</trkpt>
<trkpt lat="46.9880530" lon="13.3344351">
<ele>2015.45</ele>
<time>2026-08-15T14:00:53.000Z</time>
</trkpt>
<trkpt lat="46.9880733" lon="13.3347160">
<ele>2014.11</ele>
<time>2026-08-15T14:01:09.000Z</time>
</trkpt>
<trkpt lat="46.9880541" lon="13.3349905">
<ele>2007.72</ele>
<time>2026-08-15T14:01:26.000Z</time>
</trkpt>
<trkpt lat="46.9880065" lon="13.3352485">
<ele>2004.33</ele>
<time>2026-08-15T14:01:43.000Z</time>
</trkpt>
<trkpt lat="46.9880425" lon="13.3355310">
<ele>1997.50</ele>
<time>2026-08-15T14:02:06.000Z</time>
</trkpt>
<trkpt lat="46.9880571" lon="13.3357958">
<ele>1993.42</ele>
<time>2026-08-15T14:02:26.000Z</time>
</trkpt>
<trkpt lat="46.9880592" lon="13.3360611">
<ele>1989.97</ele>
<time>2026-08-15T14:02:46.000Z</time>
</trkpt>
<trkpt lat="46.9881012" lon="13.3363317">
<ele>1986.13</ele>
<time>2026-08-15T14:03:07.000Z</time>
</trkpt>
<trkpt lat="46.9881797" lon="13.3365753">
<ele>1985.82</ele>
<time>2026-08-15T14:03:20.000Z</time>
</trkpt>
<trkpt lat="46.9882689" lon="13.3368067">
<ele>1978.21</ele>
<time>2026-08-15T14:03:39.000Z</time>
</trkpt>
<trkpt lat="46.9883316" lon="13.3370596">
<ele>1971.53</ele>
<time>2026-08-15T14:03:56.000Z</time>
</trkpt>
<trkpt lat="46.9884287" lon="13.3372830">
<ele>1970.44</ele>
<time>2026-08-15T14:04:21.000Z</time>
</trkpt>
<trkpt lat="46.9885085" lon="13.3375225">
<ele>1963.02</ele>
<time>2026-08-15T14:04:56.000Z</time>
</trkpt>
<trkpt lat="46.9885504" lon="13.3377887">
<ele>1958.24</ele>
<time>2026-08-15T14:05:13.000Z</time>
</trkpt>
<trkpt lat="46.9885524" lon="13.3380607">
<ele>1958.36</ele>
<time>2026-08-15T14:05:31.000Z</time>
</trkpt>
<trkpt lat="46.9885789" lon="13.3383321">
<ele>1956.03</ele>
<time>2026-08-15T14:05:50.000Z</time>
</trkpt>
<trkpt lat="46.9885751" lon="13.3386058">
<ele>1948.40</ele>
<time>2026-08-15T14:06:06.000Z</time>
</trkpt>
<trkpt lat="46.9885919" lon="13.3388817">
<ele>1943.41</ele>
<time>2026-08-15T14:06:24.000Z</time>
</trkpt>
<trkpt lat="46.9886146" lon="13.3391572">
<ele>1938.68</ele>
<time>2026-08-15T14:06:42.000Z</time>
</trkpt>
<trkpt lat="46.9886067" lon="13.3394263">
<ele>1936.75</ele>
<time>2026-08-15T14:06:58.000Z</time>
</trkpt>
<trkpt lat="46.9885887" lon="13.3397044">
<ele>1926.42</ele>
<time>2026-08-15T14:07:24.000Z</time>
</trkpt>
<trkpt lat="46.9884142" lon="13.3398002">
<ele>1916.29</ele>
<time>2026-08-15T14:07:48.000Z</time>
</trkpt>
<trkpt lat="46.9884503" lon="13.3400730">
<ele>1911.40</ele>
<time>2026-08-15T14:08:06.000Z</time>
</trkpt>
<trkpt lat="46.9883969" lon="13.3403409">
<ele>1909.46</ele>
<time>2026-08-15T14:08:23.000Z</time>
</trkpt>
<trkpt lat="46.9884060" lon="13.3406220">
<ele>1901.23</ele>
<time>2026-08-15T14:08:42.000Z</time>
</trkpt>
<trkpt lat="46.9884217" lon="13.3409000">
<ele>1897.96</ele>
<time>2026-08-15T14:09:04.000Z</time>
</trkpt>
<trkpt lat="46.9882847" lon="13.3410887">
<ele>1892.21</ele>
<time>2026-08-15T14:09:28.000Z</time>
</trkpt>
<trkpt lat="46.9881083" lon="13.3411752">
<ele>1883.56</ele>
<time>2026-08-15T14:09:48.000Z</time>
</trkpt>
<trkpt lat="46.9879289" lon="13.3412495">
<ele>1875.77</ele>
<time>2026-08-15T14:10:07.000Z</time>
</trkpt>
<trkpt lat="46.9877821" lon="13.3414146">
<ele>1866.88</ele>
<time>2026-08-15T14:10:27.000Z</time>
</trkpt>
<trkpt lat="46.9875967" lon="13.3413825">
<ele>1858.99</ele>
<time>2026-08-15T14:10:45.000Z</time>
</trkpt>
<trkpt lat="46.9874334" lon="13.3412668">
<ele>1858.50</ele>
<time>2026-08-15T14:11:00.000Z</time>
</trkpt>
<trkpt lat="46.9873517" lon="13.3410178">
<ele>1849.30</ele>
<time>2026-08-15T14:11:17.000Z</time>
</trkpt>
<trkpt lat="46.9872627" lon="13.3407870">
<ele>1850.38</ele>
<time>2026-08-15T14:11:34.000Z</time>
</trkpt>
<trkpt lat="46.9871201" lon="13.3405984">
<ele>1847.98</ele>
<time>2026-08-15T14:11:51.000Z</time>
</trkpt>
<trkpt lat="46.9870405" lon="13.3403454">
<ele>1842.31</ele>
<time>2026-08-15T14:12:12.000Z</time>
</trkpt>
<trkpt lat="46.9869025" lon="13.3401723">
<ele>1843.25</ele>
<time>2026-08-15T14:12:39.000Z</time>
</trkpt>
<trkpt lat="46.9867098" lon="13.3401869">
<ele>1834.00</ele>
<time>2026-08-15T14:12:55.000Z</time>
</trkpt>
<trkpt lat="46.9866077" lon="13.3399521">
<ele>1830.29</ele>
<time>2026-08-15T14:13:07.000Z</time>
</trkpt>
<trkpt lat="46.9864743" lon="13.3397745">
<ele>1824.30</ele>
<time>2026-08-15T14:13:24.000Z</time>
</trkpt>
<trkpt lat="46.9863835" lon="13.3395347">
<ele>1808.86</ele>
<time>2026-08-15T14:13:50.000Z</time>
</trkpt>
<trkpt lat="46.9862144" lon="13.3394442">
<ele>1805.75</ele>
<time>2026-08-15T14:14:16.000Z</time>
</trkpt>
<trkpt lat="46.9860399" lon="13.3393469">
<ele>1796.93</ele>
<time>2026-08-15T14:14:41.000Z</time>
</trkpt>
<trkpt lat="46.9858493" lon="13.3393520">
<ele>1783.60</ele>
<time>2026-08-15T14:15:00.000Z</time>
</trkpt>
<trkpt lat="46.9856643" lon="13.3393216">
<ele>1776.99</ele>
<time>2026-08-15T14:15:16.000Z</time>
</trkpt>
<trkpt lat="46.9855132" lon="13.3394977">
<ele>1771.00</ele>
<time>2026-08-15T14:15:27.000Z</time>
</trkpt>
<trkpt lat="46.9854174" lon="13.3392739">
<ele>1761.28</ele>
<time>2026-08-15T14:16:11.000Z</time>
</trkpt>
<trkpt lat="46.9854481" lon="13.3390012">
<ele>1755.32</ele>
<time>2026-08-15T14:16:25.000Z</time>
</trkpt>
<trkpt lat="46.9853987" lon="13.3387313">
<ele>1756.33</ele>
<time>2026-08-15T14:16:36.000Z</time>
</trkpt>
<trkpt lat="46.9852978" lon="13.3389675">
<ele>1752.26</ele>
<time>2026-08-15T14:16:56.000Z</time>
</trkpt>
<trkpt lat="46.9851465" lon="13.3388226">
<ele>1750.44</ele>
<time>2026-08-15T14:17:10.000Z</time>
</trkpt>
<trkpt lat="46.9850960" lon="13.3385608">
<ele>1742.98</ele>
<time>2026-08-15T14:17:32.000Z</time>
</trkpt>
<trkpt lat="46.9850192" lon="13.3383027">
<ele>1749.55</ele>
<time>2026-08-15T14:18:17.000Z</time>
</trkpt>
<trkpt lat="46.9849906" lon="13.3380412">
<ele>1747.11</ele>
<time>2026-08-15T14:18:31.000Z</time>
</trkpt>
<trkpt lat="46.9849824" lon="13.3377708">
<ele>1745.62</ele>
<time>2026-08-15T14:18:46.000Z</time>
</trkpt>
<trkpt lat="46.9849561" lon="13.3375006">
<ele>1736.04</ele>
<time>2026-08-15T14:19:03.000Z</time>
</trkpt>
<trkpt lat="46.9848837" lon="13.3372387">
<ele>1737.66</ele>
<time>2026-08-15T14:19:16.000Z</time>
</trkpt>
<trkpt lat="46.9848171" lon="13.3369859">
<ele>1731.14</ele>
<time>2026-08-15T14:19:33.000Z</time>
</trkpt>
<trkpt lat="46.9847083" lon="13.3367755">
<ele>1734.84</ele>
<time>2026-08-15T14:19:44.000Z</time>
</trkpt>
<trkpt lat="46.9846095" lon="13.3365490">
<ele>1731.92</ele>
<time>2026-08-15T14:19:55.000Z</time>
</trkpt>
<trkpt lat="46.9845329" lon="13.3362848">
<ele>1730.68</ele>
<time>2026-08-15T14:20:10.000Z</time>
</trkpt>
<trkpt lat="46.9844156" lon="13.3360783">
<ele>1721.79</ele>
<time>2026-08-15T14:20:21.000Z</time>
</trkpt>
<trkpt lat="46.9842997" lon="13.3358670">
<ele>1718.15</ele>
<time>2026-08-15T14:20:33.000Z</time>
</trkpt>
<trkpt lat="46.9842287" lon="13.3355991">
<ele>1715.05</ele>
<time>2026-08-15T14:20:46.000Z</time>
</trkpt>
<trkpt lat="46.9841256" lon="13.3353772">
<ele>1715.60</ele>
<time>2026-08-15T14:20:58.000Z</time>
</trkpt>
<trkpt lat="46.9840386" lon="13.3351342">
<ele>1712.38</ele>
<time>2026-08-15T14:21:11.000Z</time>
</trkpt>
<trkpt lat="46.9839127" lon="13.3349239">
<ele>1705.58</ele>
<time>2026-08-15T14:21:25.000Z</time>
</trkpt>
<trkpt lat="46.9838148" lon="13.3351541">
<ele>1708.61</ele>
<time>2026-08-15T14:21:37.000Z</time>
</trkpt>
<trkpt lat="46.9836485" lon="13.3350405">
<ele>1691.79</ele>
<time>2026-08-15T14:22:09.000Z</time>
</trkpt>
<trkpt lat="46.9835601" lon="13.3348105">
<ele>1689.54</ele>
<time>2026-08-15T14:22:23.000Z</time>
</trkpt>
<trkpt lat="46.9834829" lon="13.3345598">
<ele>1696.21</ele>
<time>2026-08-15T14:22:31.000Z</time>
</trkpt>
<trkpt lat="46.9834269" lon="13.3342964">
<ele>1696.17</ele>
<time>2026-08-15T14:22:41.000Z</time>
</trkpt>
<trkpt lat="46.9834099" lon="13.3340310">
<ele>1694.60</ele>
<time>2026-08-15T14:22:56.000Z</time>
</trkpt>
<trkpt lat="46.9833851" lon="13.3337629">
<ele>1681.31</ele>
<time>2026-08-15T14:23:13.000Z</time>
</trkpt>
<trkpt lat="46.9833537" lon="13.3334948">
<ele>1671.28</ele>
<time>2026-08-15T14:23:23.000Z</time>
</trkpt>
<trkpt lat="46.9833301" lon="13.3332122">
<ele>1670.92</ele>
<time>2026-08-15T14:23:33.000Z</time>
</trkpt>
<trkpt lat="46.9832826" lon="13.3329312">
<ele>1673.29</ele>
<time>2026-08-15T14:23:45.000Z</time>
</trkpt>
<trkpt lat="46.9831546" lon="13.3327335">
<ele>1675.23</ele>
<time>2026-08-15T14:23:59.000Z</time>
</trkpt>
<trkpt lat="46.9829674" lon="13.3326841">
<ele>1676.02</ele>
<time>2026-08-15T14:24:11.000Z</time>
</trkpt>
<trkpt lat="46.9827767" lon="13.3327049">
<ele>1673.67</ele>
<time>2026-08-15T14:24:21.000Z</time>
</trkpt>
<trkpt lat="46.9825977" lon="13.3326658">
<ele>1659.31</ele>
<time>2026-08-15T14:24:38.000Z</time>
</trkpt>
<trkpt lat="46.9824108" lon="13.3326557">
<ele>1658.47</ele>
<time>2026-08-15T14:24:50.000Z</time>
</trkpt>
<trkpt lat="46.9823535" lon="13.3329266">
<ele>1665.99</ele>
<time>2026-08-15T14:25:00.000Z</time>
</trkpt>
<trkpt lat="46.9823221" lon="13.3331907">
<ele>1662.73</ele>
<time>2026-08-15T14:25:16.000Z</time>
</trkpt>
<trkpt lat="46.9821509" lon="13.3330485">
<ele>1660.98</ele>
<time>2026-08-15T14:25:29.000Z</time>
</trkpt>
<trkpt lat="46.9819756" lon="13.3329356">
<ele>1656.93</ele>
<time>2026-08-15T14:25:43.000Z</time>
</trkpt>
<trkpt lat="46.9817873" lon="13.3330177">
<ele>1656.22</ele>
<time>2026-08-15T14:26:12.000Z</time>
</trkpt>
<trkpt lat="46.9817002" lon="13.3332697">
<ele>1653.07</ele>
<time>2026-08-15T14:26:27.000Z</time>
</trkpt>
<trkpt lat="46.9816179" lon="13.3335162">
<ele>1651.52</ele>
<time>2026-08-15T14:26:39.000Z</time>
</trkpt>
<trkpt lat="46.9815299" lon="13.3337613">
<ele>1648.14</ele>
<time>2026-08-15T14:26:57.000Z</time>
</trkpt>
<trkpt lat="46.9814076" lon="13.3339682">
<ele>1643.55</ele>
<time>2026-08-15T14:27:26.000Z</time>
</trkpt>
<trkpt lat="46.9812837" lon="13.3341713">
<ele>1643.49</ele>
<time>2026-08-15T14:27:50.000Z</time>
</trkpt>
<trkpt lat="46.9811236" lon="13.3343238">
<ele>1635.70</ele>
<time>2026-08-15T14:28:06.000Z</time>
</trkpt>
<trkpt lat="46.9809912" lon="13.3345165">
<ele>1639.61</ele>
<time>2026-08-15T14:28:18.000Z</time>
</trkpt>
<trkpt lat="46.9809080" lon="13.3347616">
<ele>1637.85</ele>
<time>2026-08-15T14:28:59.000Z</time>
</trkpt>
<trkpt lat="46.9807821" lon="13.3349536">
<ele>1638.73</ele>
<time>2026-08-15T14:29:13.000Z</time>
</trkpt>
<trkpt lat="46.9807052" lon="13.3351970">
<ele>1638.17</ele>
<time>2026-08-15T14:29:26.000Z</time>
</trkpt>
<trkpt lat="46.9806180" lon="13.3354280">
<ele>1635.94</ele>
<time>2026-08-15T14:29:50.000Z</time>
</trkpt>
<trkpt lat="46.9805936" lon="13.3356980">
<ele>1634.77</ele>
<time>2026-08-15T14:30:09.000Z</time>
</trkpt>
<extensions>
<om:oruxmapsextensions>
<om:ext type="NAME" subtype="0"><![CDATA[Segment: 1]]></om:ext>
</om:oruxmapsextensions>
</extensions>
</trkseg>
</trk>
</gpx>
